{
"type": "FeatureCollection",
"name": "jackfruit_alignment_audit",
"xy_coordinate_resolution": 1e-08,
"features": [
{"type":"Feature","properties":{"crop":"Jackfruit","treeNo":"1","canonicalId":"jackfruit:1"},"geometry":{"type":"Point","coordinates":[77.07904315,10.47877593]}},
{"type":"Feature","properties":{"crop":"Jackfruit","treeNo":"2","canonicalId":"jackfruit:2"},"geometry":{"type":"Point","coordinates":[77.07898024,10.47876046]}},
{"type":"Feature","properties":{"crop":"Jackfruit","treeNo":"3","canonicalId":"jackfruit:3"},"geometry":{"type":"Point","coordinates":[77.07892573,10.47875169]}},
{"type":"Feature","properties":{"crop":"Jackfruit","treeNo":"4","canonicalId":"jackfruit:4"},"geometry":{"type":"Point","coordinates":[77.07886338,10.47874433]}},
{"type":"Feature","properties":{"crop":"Jackfruit","treeNo":"5","canonicalId":"jackfruit:5"},"geometry":{"type":"Point","coordinates":[77.07880596,10.47873221]}},
{"type":"Feature","properties":{"crop":"Jackfruit","treeNo":"6","canonicalId":"jackfruit:6"},"geometry":{"type":"Point","coordinates":[77.07875672,10.47872003]}},
{"type":"Feature","properties":{"crop":"Jackfruit","treeNo":"7","canonicalId":"jackfruit:7"},"geometry":{"type":"Point","coordinates":[77.07870415,10.47872071]}},
{"type":"Feature","properties":{"crop":"Jackfruit","treeNo":"8","canonicalId":"jackfruit:8"},"geometry":{"type":"Point","coordinates":[77.07864256,10.47869848]}},
{"type":"Feature","properties":{"crop":"Jackfruit","treeNo":"9","canonicalId":"jackfruit:9"},"geometry":{"type":"Point","coordinates":[77.07858538,10.47869716]}},
{"type":"Feature","properties":{"crop":"Jackfruit","treeNo":"10","canonicalId":"jackfruit:10"},"geometry":{"type":"Point","coordinates":[77.0785288,10.4786852]}},
{"type":"Feature","properties":{"crop":"Jackfruit","treeNo":"11","canonicalId":"jackfruit:11"},"geometry":{"type":"Point","coordinates":[77.07847685,10.47867506]}},
{"type":"Feature","properties":{"crop":"Jackfruit","treeNo":"12","canonicalId":"jackfruit:12"},"geometry":{"type":"Point","coordinates":[77.0784126,10.47866484]}},
{"type":"Feature","properties":{"crop":"Jackfruit","treeNo":"13","canonicalId":"jackfruit:13"},"geometry":{"type":"Point","coordinates":[77.07836285,10.47865148]}},
{"type":"Feature","properties":{"crop":"Jackfruit","treeNo":"14","canonicalId":"jackfruit:14"},"geometry":{"type":"Point","coordinates":[77.07830833,10.47864103]}},
{"type":"Feature","properties":{"crop":"Jackfruit","treeNo":"15","canonicalId":"jackfruit:15"},"geometry":{"type":"Point","coordinates":[77.07824786,10.47863315]}},
{"type":"Feature","properties":{"crop":"Jackfruit","treeNo":"16","canonicalId":"jackfruit:16"},"geometry":{"type":"Point","coordinates":[77.07819761,10.47862317]}},
{"type":"Feature","properties":{"crop":"Jackfruit","treeNo":"17","canonicalId":"jackfruit:17"},"geometry":{"type":"Point","coordinates":[77.07813496,10.47862138]}},
{"type":"Feature","properties":{"crop":"Jackfruit","treeNo":"18","canonicalId":"jackfruit:18"},"geometry":{"type":"Point","coordinates":[77.07807527,10.47860302]}},
{"type":"Feature","properties":{"crop":"Jackfruit","treeNo":"19","canonicalId":"jackfruit:19"},"geometry":{"type":"Point","coordinates":[77.07802967,10.47859791]}},
{"type":"Feature","properties":{"crop":"Jackfruit","treeNo":"20","canonicalId":"jackfruit:20"},"geometry":{"type":"Point","coordinates":[77.07796186,10.47859143]}},
{"type":"Feature","properties":{"crop":"Jackfruit","treeNo":"21","canonicalId":"jackfruit:21"},"geometry":{"type":"Point","coordinates":[77.07790098,10.47857325]}},
{"type":"Feature","properties":{"crop":"Jackfruit","treeNo":"22","canonicalId":"jackfruit:22"},"geometry":{"type":"Point","coordinates":[77.07784742,10.47857799]}},
{"type":"Feature","properties":{"crop":"Jackfruit","treeNo":"23","canonicalId":"jackfruit:23"},"geometry":{"type":"Point","coordinates":[77.0777918,10.47855656]}},
{"type":"Feature","properties":{"crop":"Jackfruit","treeNo":"24","canonicalId":"jackfruit:24"},"geometry":{"type":"Point","coordinates":[77.0777418,10.47855655]}},
{"type":"Feature","properties":{"crop":"Jackfruit","treeNo":"25","canonicalId":"jackfruit:25"},"geometry":{"type":"Point","coordinates":[77.07768743,10.47854339]}},
{"type":"Feature","properties":{"crop":"Jackfruit","treeNo":"26","canonicalId":"jackfruit:26"},"geometry":{"type":"Point","coordinates":[77.07763774,10.47854017]}},
{"type":"Feature","properties":{"crop":"Jackfruit","treeNo":"27","canonicalId":"jackfruit:27"},"geometry":{"type":"Point","coordinates":[77.07763819,10.47860756]}},
{"type":"Feature","properties":{"crop":"Jackfruit","treeNo":"28","canonicalId":"jackfruit:28"},"geometry":{"type":"Point","coordinates":[77.077695,10.47860263]}},
{"type":"Feature","properties":{"crop":"Jackfruit","treeNo":"29","canonicalId":"jackfruit:29"},"geometry":{"type":"Point","coordinates":[77.07775121,10.47861223]}},
{"type":"Feature","properties":{"crop":"Jackfruit","treeNo":"30","canonicalId":"jackfruit:30"},"geometry":{"type":"Point","coordinates":[77.07780451,10.47861898]}},
{"type":"Feature","properties":{"crop":"Jackfruit","treeNo":"31","canonicalId":"jackfruit:31"},"geometry":{"type":"Point","coordinates":[77.07786125,10.47863043]}},
{"type":"Feature","properties":{"crop":"Jackfruit","treeNo":"32","canonicalId":"jackfruit:32"},"geometry":{"type":"Point","coordinates":[77.07791489,10.47863718]}},
{"type":"Feature","properties":{"crop":"Jackfruit","treeNo":"33","canonicalId":"jackfruit:33"},"geometry":{"type":"Point","coordinates":[77.07797316,10.47864727]}},
{"type":"Feature","properties":{"crop":"Jackfruit","treeNo":"34","canonicalId":"jackfruit:34"},"geometry":{"type":"Point","coordinates":[77.07803412,10.47865228]}},
{"type":"Feature","properties":{"crop":"Jackfruit","treeNo":"35","canonicalId":"jackfruit:35"},"geometry":{"type":"Point","coordinates":[77.0780938,10.47866878]}},
{"type":"Feature","properties":{"crop":"Jackfruit","treeNo":"36","canonicalId":"jackfruit:36"},"geometry":{"type":"Point","coordinates":[77.07814769,10.47866133]}},
{"type":"Feature","properties":{"crop":"Jackfruit","treeNo":"37","canonicalId":"jackfruit:37"},"geometry":{"type":"Point","coordinates":[77.07820857,10.47867918]}},
{"type":"Feature","properties":{"crop":"Jackfruit","treeNo":"38","canonicalId":"jackfruit:38"},"geometry":{"type":"Point","coordinates":[77.07826137,10.47868897]}},
{"type":"Feature","properties":{"crop":"Jackfruit","treeNo":"39","canonicalId":"jackfruit:39"},"geometry":{"type":"Point","coordinates":[77.07831537,10.47869808]}},
{"type":"Feature","properties":{"crop":"Jackfruit","treeNo":"40","canonicalId":"jackfruit:40"},"geometry":{"type":"Point","coordinates":[77.07836831,10.47870314]}},
{"type":"Feature","properties":{"crop":"Jackfruit","treeNo":"41","canonicalId":"jackfruit:41"},"geometry":{"type":"Point","coordinates":[77.0784261,10.47871763]}},
{"type":"Feature","properties":{"crop":"Jackfruit","treeNo":"42","canonicalId":"jackfruit:42"},"geometry":{"type":"Point","coordinates":[77.07848078,10.47872673]}},
{"type":"Feature","properties":{"crop":"Jackfruit","treeNo":"43","canonicalId":"jackfruit:43"},"geometry":{"type":"Point","coordinates":[77.07853549,10.4787409]}},
{"type":"Feature","properties":{"crop":"Jackfruit","treeNo":"44","canonicalId":"jackfruit:44"},"geometry":{"type":"Point","coordinates":[77.07859325,10.47875133]}},
{"type":"Feature","properties":{"crop":"Jackfruit","treeNo":"45","canonicalId":"jackfruit:45"},"geometry":{"type":"Point","coordinates":[77.07865918,10.47875969]}},
{"type":"Feature","properties":{"crop":"Jackfruit","treeNo":"46","canonicalId":"jackfruit:46"},"geometry":{"type":"Point","coordinates":[77.0787091,10.47877119]}},
{"type":"Feature","properties":{"crop":"Jackfruit","treeNo":"47","canonicalId":"jackfruit:47"},"geometry":{"type":"Point","coordinates":[77.07876958,10.47877991]}},
{"type":"Feature","properties":{"crop":"Jackfruit","treeNo":"48","canonicalId":"jackfruit:48"},"geometry":{"type":"Point","coordinates":[77.07882391,10.478788]}},
{"type":"Feature","properties":{"crop":"Jackfruit","treeNo":"49","canonicalId":"jackfruit:49"},"geometry":{"type":"Point","coordinates":[77.07888064,10.47879844]}},
{"type":"Feature","properties":{"crop":"Jackfruit","treeNo":"50","canonicalId":"jackfruit:50"},"geometry":{"type":"Point","coordinates":[77.07892985,10.47880623]}},
{"type":"Feature","properties":{"crop":"Jackfruit","treeNo":"51","canonicalId":"jackfruit:51"},"geometry":{"type":"Point","coordinates":[77.07898894,10.47881091]}},
{"type":"Feature","properties":{"crop":"Jackfruit","treeNo":"52","canonicalId":"jackfruit:52"},"geometry":{"type":"Point","coordinates":[77.07905595,10.47882703]}},
{"type":"Feature","properties":{"crop":"Jackfruit","treeNo":"53","canonicalId":"jackfruit:53"},"geometry":{"type":"Point","coordinates":[77.07910511,10.4788284]}},
{"type":"Feature","properties":{"crop":"Jackfruit","treeNo":"54","canonicalId":"jackfruit:54"},"geometry":{"type":"Point","coordinates":[77.07911362,10.47887564]}},
{"type":"Feature","properties":{"crop":"Jackfruit","treeNo":"55","canonicalId":"jackfruit:55"},"geometry":{"type":"Point","coordinates":[77.07905698,10.47887905]}},
{"type":"Feature","properties":{"crop":"Jackfruit","treeNo":"56","canonicalId":"jackfruit:56"},"geometry":{"type":"Point","coordinates":[77.07899686,10.47887235]}},
{"type":"Feature","properties":{"crop":"Jackfruit","treeNo":"57","canonicalId":"jackfruit:57"},"geometry":{"type":"Point","coordinates":[77.07893711,10.47887071]}},
{"type":"Feature","properties":{"crop":"Jackfruit","treeNo":"58","canonicalId":"jackfruit:58"},"geometry":{"type":"Point","coordinates":[77.07888544,10.47885179]}},
{"type":"Feature","properties":{"crop":"Jackfruit","treeNo":"59","canonicalId":"jackfruit:59"},"geometry":{"type":"Point","coordinates":[77.07883212,10.47884234]}},
{"type":"Feature","properties":{"crop":"Jackfruit","treeNo":"60","canonicalId":"jackfruit:60"},"geometry":{"type":"Point","coordinates":[77.07877336,10.47883496]}},
{"type":"Feature","properties":{"crop":"Jackfruit","treeNo":"61","canonicalId":"jackfruit:61"},"geometry":{"type":"Point","coordinates":[77.07871526,10.47882503]}},
{"type":"Feature","properties":{"crop":"Jackfruit","treeNo":"62","canonicalId":"jackfruit:62"},"geometry":{"type":"Point","coordinates":[77.07866675,10.47881859]}},
{"type":"Feature","properties":{"crop":"Jackfruit","treeNo":"63","canonicalId":"jackfruit:63"},"geometry":{"type":"Point","coordinates":[77.07860776,10.47880411]}},
{"type":"Feature","properties":{"crop":"Jackfruit","treeNo":"64","canonicalId":"jackfruit:64"},"geometry":{"type":"Point","coordinates":[77.0785538,10.47879889]}},
{"type":"Feature","properties":{"crop":"Jackfruit","treeNo":"65","canonicalId":"jackfruit:65"},"geometry":{"type":"Point","coordinates":[77.07849005,10.4787863]}},
{"type":"Feature","properties":{"crop":"Jackfruit","treeNo":"66","canonicalId":"jackfruit:66"},"geometry":{"type":"Point","coordinates":[77.07843558,10.47878378]}},
{"type":"Feature","properties":{"crop":"Jackfruit","treeNo":"67","canonicalId":"jackfruit:67"},"geometry":{"type":"Point","coordinates":[77.07837525,10.478771]}},
{"type":"Feature","properties":{"crop":"Jackfruit","treeNo":"68","canonicalId":"jackfruit:68"},"geometry":{"type":"Point","coordinates":[77.07831901,10.47875769]}},
{"type":"Feature","properties":{"crop":"Jackfruit","treeNo":"69","canonicalId":"jackfruit:69"},"geometry":{"type":"Point","coordinates":[77.07826878,10.47875092]}},
{"type":"Feature","properties":{"crop":"Jackfruit","treeNo":"70","canonicalId":"jackfruit:70"},"geometry":{"type":"Point","coordinates":[77.07821309,10.47874351]}},
{"type":"Feature","properties":{"crop":"Jackfruit","treeNo":"71","canonicalId":"jackfruit:71"},"geometry":{"type":"Point","coordinates":[77.078156,10.47873105]}},
{"type":"Feature","properties":{"crop":"Jackfruit","treeNo":"72","canonicalId":"jackfruit:72"},"geometry":{"type":"Point","coordinates":[77.0780993,10.47872601]}},
{"type":"Feature","properties":{"crop":"Jackfruit","treeNo":"73","canonicalId":"jackfruit:73"},"geometry":{"type":"Point","coordinates":[77.07803811,10.47871256]}},
{"type":"Feature","properties":{"crop":"Jackfruit","treeNo":"74","canonicalId":"jackfruit:74"},"geometry":{"type":"Point","coordinates":[77.07798211,10.47871022]}},
{"type":"Feature","properties":{"crop":"Jackfruit","treeNo":"75","canonicalId":"jackfruit:75"},"geometry":{"type":"Point","coordinates":[77.07792776,10.47869841]}},
{"type":"Feature","properties":{"crop":"Jackfruit","treeNo":"76","canonicalId":"jackfruit:76"},"geometry":{"type":"Point","coordinates":[77.07786829,10.47868799]}},
{"type":"Feature","properties":{"crop":"Jackfruit","treeNo":"77","canonicalId":"jackfruit:77"},"geometry":{"type":"Point","coordinates":[77.07781496,10.47867584]}},
{"type":"Feature","properties":{"crop":"Jackfruit","treeNo":"78","canonicalId":"jackfruit:78"},"geometry":{"type":"Point","coordinates":[77.0777579,10.47866743]}},
{"type":"Feature","properties":{"crop":"Jackfruit","treeNo":"79","canonicalId":"jackfruit:79"},"geometry":{"type":"Point","coordinates":[77.07770699,10.478661]}},
{"type":"Feature","properties":{"crop":"Jackfruit","treeNo":"80","canonicalId":"jackfruit:80"},"geometry":{"type":"Point","coordinates":[77.07764779,10.47871578]}},
{"type":"Feature","properties":{"crop":"Jackfruit","treeNo":"81","canonicalId":"jackfruit:81"},"geometry":{"type":"Point","coordinates":[77.07771259,10.47870742]}},
{"type":"Feature","properties":{"crop":"Jackfruit","treeNo":"82","canonicalId":"jackfruit:82"},"geometry":{"type":"Point","coordinates":[77.07776693,10.47871653]}},
{"type":"Feature","properties":{"crop":"Jackfruit","treeNo":"83","canonicalId":"jackfruit:83"},"geometry":{"type":"Point","coordinates":[77.07782467,10.47872426]}},
{"type":"Feature","properties":{"crop":"Jackfruit","treeNo":"84","canonicalId":"jackfruit:84"},"geometry":{"type":"Point","coordinates":[77.07788192,10.47873605]}},
{"type":"Feature","properties":{"crop":"Jackfruit","treeNo":"85","canonicalId":"jackfruit:85"},"geometry":{"type":"Point","coordinates":[77.07793354,10.47874585]}},
{"type":"Feature","properties":{"crop":"Jackfruit","treeNo":"86","canonicalId":"jackfruit:86"},"geometry":{"type":"Point","coordinates":[77.07799063,10.47875882]}},
{"type":"Feature","properties":{"crop":"Jackfruit","treeNo":"87","canonicalId":"jackfruit:87"},"geometry":{"type":"Point","coordinates":[77.07804596,10.4787642]}},
{"type":"Feature","properties":{"crop":"Jackfruit","treeNo":"88","canonicalId":"jackfruit:88"},"geometry":{"type":"Point","coordinates":[77.07810052,10.47877989]}},
{"type":"Feature","properties":{"crop":"Jackfruit","treeNo":"89","canonicalId":"jackfruit:89"},"geometry":{"type":"Point","coordinates":[77.07815859,10.47878576]}},
{"type":"Feature","properties":{"crop":"Jackfruit","treeNo":"90","canonicalId":"jackfruit:90"},"geometry":{"type":"Point","coordinates":[77.07822045,10.47879786]}},
{"type":"Feature","properties":{"crop":"Jackfruit","treeNo":"91","canonicalId":"jackfruit:91"},"geometry":{"type":"Point","coordinates":[77.07827305,10.47880258]}},
{"type":"Feature","properties":{"crop":"Jackfruit","treeNo":"92","canonicalId":"jackfruit:92"},"geometry":{"type":"Point","coordinates":[77.07832534,10.4788117]}},
{"type":"Feature","properties":{"crop":"Jackfruit","treeNo":"93","canonicalId":"jackfruit:93"},"geometry":{"type":"Point","coordinates":[77.07838584,10.47882279]}},
{"type":"Feature","properties":{"crop":"Jackfruit","treeNo":"94","canonicalId":"jackfruit:94"},"geometry":{"type":"Point","coordinates":[77.07844086,10.47883291]}},
{"type":"Feature","properties":{"crop":"Jackfruit","treeNo":"95","canonicalId":"jackfruit:95"},"geometry":{"type":"Point","coordinates":[77.07850066,10.47884231]}},
{"type":"Feature","properties":{"crop":"Jackfruit","treeNo":"96","canonicalId":"jackfruit:96"},"geometry":{"type":"Point","coordinates":[77.07855941,10.478847]}},
{"type":"Feature","properties":{"crop":"Jackfruit","treeNo":"97","canonicalId":"jackfruit:97"},"geometry":{"type":"Point","coordinates":[77.07861346,10.47886489]}},
{"type":"Feature","properties":{"crop":"Jackfruit","treeNo":"98","canonicalId":"jackfruit:98"},"geometry":{"type":"Point","coordinates":[77.07867086,10.47887296]}},
{"type":"Feature","properties":{"crop":"Jackfruit","treeNo":"99","canonicalId":"jackfruit:99"},"geometry":{"type":"Point","coordinates":[77.07872378,10.47887464]}},
{"type":"Feature","properties":{"crop":"Jackfruit","treeNo":"100","canonicalId":"jackfruit:100"},"geometry":{"type":"Point","coordinates":[77.07878427,10.47888506]}},
{"type":"Feature","properties":{"crop":"Jackfruit","treeNo":"101","canonicalId":"jackfruit:101"},"geometry":{"type":"Point","coordinates":[77.07883998,10.47889415]}},
{"type":"Feature","properties":{"crop":"Jackfruit","treeNo":"102","canonicalId":"jackfruit:102"},"geometry":{"type":"Point","coordinates":[77.07888848,10.4788989]}},
{"type":"Feature","properties":{"crop":"Jackfruit","treeNo":"103","canonicalId":"jackfruit:103"},"geometry":{"type":"Point","coordinates":[77.07895103,10.47891167]}},
{"type":"Feature","properties":{"crop":"Jackfruit","treeNo":"104","canonicalId":"jackfruit:104"},"geometry":{"type":"Point","coordinates":[77.07900644,10.47892685]}},
{"type":"Feature","properties":{"crop":"Jackfruit","treeNo":"105","canonicalId":"jackfruit:105"},"geometry":{"type":"Point","coordinates":[77.07906961,10.47892982]}},
{"type":"Feature","properties":{"crop":"Jackfruit","treeNo":"106","canonicalId":"jackfruit:106"},"geometry":{"type":"Point","coordinates":[77.07912566,10.47894094]}},
{"type":"Feature","properties":{"crop":"Jackfruit","treeNo":"107","canonicalId":"jackfruit:107"},"geometry":{"type":"Point","coordinates":[77.07913086,10.47900341]}},
{"type":"Feature","properties":{"crop":"Jackfruit","treeNo":"108","canonicalId":"jackfruit:108"},"geometry":{"type":"Point","coordinates":[77.07907275,10.4789923]}},
{"type":"Feature","properties":{"crop":"Jackfruit","treeNo":"109","canonicalId":"jackfruit:109"},"geometry":{"type":"Point","coordinates":[77.07900851,10.47898123]}},
{"type":"Feature","properties":{"crop":"Jackfruit","treeNo":"110","canonicalId":"jackfruit:110"},"geometry":{"type":"Point","coordinates":[77.07895454,10.47897618]}},
{"type":"Feature","properties":{"crop":"Jackfruit","treeNo":"111","canonicalId":"jackfruit:111"},"geometry":{"type":"Point","coordinates":[77.07890221,10.47896165]}},
{"type":"Feature","properties":{"crop":"Jackfruit","treeNo":"112","canonicalId":"jackfruit:112"},"geometry":{"type":"Point","coordinates":[77.07884377,10.47895156]}},
{"type":"Feature","properties":{"crop":"Jackfruit","treeNo":"113","canonicalId":"jackfruit:113"},"geometry":{"type":"Point","coordinates":[77.07878737,10.47893977]}},
{"type":"Feature","properties":{"crop":"Jackfruit","treeNo":"114","canonicalId":"jackfruit:114"},"geometry":{"type":"Point","coordinates":[77.07873544,10.47893301]}},
{"type":"Feature","properties":{"crop":"Jackfruit","treeNo":"115","canonicalId":"jackfruit:115"},"geometry":{"type":"Point","coordinates":[77.07868009,10.47892594]}},
{"type":"Feature","properties":{"crop":"Jackfruit","treeNo":"116","canonicalId":"jackfruit:116"},"geometry":{"type":"Point","coordinates":[77.07862198,10.4789145]}},
{"type":"Feature","properties":{"crop":"Jackfruit","treeNo":"117","canonicalId":"jackfruit:117"},"geometry":{"type":"Point","coordinates":[77.07856422,10.47890339]}},
{"type":"Feature","properties":{"crop":"Jackfruit","treeNo":"118","canonicalId":"jackfruit:118"},"geometry":{"type":"Point","coordinates":[77.07850511,10.47889431]}},
{"type":"Feature","properties":{"crop":"Jackfruit","treeNo":"119","canonicalId":"jackfruit:119"},"geometry":{"type":"Point","coordinates":[77.07844941,10.47888556]}},
{"type":"Feature","properties":{"crop":"Jackfruit","treeNo":"120","canonicalId":"jackfruit:120"},"geometry":{"type":"Point","coordinates":[77.07839403,10.47887376]}},
{"type":"Feature","properties":{"crop":"Jackfruit","treeNo":"121","canonicalId":"jackfruit:121"},"geometry":{"type":"Point","coordinates":[77.078338,10.47886703]}},
{"type":"Feature","properties":{"crop":"Jackfruit","treeNo":"122","canonicalId":"jackfruit:122"},"geometry":{"type":"Point","coordinates":[77.07828202,10.47886773]}},
{"type":"Feature","properties":{"crop":"Jackfruit","treeNo":"123","canonicalId":"jackfruit:123"},"geometry":{"type":"Point","coordinates":[77.07821947,10.47885564]}},
{"type":"Feature","properties":{"crop":"Jackfruit","treeNo":"124","canonicalId":"jackfruit:124"},"geometry":{"type":"Point","coordinates":[77.07815757,10.47883847]}},
{"type":"Feature","properties":{"crop":"Jackfruit","treeNo":"125","canonicalId":"jackfruit:125"},"geometry":{"type":"Point","coordinates":[77.07810564,10.47883104]}},
{"type":"Feature","properties":{"crop":"Jackfruit","treeNo":"126","canonicalId":"jackfruit:126"},"geometry":{"type":"Point","coordinates":[77.07805743,10.47881919]}},
{"type":"Feature","properties":{"crop":"Jackfruit","treeNo":"127","canonicalId":"jackfruit:127"},"geometry":{"type":"Point","coordinates":[77.07799694,10.47880945]}},
{"type":"Feature","properties":{"crop":"Jackfruit","treeNo":"128","canonicalId":"jackfruit:128"},"geometry":{"type":"Point","coordinates":[77.07793444,10.47880446]}},
{"type":"Feature","properties":{"crop":"Jackfruit","treeNo":"129","canonicalId":"jackfruit:129"},"geometry":{"type":"Point","coordinates":[77.07787669,10.47879504]}},
{"type":"Feature","properties":{"crop":"Jackfruit","treeNo":"130","canonicalId":"jackfruit:130"},"geometry":{"type":"Point","coordinates":[77.07783157,10.47878688]}},
{"type":"Feature","properties":{"crop":"Jackfruit","treeNo":"131","canonicalId":"jackfruit:131"},"geometry":{"type":"Point","coordinates":[77.07777348,10.47877848]}},
{"type":"Feature","properties":{"crop":"Jackfruit","treeNo":"132","canonicalId":"jackfruit:132"},"geometry":{"type":"Point","coordinates":[77.07771502,10.478764]}},
{"type":"Feature","properties":{"crop":"Jackfruit","treeNo":"133","canonicalId":"jackfruit:133"},"geometry":{"type":"Point","coordinates":[77.07767007,10.47883254]}},
{"type":"Feature","properties":{"crop":"Jackfruit","treeNo":"134","canonicalId":"jackfruit:134"},"geometry":{"type":"Point","coordinates":[77.07773148,10.47882639]}},
{"type":"Feature","properties":{"crop":"Jackfruit","treeNo":"135","canonicalId":"jackfruit:135"},"geometry":{"type":"Point","coordinates":[77.07778748,10.47882974]}},
{"type":"Feature","properties":{"crop":"Jackfruit","treeNo":"136","canonicalId":"jackfruit:136"},"geometry":{"type":"Point","coordinates":[77.07783326,10.47883552]}},
{"type":"Feature","properties":{"crop":"Jackfruit","treeNo":"137","canonicalId":"jackfruit:137"},"geometry":{"type":"Point","coordinates":[77.07789376,10.47884695]}},
{"type":"Feature","properties":{"crop":"Jackfruit","treeNo":"138","canonicalId":"jackfruit:138"},"geometry":{"type":"Point","coordinates":[77.07795017,10.47885942]}},
{"type":"Feature","properties":{"crop":"Jackfruit","treeNo":"139","canonicalId":"jackfruit:139"},"geometry":{"type":"Point","coordinates":[77.0780131,10.47887793]}},
{"type":"Feature","properties":{"crop":"Jackfruit","treeNo":"140","canonicalId":"jackfruit:140"},"geometry":{"type":"Point","coordinates":[77.07806532,10.47887725]}},
{"type":"Feature","properties":{"crop":"Jackfruit","treeNo":"141","canonicalId":"jackfruit:141"},"geometry":{"type":"Point","coordinates":[77.07811792,10.47888198]}},
{"type":"Feature","properties":{"crop":"Jackfruit","treeNo":"142","canonicalId":"jackfruit:142"},"geometry":{"type":"Point","coordinates":[77.07817092,10.47889481]}},
{"type":"Feature","properties":{"crop":"Jackfruit","treeNo":"143","canonicalId":"jackfruit:143"},"geometry":{"type":"Point","coordinates":[77.07823312,10.47890521]}},
{"type":"Feature","properties":{"crop":"Jackfruit","treeNo":"144","canonicalId":"jackfruit:144"},"geometry":{"type":"Point","coordinates":[77.07828985,10.47891532]}},
{"type":"Feature","properties":{"crop":"Jackfruit","treeNo":"145","canonicalId":"jackfruit:145"},"geometry":{"type":"Point","coordinates":[77.07834894,10.47892101]}},
{"type":"Feature","properties":{"crop":"Jackfruit","treeNo":"146","canonicalId":"jackfruit:146"},"geometry":{"type":"Point","coordinates":[77.07840704,10.47893077]}},
{"type":"Feature","properties":{"crop":"Jackfruit","treeNo":"147","canonicalId":"jackfruit:147"},"geometry":{"type":"Point","coordinates":[77.07845929,10.47893414]}},
{"type":"Feature","properties":{"crop":"Jackfruit","treeNo":"148","canonicalId":"jackfruit:148"},"geometry":{"type":"Point","coordinates":[77.07851337,10.47895676]}},
{"type":"Feature","properties":{"crop":"Jackfruit","treeNo":"149","canonicalId":"jackfruit:149"},"geometry":{"type":"Point","coordinates":[77.07857045,10.47896754]}},
{"type":"Feature","properties":{"crop":"Jackfruit","treeNo":"150","canonicalId":"jackfruit:150"},"geometry":{"type":"Point","coordinates":[77.07862919,10.47897053]}},
{"type":"Feature","properties":{"crop":"Jackfruit","treeNo":"151","canonicalId":"jackfruit:151"},"geometry":{"type":"Point","coordinates":[77.07868796,10.47897961]}},
{"type":"Feature","properties":{"crop":"Jackfruit","treeNo":"152","canonicalId":"jackfruit:152"},"geometry":{"type":"Point","coordinates":[77.07874603,10.47898565]}},
{"type":"Feature","properties":{"crop":"Jackfruit","treeNo":"153","canonicalId":"jackfruit:153"},"geometry":{"type":"Point","coordinates":[77.07879594,10.47899681]}},
{"type":"Feature","properties":{"crop":"Jackfruit","treeNo":"154","canonicalId":"jackfruit:154"},"geometry":{"type":"Point","coordinates":[77.07885062,10.47900558]}},
{"type":"Feature","properties":{"crop":"Jackfruit","treeNo":"155","canonicalId":"jackfruit:155"},"geometry":{"type":"Point","coordinates":[77.078914,10.47901496]}},
{"type":"Feature","properties":{"crop":"Jackfruit","treeNo":"156","canonicalId":"jackfruit:156"},"geometry":{"type":"Point","coordinates":[77.07896715,10.47902542]}},
{"type":"Feature","properties":{"crop":"Jackfruit","treeNo":"157","canonicalId":"jackfruit:157"},"geometry":{"type":"Point","coordinates":[77.07902011,10.47903166]}},
{"type":"Feature","properties":{"crop":"Jackfruit","treeNo":"158","canonicalId":"jackfruit:158"},"geometry":{"type":"Point","coordinates":[77.07907958,10.47904276]}},
{"type":"Feature","properties":{"crop":"Jackfruit","treeNo":"159","canonicalId":"jackfruit:159"},"geometry":{"type":"Point","coordinates":[77.07913835,10.47905116]}},
{"type":"Feature","properties":{"crop":"Jackfruit","treeNo":"160","canonicalId":"jackfruit:160"},"geometry":{"type":"Point","coordinates":[77.07914489,10.47911058]}},
{"type":"Feature","properties":{"crop":"Jackfruit","treeNo":"161","canonicalId":"jackfruit:161"},"geometry":{"type":"Point","coordinates":[77.07908425,10.47910304]}},
{"type":"Feature","properties":{"crop":"Jackfruit","treeNo":"162","canonicalId":"jackfruit:162"},"geometry":{"type":"Point","coordinates":[77.07902771,10.47909682]}},
{"type":"Feature","properties":{"crop":"Jackfruit","treeNo":"163","canonicalId":"jackfruit:163"},"geometry":{"type":"Point","coordinates":[77.07897489,10.4790845]}},
{"type":"Feature","properties":{"crop":"Jackfruit","treeNo":"164","canonicalId":"jackfruit:164"},"geometry":{"type":"Point","coordinates":[77.07892292,10.479072]}},
{"type":"Feature","properties":{"crop":"Jackfruit","treeNo":"165","canonicalId":"jackfruit:165"},"geometry":{"type":"Point","coordinates":[77.07886109,10.47906564]}},
{"type":"Feature","properties":{"crop":"Jackfruit","treeNo":"166","canonicalId":"jackfruit:166"},"geometry":{"type":"Point","coordinates":[77.07880195,10.47905252]}},
{"type":"Feature","properties":{"crop":"Jackfruit","treeNo":"167","canonicalId":"jackfruit:167"},"geometry":{"type":"Point","coordinates":[77.0787534,10.47904168]}},
{"type":"Feature","properties":{"crop":"Jackfruit","treeNo":"168","canonicalId":"jackfruit:168"},"geometry":{"type":"Point","coordinates":[77.07869501,10.47903801]}},
{"type":"Feature","properties":{"crop":"Jackfruit","treeNo":"169","canonicalId":"jackfruit:169"},"geometry":{"type":"Point","coordinates":[77.07863628,10.47903603]}},
{"type":"Feature","properties":{"crop":"Jackfruit","treeNo":"170","canonicalId":"jackfruit:170"},"geometry":{"type":"Point","coordinates":[77.07858051,10.47901714]}},
{"type":"Feature","properties":{"crop":"Jackfruit","treeNo":"171","canonicalId":"jackfruit:171"},"geometry":{"type":"Point","coordinates":[77.07852551,10.47901074]}},
{"type":"Feature","properties":{"crop":"Jackfruit","treeNo":"172","canonicalId":"jackfruit:172"},"geometry":{"type":"Point","coordinates":[77.07847148,10.47899657]}},
{"type":"Feature","properties":{"crop":"Jackfruit","treeNo":"173","canonicalId":"jackfruit:173"},"geometry":{"type":"Point","coordinates":[77.07841137,10.47899155]}},
{"type":"Feature","properties":{"crop":"Jackfruit","treeNo":"174","canonicalId":"jackfruit:174"},"geometry":{"type":"Point","coordinates":[77.07835839,10.47898176]}},
{"type":"Feature","properties":{"crop":"Jackfruit","treeNo":"175","canonicalId":"jackfruit:175"},"geometry":{"type":"Point","coordinates":[77.07829586,10.47897204]}},
{"type":"Feature","properties":{"crop":"Jackfruit","treeNo":"176","canonicalId":"jackfruit:176"},"geometry":{"type":"Point","coordinates":[77.07823744,10.47896431]}},
{"type":"Feature","properties":{"crop":"Jackfruit","treeNo":"177","canonicalId":"jackfruit:177"},"geometry":{"type":"Point","coordinates":[77.0781752,10.4789485]}},
{"type":"Feature","properties":{"crop":"Jackfruit","treeNo":"178","canonicalId":"jackfruit:178"},"geometry":{"type":"Point","coordinates":[77.07811709,10.47893604]}},
{"type":"Feature","properties":{"crop":"Jackfruit","treeNo":"179","canonicalId":"jackfruit:179"},"geometry":{"type":"Point","coordinates":[77.07806993,10.47892891]}},
{"type":"Feature","properties":{"crop":"Jackfruit","treeNo":"180","canonicalId":"jackfruit:180"},"geometry":{"type":"Point","coordinates":[77.07801528,10.47892387]}},
{"type":"Feature","properties":{"crop":"Jackfruit","treeNo":"181","canonicalId":"jackfruit:181"},"geometry":{"type":"Point","coordinates":[77.07795859,10.47892018]}},
{"type":"Feature","properties":{"crop":"Jackfruit","treeNo":"182","canonicalId":"jackfruit:182"},"geometry":{"type":"Point","coordinates":[77.07789773,10.47890436]}},
{"type":"Feature","properties":{"crop":"Jackfruit","treeNo":"183","canonicalId":"jackfruit:183"},"geometry":{"type":"Point","coordinates":[77.07784839,10.47887766]}},
{"type":"Feature","properties":{"crop":"Jackfruit","treeNo":"184","canonicalId":"jackfruit:184"},"geometry":{"type":"Point","coordinates":[77.0777911,10.47888546]}},
{"type":"Feature","properties":{"crop":"Jackfruit","treeNo":"185","canonicalId":"jackfruit:185"},"geometry":{"type":"Point","coordinates":[77.07773716,10.47888582]}},
{"type":"Feature","properties":{"crop":"Jackfruit","treeNo":"186","canonicalId":"jackfruit:186"},"geometry":{"type":"Point","coordinates":[77.07768387,10.47888008]}},
{"type":"Feature","properties":{"crop":"Jackfruit","treeNo":"187","canonicalId":"jackfruit:187"},"geometry":{"type":"Point","coordinates":[77.07773885,10.47893446]}},
{"type":"Feature","properties":{"crop":"Jackfruit","treeNo":"188","canonicalId":"jackfruit:188"},"geometry":{"type":"Point","coordinates":[77.07779897,10.47893947]}},
{"type":"Feature","properties":{"crop":"Jackfruit","treeNo":"189","canonicalId":"jackfruit:189"},"geometry":{"type":"Point","coordinates":[77.07784887,10.47894928]}},
{"type":"Feature","properties":{"crop":"Jackfruit","treeNo":"190","canonicalId":"jackfruit:190"},"geometry":{"type":"Point","coordinates":[77.07792201,10.47896231]}},
{"type":"Feature","properties":{"crop":"Jackfruit","treeNo":"191","canonicalId":"jackfruit:191"},"geometry":{"type":"Point","coordinates":[77.07797119,10.47896672]}},
{"type":"Feature","properties":{"crop":"Jackfruit","treeNo":"192","canonicalId":"jackfruit:192"},"geometry":{"type":"Point","coordinates":[77.07802725,10.47897852]}},
{"type":"Feature","properties":{"crop":"Jackfruit","treeNo":"193","canonicalId":"jackfruit:193"},"geometry":{"type":"Point","coordinates":[77.07807612,10.47898699]}},
{"type":"Feature","properties":{"crop":"Jackfruit","treeNo":"194","canonicalId":"jackfruit:194"},"geometry":{"type":"Point","coordinates":[77.07814137,10.47899467]}},
{"type":"Feature","properties":{"crop":"Jackfruit","treeNo":"195","canonicalId":"jackfruit:195"},"geometry":{"type":"Point","coordinates":[77.07819469,10.47900412]}},
{"type":"Feature","properties":{"crop":"Jackfruit","treeNo":"196","canonicalId":"jackfruit:196"},"geometry":{"type":"Point","coordinates":[77.0782538,10.47901285]}},
{"type":"Feature","properties":{"crop":"Jackfruit","treeNo":"197","canonicalId":"jackfruit:197"},"geometry":{"type":"Point","coordinates":[77.07830164,10.47902031]}},
{"type":"Feature","properties":{"crop":"Jackfruit","treeNo":"198","canonicalId":"jackfruit:198"},"geometry":{"type":"Point","coordinates":[77.07835739,10.47903583]}},
{"type":"Feature","properties":{"crop":"Jackfruit","treeNo":"199","canonicalId":"jackfruit:199"},"geometry":{"type":"Point","coordinates":[77.07841956,10.47904285]}},
{"type":"Feature","properties":{"crop":"Jackfruit","treeNo":"200","canonicalId":"jackfruit:200"},"geometry":{"type":"Point","coordinates":[77.078479,10.47904855]}},
{"type":"Feature","properties":{"crop":"Jackfruit","treeNo":"201","canonicalId":"jackfruit:201"},"geometry":{"type":"Point","coordinates":[77.07853025,10.47905632]}},
{"type":"Feature","properties":{"crop":"Jackfruit","treeNo":"202","canonicalId":"jackfruit:202"},"geometry":{"type":"Point","coordinates":[77.07858751,10.47906878]}},
{"type":"Feature","properties":{"crop":"Jackfruit","treeNo":"203","canonicalId":"jackfruit:203"},"geometry":{"type":"Point","coordinates":[77.07863882,10.47908416]}},
{"type":"Feature","properties":{"crop":"Jackfruit","treeNo":"204","canonicalId":"jackfruit:204"},"geometry":{"type":"Point","coordinates":[77.07870593,10.47908929]}},
{"type":"Feature","properties":{"crop":"Jackfruit","treeNo":"205","canonicalId":"jackfruit:205"},"geometry":{"type":"Point","coordinates":[77.07875803,10.47909571]}},
{"type":"Feature","properties":{"crop":"Jackfruit","treeNo":"206","canonicalId":"jackfruit:206"},"geometry":{"type":"Point","coordinates":[77.07881324,10.47910853]}},
{"type":"Feature","properties":{"crop":"Jackfruit","treeNo":"207","canonicalId":"jackfruit:207"},"geometry":{"type":"Point","coordinates":[77.0788703,10.47911592]}},
{"type":"Feature","properties":{"crop":"Jackfruit","treeNo":"208","canonicalId":"jackfruit:208"},"geometry":{"type":"Point","coordinates":[77.07892769,10.47912197]}},
{"type":"Feature","properties":{"crop":"Jackfruit","treeNo":"209","canonicalId":"jackfruit:209"},"geometry":{"type":"Point","coordinates":[77.07897758,10.47912941]}},
{"type":"Feature","properties":{"crop":"Jackfruit","treeNo":"210","canonicalId":"jackfruit:210"},"geometry":{"type":"Point","coordinates":[77.0790388,10.47914726]}},
{"type":"Feature","properties":{"crop":"Jackfruit","treeNo":"211","canonicalId":"jackfruit:211"},"geometry":{"type":"Point","coordinates":[77.07908901,10.47915166]}},
{"type":"Feature","properties":{"crop":"Jackfruit","treeNo":"212","canonicalId":"jackfruit:212"},"geometry":{"type":"Point","coordinates":[77.07915221,10.47915969]}},
{"type":"Feature","properties":{"crop":"Jackfruit","treeNo":"213","canonicalId":"jackfruit:213"},"geometry":{"type":"Point","coordinates":[77.07916117,10.47922349]}},
{"type":"Feature","properties":{"crop":"Jackfruit","treeNo":"214","canonicalId":"jackfruit:214"},"geometry":{"type":"Point","coordinates":[77.07909043,10.47921077]}},
{"type":"Feature","properties":{"crop":"Jackfruit","treeNo":"215","canonicalId":"jackfruit:215"},"geometry":{"type":"Point","coordinates":[77.07904599,10.47920228]}},
{"type":"Feature","properties":{"crop":"Jackfruit","treeNo":"216","canonicalId":"jackfruit:216"},"geometry":{"type":"Point","coordinates":[77.07899093,10.47918676]}},
{"type":"Feature","properties":{"crop":"Jackfruit","treeNo":"217","canonicalId":"jackfruit:217"},"geometry":{"type":"Point","coordinates":[77.07893083,10.4791831]}},
{"type":"Feature","properties":{"crop":"Jackfruit","treeNo":"218","canonicalId":"jackfruit:218"},"geometry":{"type":"Point","coordinates":[77.07887036,10.4791764]}},
{"type":"Feature","properties":{"crop":"Jackfruit","treeNo":"219","canonicalId":"jackfruit:219"},"geometry":{"type":"Point","coordinates":[77.07881705,10.47916729]}},
{"type":"Feature","properties":{"crop":"Jackfruit","treeNo":"220","canonicalId":"jackfruit:220"},"geometry":{"type":"Point","coordinates":[77.07875759,10.47915822]}},
{"type":"Feature","properties":{"crop":"Jackfruit","treeNo":"221","canonicalId":"jackfruit:221"},"geometry":{"type":"Point","coordinates":[77.0787094,10.47914907]}},
{"type":"Feature","properties":{"crop":"Jackfruit","treeNo":"222","canonicalId":"jackfruit:222"},"geometry":{"type":"Point","coordinates":[77.07865538,10.47913557]}},
{"type":"Feature","properties":{"crop":"Jackfruit","treeNo":"223","canonicalId":"jackfruit:223"},"geometry":{"type":"Point","coordinates":[77.0785963,10.47913258]}},
{"type":"Feature","properties":{"crop":"Jackfruit","treeNo":"224","canonicalId":"jackfruit:224"},"geometry":{"type":"Point","coordinates":[77.07853438,10.47911305]}},
{"type":"Feature","properties":{"crop":"Jackfruit","treeNo":"225","canonicalId":"jackfruit:225"},"geometry":{"type":"Point","coordinates":[77.07847969,10.47910125]}},
{"type":"Feature","properties":{"crop":"Jackfruit","treeNo":"226","canonicalId":"jackfruit:226"},"geometry":{"type":"Point","coordinates":[77.07843599,10.47910086]}},
{"type":"Feature","properties":{"crop":"Jackfruit","treeNo":"227","canonicalId":"jackfruit:227"},"geometry":{"type":"Point","coordinates":[77.07836424,10.47909119]}},
{"type":"Feature","properties":{"crop":"Jackfruit","treeNo":"228","canonicalId":"jackfruit:228"},"geometry":{"type":"Point","coordinates":[77.07830958,10.47908411]}},
{"type":"Feature","properties":{"crop":"Jackfruit","treeNo":"229","canonicalId":"jackfruit:229"},"geometry":{"type":"Point","coordinates":[77.07826095,10.47906078]}},
{"type":"Feature","properties":{"crop":"Jackfruit","treeNo":"230","canonicalId":"jackfruit:230"},"geometry":{"type":"Point","coordinates":[77.07819662,10.47906306]}},
{"type":"Feature","properties":{"crop":"Jackfruit","treeNo":"231","canonicalId":"jackfruit:231"},"geometry":{"type":"Point","coordinates":[77.07813818,10.47905331]}},
{"type":"Feature","properties":{"crop":"Jackfruit","treeNo":"232","canonicalId":"jackfruit:232"},"geometry":{"type":"Point","coordinates":[77.0780828,10.47904184]}},
{"type":"Feature","properties":{"crop":"Jackfruit","treeNo":"233","canonicalId":"jackfruit:233"},"geometry":{"type":"Point","coordinates":[77.07803208,10.47903694]}},
{"type":"Feature","properties":{"crop":"Jackfruit","treeNo":"234","canonicalId":"jackfruit:234"},"geometry":{"type":"Point","coordinates":[77.07796713,10.4790225]}},
{"type":"Feature","properties":{"crop":"Jackfruit","treeNo":"235","canonicalId":"jackfruit:235"},"geometry":{"type":"Point","coordinates":[77.07791793,10.47901674]}},
{"type":"Feature","properties":{"crop":"Jackfruit","treeNo":"236","canonicalId":"jackfruit:236"},"geometry":{"type":"Point","coordinates":[77.07785639,10.47900227]}},
{"type":"Feature","properties":{"crop":"Jackfruit","treeNo":"237","canonicalId":"jackfruit:237"},"geometry":{"type":"Point","coordinates":[77.07779968,10.47899589]}},
{"type":"Feature","properties":{"crop":"Jackfruit","treeNo":"238","canonicalId":"jackfruit:238"},"geometry":{"type":"Point","coordinates":[77.07774369,10.47899422]}},
{"type":"Feature","properties":{"crop":"Jackfruit","treeNo":"239","canonicalId":"jackfruit:239"},"geometry":{"type":"Point","coordinates":[77.07769189,10.47900111]}},
{"type":"Feature","properties":{"crop":"Jackfruit","treeNo":"240","canonicalId":"jackfruit:240"},"geometry":{"type":"Point","coordinates":[77.07769544,10.47905936]}},
{"type":"Feature","properties":{"crop":"Jackfruit","treeNo":"241","canonicalId":"jackfruit:241"},"geometry":{"type":"Point","coordinates":[77.07775408,10.47904918]}},
{"type":"Feature","properties":{"crop":"Jackfruit","treeNo":"242","canonicalId":"jackfruit:242"},"geometry":{"type":"Point","coordinates":[77.07781486,10.47905217]}},
{"type":"Feature","properties":{"crop":"Jackfruit","treeNo":"243","canonicalId":"jackfruit:243"},"geometry":{"type":"Point","coordinates":[77.07787194,10.47906193]}},
{"type":"Feature","properties":{"crop":"Jackfruit","treeNo":"244","canonicalId":"jackfruit:244"},"geometry":{"type":"Point","coordinates":[77.0779273,10.47907136]}},
{"type":"Feature","properties":{"crop":"Jackfruit","treeNo":"245","canonicalId":"jackfruit:245"},"geometry":{"type":"Point","coordinates":[77.07798367,10.47907877]}},
{"type":"Feature","properties":{"crop":"Jackfruit","treeNo":"246","canonicalId":"jackfruit:246"},"geometry":{"type":"Point","coordinates":[77.07803836,10.47908855]}},
{"type":"Feature","properties":{"crop":"Jackfruit","treeNo":"247","canonicalId":"jackfruit:247"},"geometry":{"type":"Point","coordinates":[77.07809405,10.47909595]}},
{"type":"Feature","properties":{"crop":"Jackfruit","treeNo":"248","canonicalId":"jackfruit:248"},"geometry":{"type":"Point","coordinates":[77.07815257,10.47911854]}},
{"type":"Feature","properties":{"crop":"Jackfruit","treeNo":"249","canonicalId":"jackfruit:249"},"geometry":{"type":"Point","coordinates":[77.07826734,10.47912962]}},
{"type":"Feature","properties":{"crop":"Jackfruit","treeNo":"250","canonicalId":"jackfruit:250"},"geometry":{"type":"Point","coordinates":[77.07832268,10.479135]}},
{"type":"Feature","properties":{"crop":"Jackfruit","treeNo":"251","canonicalId":"jackfruit:251"},"geometry":{"type":"Point","coordinates":[77.07837497,10.47914479]}},
{"type":"Feature","properties":{"crop":"Jackfruit","treeNo":"252","canonicalId":"jackfruit:252"},"geometry":{"type":"Point","coordinates":[77.07842829,10.47915492]}},
{"type":"Feature","properties":{"crop":"Jackfruit","treeNo":"253","canonicalId":"jackfruit:253"},"geometry":{"type":"Point","coordinates":[77.0784956,10.47916495]}},
{"type":"Feature","properties":{"crop":"Jackfruit","treeNo":"254","canonicalId":"jackfruit:254"},"geometry":{"type":"Point","coordinates":[77.07855166,10.47917675]}},
{"type":"Feature","properties":{"crop":"Jackfruit","treeNo":"255","canonicalId":"jackfruit:255"},"geometry":{"type":"Point","coordinates":[77.07860459,10.47917877]}},
{"type":"Feature","properties":{"crop":"Jackfruit","treeNo":"256","canonicalId":"jackfruit:256"},"geometry":{"type":"Point","coordinates":[77.07866506,10.47918614]}},
{"type":"Feature","properties":{"crop":"Jackfruit","treeNo":"257","canonicalId":"jackfruit:257"},"geometry":{"type":"Point","coordinates":[77.07871122,10.47919767]}},
{"type":"Feature","properties":{"crop":"Jackfruit","treeNo":"258","canonicalId":"jackfruit:258"},"geometry":{"type":"Point","coordinates":[77.07877449,10.4792155]}},
{"type":"Feature","properties":{"crop":"Jackfruit","treeNo":"259","canonicalId":"jackfruit:259"},"geometry":{"type":"Point","coordinates":[77.0788329,10.47922086]}},
{"type":"Feature","properties":{"crop":"Jackfruit","treeNo":"260","canonicalId":"jackfruit:260"},"geometry":{"type":"Point","coordinates":[77.07888445,10.47922188]}},
{"type":"Feature","properties":{"crop":"Jackfruit","treeNo":"261","canonicalId":"jackfruit:261"},"geometry":{"type":"Point","coordinates":[77.07894878,10.4792451]}},
{"type":"Feature","properties":{"crop":"Jackfruit","treeNo":"262","canonicalId":"jackfruit:262"},"geometry":{"type":"Point","coordinates":[77.07899965,10.47924612]}},
{"type":"Feature","properties":{"crop":"Jackfruit","treeNo":"263","canonicalId":"jackfruit:263"},"geometry":{"type":"Point","coordinates":[77.07905123,10.47925153]}},
{"type":"Feature","properties":{"crop":"Jackfruit","treeNo":"264","canonicalId":"jackfruit:264"},"geometry":{"type":"Point","coordinates":[77.07910834,10.47926636]}},
{"type":"Feature","properties":{"crop":"Jackfruit","treeNo":"265","canonicalId":"jackfruit:265"},"geometry":{"type":"Point","coordinates":[77.0791586,10.47927921]}},
{"type":"Feature","properties":{"crop":"Jackfruit","treeNo":"266","canonicalId":"jackfruit:266"},"geometry":{"type":"Point","coordinates":[77.07917126,10.47933521]}},
{"type":"Feature","properties":{"crop":"Jackfruit","treeNo":"267","canonicalId":"jackfruit:267"},"geometry":{"type":"Point","coordinates":[77.07911997,10.47932169]}},
{"type":"Feature","properties":{"crop":"Jackfruit","treeNo":"268","canonicalId":"jackfruit:268"},"geometry":{"type":"Point","coordinates":[77.0790602,10.47931668]}},
{"type":"Feature","properties":{"crop":"Jackfruit","treeNo":"269","canonicalId":"jackfruit:269"},"geometry":{"type":"Point","coordinates":[77.07900893,10.47930755]}},
{"type":"Feature","properties":{"crop":"Jackfruit","treeNo":"270","canonicalId":"jackfruit:270"},"geometry":{"type":"Point","coordinates":[77.07894667,10.47928735]}},
{"type":"Feature","properties":{"crop":"Jackfruit","treeNo":"271","canonicalId":"jackfruit:271"},"geometry":{"type":"Point","coordinates":[77.07888728,10.4792874]}},
{"type":"Feature","properties":{"crop":"Jackfruit","treeNo":"272","canonicalId":"jackfruit:272"},"geometry":{"type":"Point","coordinates":[77.07883259,10.47927762]}},
{"type":"Feature","properties":{"crop":"Jackfruit","treeNo":"273","canonicalId":"jackfruit:273"},"geometry":{"type":"Point","coordinates":[77.07877657,10.47927191]}},
{"type":"Feature","properties":{"crop":"Jackfruit","treeNo":"274","canonicalId":"jackfruit:274"},"geometry":{"type":"Point","coordinates":[77.07871915,10.47926147]}},
{"type":"Feature","properties":{"crop":"Jackfruit","treeNo":"275","canonicalId":"jackfruit:275"},"geometry":{"type":"Point","coordinates":[77.07866204,10.47924529]}},
{"type":"Feature","properties":{"crop":"Jackfruit","treeNo":"276","canonicalId":"jackfruit:276"},"geometry":{"type":"Point","coordinates":[77.07861559,10.47924188]}},
{"type":"Feature","properties":{"crop":"Jackfruit","treeNo":"277","canonicalId":"jackfruit:277"},"geometry":{"type":"Point","coordinates":[77.07855858,10.47924157]}},
{"type":"Feature","properties":{"crop":"Jackfruit","treeNo":"278","canonicalId":"jackfruit:278"},"geometry":{"type":"Point","coordinates":[77.07850335,10.47922622]}},
{"type":"Feature","properties":{"crop":"Jackfruit","treeNo":"279","canonicalId":"jackfruit:279"},"geometry":{"type":"Point","coordinates":[77.07844168,10.47921835]}},
{"type":"Feature","properties":{"crop":"Jackfruit","treeNo":"280","canonicalId":"jackfruit:280"},"geometry":{"type":"Point","coordinates":[77.07838563,10.47920807]}},
{"type":"Feature","properties":{"crop":"Jackfruit","treeNo":"281","canonicalId":"jackfruit:281"},"geometry":{"type":"Point","coordinates":[77.07832379,10.47919969]}},
{"type":"Feature","properties":{"crop":"Jackfruit","treeNo":"282","canonicalId":"jackfruit:282"},"geometry":{"type":"Point","coordinates":[77.07826502,10.47919146]}},
{"type":"Feature","properties":{"crop":"Jackfruit","treeNo":"283","canonicalId":"jackfruit:283"},"geometry":{"type":"Point","coordinates":[77.07821264,10.47916849]}},
{"type":"Feature","properties":{"crop":"Jackfruit","treeNo":"284","canonicalId":"jackfruit:284"},"geometry":{"type":"Point","coordinates":[77.07815935,10.47916242]}},
{"type":"Feature","properties":{"crop":"Jackfruit","treeNo":"285","canonicalId":"jackfruit:285"},"geometry":{"type":"Point","coordinates":[77.07810744,10.47915871]}},
{"type":"Feature","properties":{"crop":"Jackfruit","treeNo":"286","canonicalId":"jackfruit:286"},"geometry":{"type":"Point","coordinates":[77.07805206,10.4791469]}},
{"type":"Feature","properties":{"crop":"Jackfruit","treeNo":"287","canonicalId":"jackfruit:287"},"geometry":{"type":"Point","coordinates":[77.07799018,10.47913379]}},
{"type":"Feature","properties":{"crop":"Jackfruit","treeNo":"288","canonicalId":"jackfruit:288"},"geometry":{"type":"Point","coordinates":[77.07793215,10.4791335]}},
{"type":"Feature","properties":{"crop":"Jackfruit","treeNo":"289","canonicalId":"jackfruit:289"},"geometry":{"type":"Point","coordinates":[77.07788361,10.47912368]}},
{"type":"Feature","properties":{"crop":"Jackfruit","treeNo":"290","canonicalId":"jackfruit:290"},"geometry":{"type":"Point","coordinates":[77.0778245,10.47911427]}},
{"type":"Feature","properties":{"crop":"Jackfruit","treeNo":"291","canonicalId":"jackfruit:291"},"geometry":{"type":"Point","coordinates":[77.07775818,10.47910085]}},
{"type":"Feature","properties":{"crop":"Jackfruit","treeNo":"292","canonicalId":"jackfruit:292"},"geometry":{"type":"Point","coordinates":[77.07770496,10.47910593]}},
{"type":"Feature","properties":{"crop":"Jackfruit","treeNo":"293","canonicalId":"jackfruit:293"},"geometry":{"type":"Point","coordinates":[77.07771528,10.47916904]}},
{"type":"Feature","properties":{"crop":"Jackfruit","treeNo":"294","canonicalId":"jackfruit:294"},"geometry":{"type":"Point","coordinates":[77.07776852,10.47916632]}},
{"type":"Feature","properties":{"crop":"Jackfruit","treeNo":"295","canonicalId":"jackfruit:295"},"geometry":{"type":"Point","coordinates":[77.07782727,10.47917202]}},
{"type":"Feature","properties":{"crop":"Jackfruit","treeNo":"296","canonicalId":"jackfruit:296"},"geometry":{"type":"Point","coordinates":[77.07789078,10.47917499]}},
{"type":"Feature","properties":{"crop":"Jackfruit","treeNo":"297","canonicalId":"jackfruit:297"},"geometry":{"type":"Point","coordinates":[77.07793862,10.47918177]}},
{"type":"Feature","properties":{"crop":"Jackfruit","treeNo":"298","canonicalId":"jackfruit:298"},"geometry":{"type":"Point","coordinates":[77.07799056,10.47919021]}},
{"type":"Feature","properties":{"crop":"Jackfruit","treeNo":"299","canonicalId":"jackfruit:299"},"geometry":{"type":"Point","coordinates":[77.07805649,10.47919789]}},
{"type":"Feature","properties":{"crop":"Jackfruit","treeNo":"300","canonicalId":"jackfruit:300"},"geometry":{"type":"Point","coordinates":[77.07810778,10.47920972]}},
{"type":"Feature","properties":{"crop":"Jackfruit","treeNo":"301","canonicalId":"jackfruit:301"},"geometry":{"type":"Point","coordinates":[77.07816859,10.47921709]}},
{"type":"Feature","properties":{"crop":"Jackfruit","treeNo":"302","canonicalId":"jackfruit:302"},"geometry":{"type":"Point","coordinates":[77.07821956,10.47923331]}},
{"type":"Feature","properties":{"crop":"Jackfruit","treeNo":"303","canonicalId":"jackfruit:303"},"geometry":{"type":"Point","coordinates":[77.07827728,10.47923834]}},
{"type":"Feature","properties":{"crop":"Jackfruit","treeNo":"304","canonicalId":"jackfruit:304"},"geometry":{"type":"Point","coordinates":[77.078334,10.47924676]}},
{"type":"Feature","properties":{"crop":"Jackfruit","treeNo":"305","canonicalId":"jackfruit:305"},"geometry":{"type":"Point","coordinates":[77.07839449,10.47925616]}},
{"type":"Feature","properties":{"crop":"Jackfruit","treeNo":"306","canonicalId":"jackfruit:306"},"geometry":{"type":"Point","coordinates":[77.07844812,10.47926155]}},
{"type":"Feature","properties":{"crop":"Jackfruit","treeNo":"307","canonicalId":"jackfruit:307"},"geometry":{"type":"Point","coordinates":[77.07850313,10.47927065]}},
{"type":"Feature","properties":{"crop":"Jackfruit","treeNo":"308","canonicalId":"jackfruit:308"},"geometry":{"type":"Point","coordinates":[77.07855611,10.4792801]}},
{"type":"Feature","properties":{"crop":"Jackfruit","treeNo":"309","canonicalId":"jackfruit:309"},"geometry":{"type":"Point","coordinates":[77.0786156,10.47929424]}},
{"type":"Feature","properties":{"crop":"Jackfruit","treeNo":"310","canonicalId":"jackfruit:310"},"geometry":{"type":"Point","coordinates":[77.07867162,10.4793003]}},
{"type":"Feature","properties":{"crop":"Jackfruit","treeNo":"311","canonicalId":"jackfruit:311"},"geometry":{"type":"Point","coordinates":[77.07872904,10.47931141]}},
{"type":"Feature","properties":{"crop":"Jackfruit","treeNo":"312","canonicalId":"jackfruit:312"},"geometry":{"type":"Point","coordinates":[77.07879635,10.47932009]}},
{"type":"Feature","properties":{"crop":"Jackfruit","treeNo":"313","canonicalId":"jackfruit:313"},"geometry":{"type":"Point","coordinates":[77.07884626,10.47933091]}},
{"type":"Feature","properties":{"crop":"Jackfruit","treeNo":"314","canonicalId":"jackfruit:314"},"geometry":{"type":"Point","coordinates":[77.07889852,10.47933564]}},
{"type":"Feature","properties":{"crop":"Jackfruit","treeNo":"315","canonicalId":"jackfruit:315"},"geometry":{"type":"Point","coordinates":[77.07895457,10.47934507]}},
{"type":"Feature","properties":{"crop":"Jackfruit","treeNo":"316","canonicalId":"jackfruit:316"},"geometry":{"type":"Point","coordinates":[77.07900895,10.47936093]}},
{"type":"Feature","properties":{"crop":"Jackfruit","treeNo":"317","canonicalId":"jackfruit:317"},"geometry":{"type":"Point","coordinates":[77.07906533,10.47936901]}},
{"type":"Feature","properties":{"crop":"Jackfruit","treeNo":"318","canonicalId":"jackfruit:318"},"geometry":{"type":"Point","coordinates":[77.0791268,10.47937368]}},
{"type":"Feature","properties":{"crop":"Jackfruit","treeNo":"319","canonicalId":"jackfruit:319"},"geometry":{"type":"Point","coordinates":[77.07913771,10.47942192]}},
{"type":"Feature","properties":{"crop":"Jackfruit","treeNo":"320","canonicalId":"jackfruit:320"},"geometry":{"type":"Point","coordinates":[77.07907455,10.47942199]}},
{"type":"Feature","properties":{"crop":"Jackfruit","treeNo":"321","canonicalId":"jackfruit:321"},"geometry":{"type":"Point","coordinates":[77.07902741,10.47941622]}},
{"type":"Feature","properties":{"crop":"Jackfruit","treeNo":"322","canonicalId":"jackfruit:322"},"geometry":{"type":"Point","coordinates":[77.07895566,10.47940689]}},
{"type":"Feature","properties":{"crop":"Jackfruit","treeNo":"323","canonicalId":"jackfruit:323"},"geometry":{"type":"Point","coordinates":[77.07889552,10.47939715]}},
{"type":"Feature","properties":{"crop":"Jackfruit","treeNo":"324","canonicalId":"jackfruit:324"},"geometry":{"type":"Point","coordinates":[77.07884732,10.47938733]}},
{"type":"Feature","properties":{"crop":"Jackfruit","treeNo":"325","canonicalId":"jackfruit:325"},"geometry":{"type":"Point","coordinates":[77.07878544,10.47937388]}},
{"type":"Feature","properties":{"crop":"Jackfruit","treeNo":"326","canonicalId":"jackfruit:326"},"geometry":{"type":"Point","coordinates":[77.07872121,10.4793645]}},
{"type":"Feature","properties":{"crop":"Jackfruit","treeNo":"327","canonicalId":"jackfruit:327"},"geometry":{"type":"Point","coordinates":[77.07867916,10.47935532]}},
{"type":"Feature","properties":{"crop":"Jackfruit","treeNo":"328","canonicalId":"jackfruit:328"},"geometry":{"type":"Point","coordinates":[77.07862451,10.47935027]}},
{"type":"Feature","properties":{"crop":"Jackfruit","treeNo":"329","canonicalId":"jackfruit:329"},"geometry":{"type":"Point","coordinates":[77.07857019,10.47934353]}},
{"type":"Feature","properties":{"crop":"Jackfruit","treeNo":"330","canonicalId":"jackfruit:330"},"geometry":{"type":"Point","coordinates":[77.07851823,10.47933306]}},
{"type":"Feature","properties":{"crop":"Jackfruit","treeNo":"331","canonicalId":"jackfruit:331"},"geometry":{"type":"Point","coordinates":[77.07839553,10.47931021]}},
{"type":"Feature","properties":{"crop":"Jackfruit","treeNo":"332","canonicalId":"jackfruit:332"},"geometry":{"type":"Point","coordinates":[77.07834052,10.47930313]}},
{"type":"Feature","properties":{"crop":"Jackfruit","treeNo":"333","canonicalId":"jackfruit:333"},"geometry":{"type":"Point","coordinates":[77.07828485,10.47929877]}},
{"type":"Feature","properties":{"crop":"Jackfruit","treeNo":"334","canonicalId":"jackfruit:334"},"geometry":{"type":"Point","coordinates":[77.0782288,10.47928799]}},
{"type":"Feature","properties":{"crop":"Jackfruit","treeNo":"335","canonicalId":"jackfruit:335"},"geometry":{"type":"Point","coordinates":[77.07816965,10.47927418]}},
{"type":"Feature","properties":{"crop":"Jackfruit","treeNo":"336","canonicalId":"jackfruit:336"},"geometry":{"type":"Point","coordinates":[77.07812144,10.47926233]}},
{"type":"Feature","properties":{"crop":"Jackfruit","treeNo":"337","canonicalId":"jackfruit:337"},"geometry":{"type":"Point","coordinates":[77.07806645,10.47925695]}},
{"type":"Feature","properties":{"crop":"Jackfruit","treeNo":"338","canonicalId":"jackfruit:338"},"geometry":{"type":"Point","coordinates":[77.07800759,10.47923537]}},
{"type":"Feature","properties":{"crop":"Jackfruit","treeNo":"339","canonicalId":"jackfruit:339"},"geometry":{"type":"Point","coordinates":[77.07794822,10.47924015]}},
{"type":"Feature","properties":{"crop":"Jackfruit","treeNo":"340","canonicalId":"jackfruit:340"},"geometry":{"type":"Point","coordinates":[77.07789423,10.47923138]}},
{"type":"Feature","properties":{"crop":"Jackfruit","treeNo":"341","canonicalId":"jackfruit:341"},"geometry":{"type":"Point","coordinates":[77.07782592,10.47922609]}},
{"type":"Feature","properties":{"crop":"Jackfruit","treeNo":"342","canonicalId":"jackfruit:342"},"geometry":{"type":"Point","coordinates":[77.0777702,10.47921429]}},
{"type":"Feature","properties":{"crop":"Jackfruit","treeNo":"343","canonicalId":"jackfruit:343"},"geometry":{"type":"Point","coordinates":[77.07771737,10.47922544]}},
{"type":"Feature","properties":{"crop":"Jackfruit","treeNo":"344","canonicalId":"jackfruit:344"},"geometry":{"type":"Point","coordinates":[77.07772313,10.47927102]}},
{"type":"Feature","properties":{"crop":"Jackfruit","treeNo":"345","canonicalId":"jackfruit:345"},"geometry":{"type":"Point","coordinates":[77.07778903,10.47927295]}},
{"type":"Feature","properties":{"crop":"Jackfruit","treeNo":"346","canonicalId":"jackfruit:346"},"geometry":{"type":"Point","coordinates":[77.07784916,10.47928033]}},
{"type":"Feature","properties":{"crop":"Jackfruit","treeNo":"347","canonicalId":"jackfruit:347"},"geometry":{"type":"Point","coordinates":[77.07790108,10.4792854]}},
{"type":"Feature","properties":{"crop":"Jackfruit","treeNo":"348","canonicalId":"jackfruit:348"},"geometry":{"type":"Point","coordinates":[77.07795644,10.47929449]}},
{"type":"Feature","properties":{"crop":"Jackfruit","treeNo":"349","canonicalId":"jackfruit:349"},"geometry":{"type":"Point","coordinates":[77.07801456,10.4793083]}},
{"type":"Feature","properties":{"crop":"Jackfruit","treeNo":"350","canonicalId":"jackfruit:350"},"geometry":{"type":"Point","coordinates":[77.07806992,10.47931673]}},
{"type":"Feature","properties":{"crop":"Jackfruit","treeNo":"351","canonicalId":"jackfruit:351"},"geometry":{"type":"Point","coordinates":[77.07811056,10.47932018]}},
{"type":"Feature","properties":{"crop":"Jackfruit","treeNo":"352","canonicalId":"jackfruit:352"},"geometry":{"type":"Point","coordinates":[77.07817517,10.47933361]}},
{"type":"Feature","properties":{"crop":"Jackfruit","treeNo":"353","canonicalId":"jackfruit:353"},"geometry":{"type":"Point","coordinates":[77.07823188,10.47934101]}},
{"type":"Feature","properties":{"crop":"Jackfruit","treeNo":"354","canonicalId":"jackfruit:354"},"geometry":{"type":"Point","coordinates":[77.07829508,10.47934769]}},
{"type":"Feature","properties":{"crop":"Jackfruit","treeNo":"355","canonicalId":"jackfruit:355"},"geometry":{"type":"Point","coordinates":[77.07834565,10.47935479]}},
{"type":"Feature","properties":{"crop":"Jackfruit","treeNo":"356","canonicalId":"jackfruit:356"},"geometry":{"type":"Point","coordinates":[77.0784123,10.47936787]}},
{"type":"Feature","properties":{"crop":"Jackfruit","treeNo":"357","canonicalId":"jackfruit:357"},"geometry":{"type":"Point","coordinates":[77.07846079,10.47937127]}},
{"type":"Feature","properties":{"crop":"Jackfruit","treeNo":"358","canonicalId":"jackfruit:358"},"geometry":{"type":"Point","coordinates":[77.07851761,10.47939354]}},
{"type":"Feature","properties":{"crop":"Jackfruit","treeNo":"359","canonicalId":"jackfruit:359"},"geometry":{"type":"Point","coordinates":[77.07857634,10.47939653]}},
{"type":"Feature","properties":{"crop":"Jackfruit","treeNo":"360","canonicalId":"jackfruit:360"},"geometry":{"type":"Point","coordinates":[77.07863748,10.47940187]}},
{"type":"Feature","properties":{"crop":"Jackfruit","treeNo":"361","canonicalId":"jackfruit:361"},"geometry":{"type":"Point","coordinates":[77.0786884,10.479411]}},
{"type":"Feature","properties":{"crop":"Jackfruit","treeNo":"362","canonicalId":"jackfruit:362"},"geometry":{"type":"Point","coordinates":[77.0787472,10.47942346]}},
{"type":"Feature","properties":{"crop":"Jackfruit","treeNo":"363","canonicalId":"jackfruit:363"},"geometry":{"type":"Point","coordinates":[77.07880561,10.47942916]}},
{"type":"Feature","properties":{"crop":"Jackfruit","treeNo":"364","canonicalId":"jackfruit:364"},"geometry":{"type":"Point","coordinates":[77.07885211,10.47944]}},
{"type":"Feature","properties":{"crop":"Jackfruit","treeNo":"365","canonicalId":"jackfruit:365"},"geometry":{"type":"Point","coordinates":[77.07891018,10.4794457]}},
{"type":"Feature","properties":{"crop":"Jackfruit","treeNo":"366","canonicalId":"jackfruit:366"},"geometry":{"type":"Point","coordinates":[77.0789659,10.4794575]}},
{"type":"Feature","properties":{"crop":"Jackfruit","treeNo":"367","canonicalId":"jackfruit:367"},"geometry":{"type":"Point","coordinates":[77.079038,10.47946919]}},
{"type":"Feature","properties":{"crop":"Jackfruit","treeNo":"368","canonicalId":"jackfruit:368"},"geometry":{"type":"Point","coordinates":[77.07916173,10.47949305]}},
{"type":"Feature","properties":{"crop":"Jackfruit","treeNo":"369","canonicalId":"jackfruit:369"},"geometry":{"type":"Point","coordinates":[77.07915082,10.47954616]}},
{"type":"Feature","properties":{"crop":"Jackfruit","treeNo":"370","canonicalId":"jackfruit:370"},"geometry":{"type":"Point","coordinates":[77.07908654,10.47952969]}},
{"type":"Feature","properties":{"crop":"Jackfruit","treeNo":"371","canonicalId":"jackfruit:371"},"geometry":{"type":"Point","coordinates":[77.07903917,10.47954115]}},
{"type":"Feature","properties":{"crop":"Jackfruit","treeNo":"372","canonicalId":"jackfruit:372"},"geometry":{"type":"Point","coordinates":[77.0789273,10.47950505]}},
{"type":"Feature","properties":{"crop":"Jackfruit","treeNo":"373","canonicalId":"jackfruit:373"},"geometry":{"type":"Point","coordinates":[77.07886884,10.47949192]}},
{"type":"Feature","properties":{"crop":"Jackfruit","treeNo":"374","canonicalId":"jackfruit:374"},"geometry":{"type":"Point","coordinates":[77.07881012,10.47949028]}},
{"type":"Feature","properties":{"crop":"Jackfruit","treeNo":"375","canonicalId":"jackfruit:375"},"geometry":{"type":"Point","coordinates":[77.07874758,10.47948089]}},
{"type":"Feature","properties":{"crop":"Jackfruit","treeNo":"376","canonicalId":"jackfruit:376"},"geometry":{"type":"Point","coordinates":[77.07869395,10.47947414]}},
{"type":"Feature","properties":{"crop":"Jackfruit","treeNo":"377","canonicalId":"jackfruit:377"},"geometry":{"type":"Point","coordinates":[77.0786338,10.4794644]}},
{"type":"Feature","properties":{"crop":"Jackfruit","treeNo":"378","canonicalId":"jackfruit:378"},"geometry":{"type":"Point","coordinates":[77.07858391,10.47945628]}},
{"type":"Feature","properties":{"crop":"Jackfruit","treeNo":"379","canonicalId":"jackfruit:379"},"geometry":{"type":"Point","coordinates":[77.07852542,10.47943876]}},
{"type":"Feature","properties":{"crop":"Jackfruit","treeNo":"380","canonicalId":"jackfruit:380"},"geometry":{"type":"Point","coordinates":[77.07847041,10.47943135]}},
{"type":"Feature","properties":{"crop":"Jackfruit","treeNo":"381","canonicalId":"jackfruit:381"},"geometry":{"type":"Point","coordinates":[77.07841199,10.47942429]}},
{"type":"Feature","properties":{"crop":"Jackfruit","treeNo":"382","canonicalId":"jackfruit:382"},"geometry":{"type":"Point","coordinates":[77.07835902,10.47941484]}},
{"type":"Feature","properties":{"crop":"Jackfruit","treeNo":"383","canonicalId":"jackfruit:383"},"geometry":{"type":"Point","coordinates":[77.07829715,10.47940207]}},
{"type":"Feature","properties":{"crop":"Jackfruit","treeNo":"384","canonicalId":"jackfruit:384"},"geometry":{"type":"Point","coordinates":[77.07825104,10.47939798]}},
{"type":"Feature","properties":{"crop":"Jackfruit","treeNo":"385","canonicalId":"jackfruit:385"},"geometry":{"type":"Point","coordinates":[77.07818647,10.47939063]}},
{"type":"Feature","properties":{"crop":"Jackfruit","treeNo":"386","canonicalId":"jackfruit:386"},"geometry":{"type":"Point","coordinates":[77.07812767,10.4793775]}},
{"type":"Feature","properties":{"crop":"Jackfruit","treeNo":"387","canonicalId":"jackfruit:387"},"geometry":{"type":"Point","coordinates":[77.078074,10.47936637]}},
{"type":"Feature","properties":{"crop":"Jackfruit","treeNo":"388","canonicalId":"jackfruit:388"},"geometry":{"type":"Point","coordinates":[77.07802449,10.47936365]}},
{"type":"Feature","properties":{"crop":"Jackfruit","treeNo":"389","canonicalId":"jackfruit:389"},"geometry":{"type":"Point","coordinates":[77.07796431,10.47934816]}},
{"type":"Feature","properties":{"crop":"Jackfruit","treeNo":"390","canonicalId":"jackfruit:390"},"geometry":{"type":"Point","coordinates":[77.07790965,10.47934311]}},
{"type":"Feature","properties":{"crop":"Jackfruit","treeNo":"391","canonicalId":"jackfruit:391"},"geometry":{"type":"Point","coordinates":[77.07785429,10.47933401]}},
{"type":"Feature","properties":{"crop":"Jackfruit","treeNo":"392","canonicalId":"jackfruit:392"},"geometry":{"type":"Point","coordinates":[77.07779281,10.479328]}},
{"type":"Feature","properties":{"crop":"Jackfruit","treeNo":"393","canonicalId":"jackfruit:393"},"geometry":{"type":"Point","coordinates":[77.07773958,10.47933139]}},
{"type":"Feature","properties":{"crop":"Jackfruit","treeNo":"394","canonicalId":"jackfruit:394"},"geometry":{"type":"Point","coordinates":[77.07774679,10.47938877]}},
{"type":"Feature","properties":{"crop":"Jackfruit","treeNo":"395","canonicalId":"jackfruit:395"},"geometry":{"type":"Point","coordinates":[77.0777979,10.47937526]}},
{"type":"Feature","properties":{"crop":"Jackfruit","treeNo":"396","canonicalId":"jackfruit:396"},"geometry":{"type":"Point","coordinates":[77.07785707,10.47939177]}},
{"type":"Feature","properties":{"crop":"Jackfruit","treeNo":"397","canonicalId":"jackfruit:397"},"geometry":{"type":"Point","coordinates":[77.07791346,10.47940154]}},
{"type":"Feature","properties":{"crop":"Jackfruit","treeNo":"398","canonicalId":"jackfruit:398"},"geometry":{"type":"Point","coordinates":[77.07797288,10.47940588]}},
{"type":"Feature","properties":{"crop":"Jackfruit","treeNo":"399","canonicalId":"jackfruit:399"},"geometry":{"type":"Point","coordinates":[77.07807306,10.47942921]}},
{"type":"Feature","properties":{"crop":"Jackfruit","treeNo":"400","canonicalId":"jackfruit:400"},"geometry":{"type":"Point","coordinates":[77.07814238,10.47943281]}},
{"type":"Feature","properties":{"crop":"Jackfruit","treeNo":"401","canonicalId":"jackfruit:401"},"geometry":{"type":"Point","coordinates":[77.07819331,10.47944329]}},
{"type":"Feature","properties":{"crop":"Jackfruit","treeNo":"402","canonicalId":"jackfruit:402"},"geometry":{"type":"Point","coordinates":[77.07825072,10.47945305]}},
{"type":"Feature","properties":{"crop":"Jackfruit","treeNo":"403","canonicalId":"jackfruit:403"},"geometry":{"type":"Point","coordinates":[77.07831295,10.47946785]}},
{"type":"Feature","properties":{"crop":"Jackfruit","treeNo":"404","canonicalId":"jackfruit:404"},"geometry":{"type":"Point","coordinates":[77.07836514,10.47946244]}},
{"type":"Feature","properties":{"crop":"Jackfruit","treeNo":"405","canonicalId":"jackfruit:405"},"geometry":{"type":"Point","coordinates":[77.07841611,10.47947832]}},
{"type":"Feature","properties":{"crop":"Jackfruit","treeNo":"406","canonicalId":"jackfruit:406"},"geometry":{"type":"Point","coordinates":[77.07848101,10.47948432]}},
{"type":"Feature","properties":{"crop":"Jackfruit","treeNo":"407","canonicalId":"jackfruit:407"},"geometry":{"type":"Point","coordinates":[77.07854184,10.47949541]}},
{"type":"Feature","properties":{"crop":"Jackfruit","treeNo":"408","canonicalId":"jackfruit:408"},"geometry":{"type":"Point","coordinates":[77.07859072,10.47950489]}},
{"type":"Feature","properties":{"crop":"Jackfruit","treeNo":"409","canonicalId":"jackfruit:409"},"geometry":{"type":"Point","coordinates":[77.07865464,10.47951798]}},
{"type":"Feature","properties":{"crop":"Jackfruit","treeNo":"410","canonicalId":"jackfruit:410"},"geometry":{"type":"Point","coordinates":[77.07870282,10.47952578]}},
{"type":"Feature","properties":{"crop":"Jackfruit","treeNo":"411","canonicalId":"jackfruit:411"},"geometry":{"type":"Point","coordinates":[77.07875644,10.47952847]}},
{"type":"Feature","properties":{"crop":"Jackfruit","treeNo":"412","canonicalId":"jackfruit:412"},"geometry":{"type":"Point","coordinates":[77.0788108,10.47954163]}},
{"type":"Feature","properties":{"crop":"Jackfruit","treeNo":"413","canonicalId":"jackfruit:413"},"geometry":{"type":"Point","coordinates":[77.07886685,10.47955241]}},
{"type":"Feature","properties":{"crop":"Jackfruit","treeNo":"414","canonicalId":"jackfruit:414"},"geometry":{"type":"Point","coordinates":[77.07892662,10.47955641]}},
{"type":"Feature","properties":{"crop":"Jackfruit","treeNo":"415","canonicalId":"jackfruit:415"},"geometry":{"type":"Point","coordinates":[77.07888261,10.47961109]}},
{"type":"Feature","properties":{"crop":"Jackfruit","treeNo":"416","canonicalId":"jackfruit:416"},"geometry":{"type":"Point","coordinates":[77.07882586,10.4795993]}},
{"type":"Feature","properties":{"crop":"Jackfruit","treeNo":"417","canonicalId":"jackfruit:417"},"geometry":{"type":"Point","coordinates":[77.07876672,10.47958584]}},
{"type":"Feature","properties":{"crop":"Jackfruit","treeNo":"418","canonicalId":"jackfruit:418"},"geometry":{"type":"Point","coordinates":[77.07871376,10.47957942]}},
{"type":"Feature","properties":{"crop":"Jackfruit","treeNo":"419","canonicalId":"jackfruit:419"},"geometry":{"type":"Point","coordinates":[77.07866356,10.47957604]}},
{"type":"Feature","properties":{"crop":"Jackfruit","treeNo":"420","canonicalId":"jackfruit:420"},"geometry":{"type":"Point","coordinates":[77.07860164,10.47955516]}},
{"type":"Feature","properties":{"crop":"Jackfruit","treeNo":"421","canonicalId":"jackfruit:421"},"geometry":{"type":"Point","coordinates":[77.07854083,10.47954913]}},
{"type":"Feature","properties":{"crop":"Jackfruit","treeNo":"422","canonicalId":"jackfruit:422"},"geometry":{"type":"Point","coordinates":[77.07848686,10.47954307]}},
{"type":"Feature","properties":{"crop":"Jackfruit","treeNo":"423","canonicalId":"jackfruit:423"},"geometry":{"type":"Point","coordinates":[77.07843698,10.47953664]}},
{"type":"Feature","properties":{"crop":"Jackfruit","treeNo":"424","canonicalId":"jackfruit:424"},"geometry":{"type":"Point","coordinates":[77.0783789,10.47952891]}},
{"type":"Feature","properties":{"crop":"Jackfruit","treeNo":"425","canonicalId":"jackfruit:425"},"geometry":{"type":"Point","coordinates":[77.0783194,10.47951443]}},
{"type":"Feature","properties":{"crop":"Jackfruit","treeNo":"426","canonicalId":"jackfruit:426"},"geometry":{"type":"Point","coordinates":[77.07826475,10.47950871]}},
{"type":"Feature","properties":{"crop":"Jackfruit","treeNo":"427","canonicalId":"jackfruit:427"},"geometry":{"type":"Point","coordinates":[77.07820801,10.47949759]}},
{"type":"Feature","properties":{"crop":"Jackfruit","treeNo":"428","canonicalId":"jackfruit:428"},"geometry":{"type":"Point","coordinates":[77.07814992,10.47948851]}},
{"type":"Feature","properties":{"crop":"Jackfruit","treeNo":"429","canonicalId":"jackfruit:429"},"geometry":{"type":"Point","coordinates":[77.07809455,10.47947806]}},
{"type":"Feature","properties":{"crop":"Jackfruit","treeNo":"430","canonicalId":"jackfruit:430"},"geometry":{"type":"Point","coordinates":[77.07803719,10.47947708]}},
{"type":"Feature","properties":{"crop":"Jackfruit","treeNo":"431","canonicalId":"jackfruit:431"},"geometry":{"type":"Point","coordinates":[77.07797428,10.47946263]}},
{"type":"Feature","properties":{"crop":"Jackfruit","treeNo":"432","canonicalId":"jackfruit:432"},"geometry":{"type":"Point","coordinates":[77.07792097,10.47945284]}},
{"type":"Feature","properties":{"crop":"Jackfruit","treeNo":"433","canonicalId":"jackfruit:433"},"geometry":{"type":"Point","coordinates":[77.07786429,10.47945051]}},
{"type":"Feature","properties":{"crop":"Jackfruit","treeNo":"434","canonicalId":"jackfruit:434"},"geometry":{"type":"Point","coordinates":[77.07776527,10.47944643]}},
{"type":"Feature","properties":{"crop":"Jackfruit","treeNo":"435","canonicalId":"jackfruit:435"},"geometry":{"type":"Point","coordinates":[77.07747574,10.47954156]}},
{"type":"Feature","properties":{"crop":"Jackfruit","treeNo":"436","canonicalId":"jackfruit:436"},"geometry":{"type":"Point","coordinates":[77.0775293,10.47953615]}},
{"type":"Feature","properties":{"crop":"Jackfruit","treeNo":"437","canonicalId":"jackfruit:437"},"geometry":{"type":"Point","coordinates":[77.07759002,10.47953001]}},
{"type":"Feature","properties":{"crop":"Jackfruit","treeNo":"438","canonicalId":"jackfruit:438"},"geometry":{"type":"Point","coordinates":[77.07766167,10.47952481]}},
{"type":"Feature","properties":{"crop":"Jackfruit","treeNo":"439","canonicalId":"jackfruit:439"},"geometry":{"type":"Point","coordinates":[77.07781626,10.47949136]}},
{"type":"Feature","properties":{"crop":"Jackfruit","treeNo":"440","canonicalId":"jackfruit:440"},"geometry":{"type":"Point","coordinates":[77.07793894,10.47951117]}},
{"type":"Feature","properties":{"crop":"Jackfruit","treeNo":"441","canonicalId":"jackfruit:441"},"geometry":{"type":"Point","coordinates":[77.07798061,10.47951529]}},
{"type":"Feature","properties":{"crop":"Jackfruit","treeNo":"442","canonicalId":"jackfruit:442"},"geometry":{"type":"Point","coordinates":[77.07804079,10.47953078]}},
{"type":"Feature","properties":{"crop":"Jackfruit","treeNo":"443","canonicalId":"jackfruit:443"},"geometry":{"type":"Point","coordinates":[77.07809545,10.4795365]}},
{"type":"Feature","properties":{"crop":"Jackfruit","treeNo":"444","canonicalId":"jackfruit:444"},"geometry":{"type":"Point","coordinates":[77.07816038,10.47954723]}},
{"type":"Feature","properties":{"crop":"Jackfruit","treeNo":"445","canonicalId":"jackfruit:445"},"geometry":{"type":"Point","coordinates":[77.0782195,10.47955698]}},
{"type":"Feature","properties":{"crop":"Jackfruit","treeNo":"446","canonicalId":"jackfruit:446"},"geometry":{"type":"Point","coordinates":[77.07826976,10.47956982]}},
{"type":"Feature","properties":{"crop":"Jackfruit","treeNo":"447","canonicalId":"jackfruit:447"},"geometry":{"type":"Point","coordinates":[77.07832538,10.47956642]}},
{"type":"Feature","properties":{"crop":"Jackfruit","treeNo":"448","canonicalId":"jackfruit:448"},"geometry":{"type":"Point","coordinates":[77.07838282,10.47958024]}},
{"type":"Feature","properties":{"crop":"Jackfruit","treeNo":"449","canonicalId":"jackfruit:449"},"geometry":{"type":"Point","coordinates":[77.07844196,10.47959269]}},
{"type":"Feature","properties":{"crop":"Jackfruit","treeNo":"450","canonicalId":"jackfruit:450"},"geometry":{"type":"Point","coordinates":[77.07849254,10.47960114]}},
{"type":"Feature","properties":{"crop":"Jackfruit","treeNo":"451","canonicalId":"jackfruit:451"},"geometry":{"type":"Point","coordinates":[77.07854459,10.47962648]}},
{"type":"Feature","properties":{"crop":"Jackfruit","treeNo":"452","canonicalId":"jackfruit:452"},"geometry":{"type":"Point","coordinates":[77.0786019,10.47962002]}},
{"type":"Feature","properties":{"crop":"Jackfruit","treeNo":"453","canonicalId":"jackfruit:453"},"geometry":{"type":"Point","coordinates":[77.07865895,10.47962708]}},
{"type":"Feature","properties":{"crop":"Jackfruit","treeNo":"454","canonicalId":"jackfruit:454"},"geometry":{"type":"Point","coordinates":[77.07871742,10.47964157]}},
{"type":"Feature","properties":{"crop":"Jackfruit","treeNo":"455","canonicalId":"jackfruit:455"},"geometry":{"type":"Point","coordinates":[77.07877649,10.47964388]}},
{"type":"Feature","properties":{"crop":"Jackfruit","treeNo":"456","canonicalId":"jackfruit:456"},"geometry":{"type":"Point","coordinates":[77.0788477,10.47964899]}},
{"type":"Feature","properties":{"crop":"Jackfruit","treeNo":"457","canonicalId":"jackfruit:457"},"geometry":{"type":"Point","coordinates":[77.07916128,10.47965522]}},
{"type":"Feature","properties":{"crop":"Jackfruit","treeNo":"458","canonicalId":"jackfruit:458"},"geometry":{"type":"Point","coordinates":[77.07921229,10.4797282]}},
{"type":"Feature","properties":{"crop":"Jackfruit","treeNo":"459","canonicalId":"jackfruit:459"},"geometry":{"type":"Point","coordinates":[77.07916608,10.47971026]}},
{"type":"Feature","properties":{"crop":"Jackfruit","treeNo":"460","canonicalId":"jackfruit:460"},"geometry":{"type":"Point","coordinates":[77.07888557,10.47967189]}},
{"type":"Feature","properties":{"crop":"Jackfruit","treeNo":"461","canonicalId":"jackfruit:461"},"geometry":{"type":"Point","coordinates":[77.07883646,10.47967846]}},
{"type":"Feature","properties":{"crop":"Jackfruit","treeNo":"462","canonicalId":"jackfruit:462"},"geometry":{"type":"Point","coordinates":[77.0787663,10.47967672]}},
{"type":"Feature","properties":{"crop":"Jackfruit","treeNo":"463","canonicalId":"jackfruit:463"},"geometry":{"type":"Point","coordinates":[77.07872763,10.47968778]}},
{"type":"Feature","properties":{"crop":"Jackfruit","treeNo":"464","canonicalId":"jackfruit:464"},"geometry":{"type":"Point","coordinates":[77.07867555,10.47968424]}},
{"type":"Feature","properties":{"crop":"Jackfruit","treeNo":"465","canonicalId":"jackfruit:465"},"geometry":{"type":"Point","coordinates":[77.0786152,10.47966875]}},
{"type":"Feature","properties":{"crop":"Jackfruit","treeNo":"466","canonicalId":"jackfruit:466"},"geometry":{"type":"Point","coordinates":[77.07855717,10.47966981]}},
{"type":"Feature","properties":{"crop":"Jackfruit","treeNo":"467","canonicalId":"jackfruit:467"},"geometry":{"type":"Point","coordinates":[77.07851478,10.47965961]}},
{"type":"Feature","properties":{"crop":"Jackfruit","treeNo":"468","canonicalId":"jackfruit:468"},"geometry":{"type":"Point","coordinates":[77.07845972,10.47964511]}},
{"type":"Feature","properties":{"crop":"Jackfruit","treeNo":"469","canonicalId":"jackfruit:469"},"geometry":{"type":"Point","coordinates":[77.07834119,10.47963406]}},
{"type":"Feature","properties":{"crop":"Jackfruit","treeNo":"470","canonicalId":"jackfruit:470"},"geometry":{"type":"Point","coordinates":[77.07827418,10.47961794]}},
{"type":"Feature","properties":{"crop":"Jackfruit","treeNo":"471","canonicalId":"jackfruit:471"},"geometry":{"type":"Point","coordinates":[77.0782229,10.47960713]}},
{"type":"Feature","properties":{"crop":"Jackfruit","treeNo":"472","canonicalId":"jackfruit:472"},"geometry":{"type":"Point","coordinates":[77.07816755,10.47959938]}},
{"type":"Feature","properties":{"crop":"Jackfruit","treeNo":"473","canonicalId":"jackfruit:473"},"geometry":{"type":"Point","coordinates":[77.07811049,10.47959131]}},
{"type":"Feature","properties":{"crop":"Jackfruit","treeNo":"474","canonicalId":"jackfruit:474"},"geometry":{"type":"Point","coordinates":[77.07805239,10.4795802]}},
{"type":"Feature","properties":{"crop":"Jackfruit","treeNo":"475","canonicalId":"jackfruit:475"},"geometry":{"type":"Point","coordinates":[77.07799362,10.47957281]}},
{"type":"Feature","properties":{"crop":"Jackfruit","treeNo":"476","canonicalId":"jackfruit:476"},"geometry":{"type":"Point","coordinates":[77.07794138,10.47957113]}},
{"type":"Feature","properties":{"crop":"Jackfruit","treeNo":"477","canonicalId":"jackfruit:477"},"geometry":{"type":"Point","coordinates":[77.07787575,10.47955736]}},
{"type":"Feature","properties":{"crop":"Jackfruit","treeNo":"478","canonicalId":"jackfruit:478"},"geometry":{"type":"Point","coordinates":[77.0778142,10.47954121]}},
{"type":"Feature","properties":{"crop":"Jackfruit","treeNo":"479","canonicalId":"jackfruit:479"},"geometry":{"type":"Point","coordinates":[77.07776678,10.47954625]}},
{"type":"Feature","properties":{"crop":"Jackfruit","treeNo":"480","canonicalId":"jackfruit:480"},"geometry":{"type":"Point","coordinates":[77.07771133,10.47957449]}},
{"type":"Feature","properties":{"crop":"Jackfruit","treeNo":"481","canonicalId":"jackfruit:481"},"geometry":{"type":"Point","coordinates":[77.07764534,10.4795837]}},
{"type":"Feature","properties":{"crop":"Jackfruit","treeNo":"482","canonicalId":"jackfruit:482"},"geometry":{"type":"Point","coordinates":[77.07760198,10.47958213]}},
{"type":"Feature","properties":{"crop":"Jackfruit","treeNo":"483","canonicalId":"jackfruit:483"},"geometry":{"type":"Point","coordinates":[77.07753393,10.47959]}},
{"type":"Feature","properties":{"crop":"Jackfruit","treeNo":"484","canonicalId":"jackfruit:484"},"geometry":{"type":"Point","coordinates":[77.07748173,10.47959406]}},
{"type":"Feature","properties":{"crop":"Jackfruit","treeNo":"485","canonicalId":"jackfruit:485"},"geometry":{"type":"Point","coordinates":[77.07748992,10.47964502]}},
{"type":"Feature","properties":{"crop":"Jackfruit","treeNo":"486","canonicalId":"jackfruit:486"},"geometry":{"type":"Point","coordinates":[77.07755478,10.47964561]}},
{"type":"Feature","properties":{"crop":"Jackfruit","treeNo":"487","canonicalId":"jackfruit:487"},"geometry":{"type":"Point","coordinates":[77.07761376,10.47963509]}},
{"type":"Feature","properties":{"crop":"Jackfruit","treeNo":"488","canonicalId":"jackfruit:488"},"geometry":{"type":"Point","coordinates":[77.07766629,10.47962833]}},
{"type":"Feature","properties":{"crop":"Jackfruit","treeNo":"489","canonicalId":"jackfruit:489"},"geometry":{"type":"Point","coordinates":[77.07772165,10.47962527]}},
{"type":"Feature","properties":{"crop":"Jackfruit","treeNo":"490","canonicalId":"jackfruit:490"},"geometry":{"type":"Point","coordinates":[77.07777641,10.47959484]}},
{"type":"Feature","properties":{"crop":"Jackfruit","treeNo":"491","canonicalId":"jackfruit:491"},"geometry":{"type":"Point","coordinates":[77.07783723,10.47960323]}},
{"type":"Feature","properties":{"crop":"Jackfruit","treeNo":"492","canonicalId":"jackfruit:492"},"geometry":{"type":"Point","coordinates":[77.07788299,10.47960563]}},
{"type":"Feature","properties":{"crop":"Jackfruit","treeNo":"493","canonicalId":"jackfruit:493"},"geometry":{"type":"Point","coordinates":[77.07794726,10.47962075]}},
{"type":"Feature","properties":{"crop":"Jackfruit","treeNo":"494","canonicalId":"jackfruit:494"},"geometry":{"type":"Point","coordinates":[77.07806137,10.4796342]}},
{"type":"Feature","properties":{"crop":"Jackfruit","treeNo":"495","canonicalId":"jackfruit:495"},"geometry":{"type":"Point","coordinates":[77.07814883,10.47964579]}},
{"type":"Feature","properties":{"crop":"Jackfruit","treeNo":"496","canonicalId":"jackfruit:496"},"geometry":{"type":"Point","coordinates":[77.07822132,10.47966356]}},
{"type":"Feature","properties":{"crop":"Jackfruit","treeNo":"497","canonicalId":"jackfruit:497"},"geometry":{"type":"Point","coordinates":[77.07828277,10.47966451]}},
{"type":"Feature","properties":{"crop":"Jackfruit","treeNo":"498","canonicalId":"jackfruit:498"},"geometry":{"type":"Point","coordinates":[77.07840414,10.47969243]}},
{"type":"Feature","properties":{"crop":"Jackfruit","treeNo":"499","canonicalId":"jackfruit:499"},"geometry":{"type":"Point","coordinates":[77.07846017,10.47969984]}},
{"type":"Feature","properties":{"crop":"Jackfruit","treeNo":"500","canonicalId":"jackfruit:500"},"geometry":{"type":"Point","coordinates":[77.07851147,10.47971437]}},
{"type":"Feature","properties":{"crop":"Jackfruit","treeNo":"501","canonicalId":"jackfruit:501"},"geometry":{"type":"Point","coordinates":[77.07856512,10.47972348]}},
{"type":"Feature","properties":{"crop":"Jackfruit","treeNo":"502","canonicalId":"jackfruit:502"},"geometry":{"type":"Point","coordinates":[77.07862521,10.47972376]}},
{"type":"Feature","properties":{"crop":"Jackfruit","treeNo":"503","canonicalId":"jackfruit:503"},"geometry":{"type":"Point","coordinates":[77.07868057,10.47973286]}},
{"type":"Feature","properties":{"crop":"Jackfruit","treeNo":"504","canonicalId":"jackfruit:504"},"geometry":{"type":"Point","coordinates":[77.07873355,10.47974434]}},
{"type":"Feature","properties":{"crop":"Jackfruit","treeNo":"505","canonicalId":"jackfruit:505"},"geometry":{"type":"Point","coordinates":[77.07877366,10.4797184]}},
{"type":"Feature","properties":{"crop":"Jackfruit","treeNo":"506","canonicalId":"jackfruit:506"},"geometry":{"type":"Point","coordinates":[77.07882857,10.47971061]}},
{"type":"Feature","properties":{"crop":"Jackfruit","treeNo":"507","canonicalId":"jackfruit:507"},"geometry":{"type":"Point","coordinates":[77.07889861,10.47971995]}},
{"type":"Feature","properties":{"crop":"Jackfruit","treeNo":"508","canonicalId":"jackfruit:508"},"geometry":{"type":"Point","coordinates":[77.07894642,10.47972335]}},
{"type":"Feature","properties":{"crop":"Jackfruit","treeNo":"509","canonicalId":"jackfruit:509"},"geometry":{"type":"Point","coordinates":[77.07900689,10.47973106]}},
{"type":"Feature","properties":{"crop":"Jackfruit","treeNo":"510","canonicalId":"jackfruit:510"},"geometry":{"type":"Point","coordinates":[77.0791214,10.47975329]}},
{"type":"Feature","properties":{"crop":"Jackfruit","treeNo":"511","canonicalId":"jackfruit:511"},"geometry":{"type":"Point","coordinates":[77.07924597,10.47985214]}},
{"type":"Feature","properties":{"crop":"Jackfruit","treeNo":"512","canonicalId":"jackfruit:512"},"geometry":{"type":"Point","coordinates":[77.07918051,10.47981236]}},
{"type":"Feature","properties":{"crop":"Jackfruit","treeNo":"513","canonicalId":"jackfruit:513"},"geometry":{"type":"Point","coordinates":[77.07907082,10.47979619]}},
{"type":"Feature","properties":{"crop":"Jackfruit","treeNo":"514","canonicalId":"jackfruit:514"},"geometry":{"type":"Point","coordinates":[77.07901792,10.47979687]}},
{"type":"Feature","properties":{"crop":"Jackfruit","treeNo":"515","canonicalId":"jackfruit:515"},"geometry":{"type":"Point","coordinates":[77.07885455,10.47976753]}},
{"type":"Feature","properties":{"crop":"Jackfruit","treeNo":"516","canonicalId":"jackfruit:516"},"geometry":{"type":"Point","coordinates":[77.07874688,10.47979729]}},
{"type":"Feature","properties":{"crop":"Jackfruit","treeNo":"517","canonicalId":"jackfruit:517"},"geometry":{"type":"Point","coordinates":[77.07868775,10.47978687]}},
{"type":"Feature","properties":{"crop":"Jackfruit","treeNo":"518","canonicalId":"jackfruit:518"},"geometry":{"type":"Point","coordinates":[77.07863174,10.47978183]}},
{"type":"Feature","properties":{"crop":"Jackfruit","treeNo":"519","canonicalId":"jackfruit:519"},"geometry":{"type":"Point","coordinates":[77.07857812,10.47977779]}},
{"type":"Feature","properties":{"crop":"Jackfruit","treeNo":"520","canonicalId":"jackfruit:520"},"geometry":{"type":"Point","coordinates":[77.07851527,10.47977245]}},
{"type":"Feature","properties":{"crop":"Jackfruit","treeNo":"521","canonicalId":"jackfruit:521"},"geometry":{"type":"Point","coordinates":[77.07846228,10.4797603]}},
{"type":"Feature","properties":{"crop":"Jackfruit","treeNo":"522","canonicalId":"jackfruit:522"},"geometry":{"type":"Point","coordinates":[77.07841096,10.47974273]}},
{"type":"Feature","properties":{"crop":"Jackfruit","treeNo":"523","canonicalId":"jackfruit:523"},"geometry":{"type":"Point","coordinates":[77.0783566,10.47972991]}},
{"type":"Feature","properties":{"crop":"Jackfruit","treeNo":"524","canonicalId":"jackfruit:524"},"geometry":{"type":"Point","coordinates":[77.07829786,10.47972691]}},
{"type":"Feature","properties":{"crop":"Jackfruit","treeNo":"525","canonicalId":"jackfruit:525"},"geometry":{"type":"Point","coordinates":[77.07823809,10.47972088]}},
{"type":"Feature","properties":{"crop":"Jackfruit","treeNo":"526","canonicalId":"jackfruit:526"},"geometry":{"type":"Point","coordinates":[77.07818,10.47971214]}},
{"type":"Feature","properties":{"crop":"Jackfruit","treeNo":"527","canonicalId":"jackfruit:527"},"geometry":{"type":"Point","coordinates":[77.07812325,10.47970069]}},
{"type":"Feature","properties":{"crop":"Jackfruit","treeNo":"528","canonicalId":"jackfruit:528"},"geometry":{"type":"Point","coordinates":[77.0780686,10.47969462]}},
{"type":"Feature","properties":{"crop":"Jackfruit","treeNo":"529","canonicalId":"jackfruit:529"},"geometry":{"type":"Point","coordinates":[77.07801423,10.4796818]}},
{"type":"Feature","properties":{"crop":"Jackfruit","treeNo":"530","canonicalId":"jackfruit:530"},"geometry":{"type":"Point","coordinates":[77.07795651,10.47967677]}},
{"type":"Feature","properties":{"crop":"Jackfruit","treeNo":"531","canonicalId":"jackfruit:531"},"geometry":{"type":"Point","coordinates":[77.07789667,10.47966129]}},
{"type":"Feature","properties":{"crop":"Jackfruit","treeNo":"532","canonicalId":"jackfruit:532"},"geometry":{"type":"Point","coordinates":[77.07784541,10.47965351]}},
{"type":"Feature","properties":{"crop":"Jackfruit","treeNo":"533","canonicalId":"jackfruit:533"},"geometry":{"type":"Point","coordinates":[77.07779004,10.47964306]}},
{"type":"Feature","properties":{"crop":"Jackfruit","treeNo":"534","canonicalId":"jackfruit:534"},"geometry":{"type":"Point","coordinates":[77.07748421,10.4796981]}},
{"type":"Feature","properties":{"crop":"Jackfruit","treeNo":"535","canonicalId":"jackfruit:535"},"geometry":{"type":"Point","coordinates":[77.07755281,10.4796963]}},
{"type":"Feature","properties":{"crop":"Jackfruit","treeNo":"536","canonicalId":"jackfruit:536"},"geometry":{"type":"Point","coordinates":[77.07761768,10.47969824]}},
{"type":"Feature","properties":{"crop":"Jackfruit","treeNo":"537","canonicalId":"jackfruit:537"},"geometry":{"type":"Point","coordinates":[77.07772647,10.47968233]}},
{"type":"Feature","properties":{"crop":"Jackfruit","treeNo":"538","canonicalId":"jackfruit:538"},"geometry":{"type":"Point","coordinates":[77.07778937,10.47969611]}},
{"type":"Feature","properties":{"crop":"Jackfruit","treeNo":"539","canonicalId":"jackfruit:539"},"geometry":{"type":"Point","coordinates":[77.07784754,10.47971566]}},
{"type":"Feature","properties":{"crop":"Jackfruit","treeNo":"540","canonicalId":"jackfruit:540"},"geometry":{"type":"Point","coordinates":[77.07789571,10.47972177]}},
{"type":"Feature","properties":{"crop":"Jackfruit","treeNo":"541","canonicalId":"jackfruit:541"},"geometry":{"type":"Point","coordinates":[77.07796058,10.47972405]}},
{"type":"Feature","properties":{"crop":"Jackfruit","treeNo":"542","canonicalId":"jackfruit:542"},"geometry":{"type":"Point","coordinates":[77.07802108,10.47973615]}},
{"type":"Feature","properties":{"crop":"Jackfruit","treeNo":"543","canonicalId":"jackfruit:543"},"geometry":{"type":"Point","coordinates":[77.07812297,10.47975981]}},
{"type":"Feature","properties":{"crop":"Jackfruit","treeNo":"544","canonicalId":"jackfruit:544"},"geometry":{"type":"Point","coordinates":[77.07819196,10.47976578]}},
{"type":"Feature","properties":{"crop":"Jackfruit","treeNo":"545","canonicalId":"jackfruit:545"},"geometry":{"type":"Point","coordinates":[77.07824562,10.47977523]}},
{"type":"Feature","properties":{"crop":"Jackfruit","treeNo":"546","canonicalId":"jackfruit:546"},"geometry":{"type":"Point","coordinates":[77.07831226,10.47978696]}},
{"type":"Feature","properties":{"crop":"Jackfruit","treeNo":"547","canonicalId":"jackfruit:547"},"geometry":{"type":"Point","coordinates":[77.07835656,10.47977552]}},
{"type":"Feature","properties":{"crop":"Jackfruit","treeNo":"548","canonicalId":"jackfruit:548"},"geometry":{"type":"Point","coordinates":[77.07841582,10.47980689]}},
{"type":"Feature","properties":{"crop":"Jackfruit","treeNo":"549","canonicalId":"jackfruit:549"},"geometry":{"type":"Point","coordinates":[77.07848007,10.47981762]}},
{"type":"Feature","properties":{"crop":"Jackfruit","treeNo":"550","canonicalId":"jackfruit:550"},"geometry":{"type":"Point","coordinates":[77.07853505,10.4798203]}},
{"type":"Feature","properties":{"crop":"Jackfruit","treeNo":"551","canonicalId":"jackfruit:551"},"geometry":{"type":"Point","coordinates":[77.0783149,10.47982444]}},
{"type":"Feature","properties":{"crop":"Jackfruit","treeNo":"552","canonicalId":"jackfruit:552"},"geometry":{"type":"Point","coordinates":[77.07824833,10.4798242]}},
{"type":"Feature","properties":{"crop":"Jackfruit","treeNo":"553","canonicalId":"jackfruit:553"},"geometry":{"type":"Point","coordinates":[77.07813802,10.4798158]}},
{"type":"Feature","properties":{"crop":"Jackfruit","treeNo":"554","canonicalId":"jackfruit:554"},"geometry":{"type":"Point","coordinates":[77.07807962,10.47981145]}},
{"type":"Feature","properties":{"crop":"Jackfruit","treeNo":"555","canonicalId":"jackfruit:555"},"geometry":{"type":"Point","coordinates":[77.07801361,10.4797933]}},
{"type":"Feature","properties":{"crop":"Jackfruit","treeNo":"556","canonicalId":"jackfruit:556"},"geometry":{"type":"Point","coordinates":[77.07796856,10.47979393]}},
{"type":"Feature","properties":{"crop":"Jackfruit","treeNo":"557","canonicalId":"jackfruit:557"},"geometry":{"type":"Point","coordinates":[77.07791144,10.47977741]}},
{"type":"Feature","properties":{"crop":"Jackfruit","treeNo":"558","canonicalId":"jackfruit:558"},"geometry":{"type":"Point","coordinates":[77.07785504,10.47976562]}},
{"type":"Feature","properties":{"crop":"Jackfruit","treeNo":"559","canonicalId":"jackfruit:559"},"geometry":{"type":"Point","coordinates":[77.07779519,10.47974945]}},
{"type":"Feature","properties":{"crop":"Jackfruit","treeNo":"560","canonicalId":"jackfruit:560"},"geometry":{"type":"Point","coordinates":[77.07773197,10.47973838]}},
{"type":"Feature","properties":{"crop":"Jackfruit","treeNo":"561","canonicalId":"jackfruit:561"},"geometry":{"type":"Point","coordinates":[77.07762211,10.47974822]}},
{"type":"Feature","properties":{"crop":"Jackfruit","treeNo":"562","canonicalId":"jackfruit:562"},"geometry":{"type":"Point","coordinates":[77.07756718,10.47975196]}},
{"type":"Feature","properties":{"crop":"Jackfruit","treeNo":"563","canonicalId":"jackfruit:563"},"geometry":{"type":"Point","coordinates":[77.07750678,10.47975539]}},
{"type":"Feature","properties":{"crop":"Jackfruit","treeNo":"564","canonicalId":"jackfruit:564"},"geometry":{"type":"Point","coordinates":[77.0775171,10.4798185]}},
{"type":"Feature","properties":{"crop":"Jackfruit","treeNo":"565","canonicalId":"jackfruit:565"},"geometry":{"type":"Point","coordinates":[77.07756826,10.47981141]}},
{"type":"Feature","properties":{"crop":"Jackfruit","treeNo":"566","canonicalId":"jackfruit:566"},"geometry":{"type":"Point","coordinates":[77.07763274,10.4798066]}},
{"type":"Feature","properties":{"crop":"Jackfruit","treeNo":"567","canonicalId":"jackfruit:567"},"geometry":{"type":"Point","coordinates":[77.07768387,10.47979478]}},
{"type":"Feature","properties":{"crop":"Jackfruit","treeNo":"568","canonicalId":"jackfruit:568"},"geometry":{"type":"Point","coordinates":[77.0777412,10.47979204]}},
{"type":"Feature","properties":{"crop":"Jackfruit","treeNo":"569","canonicalId":"jackfruit:569"},"geometry":{"type":"Point","coordinates":[77.07779796,10.47980687]}},
{"type":"Feature","properties":{"crop":"Jackfruit","treeNo":"570","canonicalId":"jackfruit:570"},"geometry":{"type":"Point","coordinates":[77.07791726,10.47983177]}},
{"type":"Feature","properties":{"crop":"Jackfruit","treeNo":"571","canonicalId":"jackfruit:571"},"geometry":{"type":"Point","coordinates":[77.07786522,10.47985947]}},
{"type":"Feature","properties":{"crop":"Jackfruit","treeNo":"572","canonicalId":"jackfruit:572"},"geometry":{"type":"Point","coordinates":[77.07781718,10.47987229]}},
{"type":"Feature","properties":{"crop":"Jackfruit","treeNo":"573","canonicalId":"jackfruit:573"},"geometry":{"type":"Point","coordinates":[77.07774806,10.47984841]}},
{"type":"Feature","properties":{"crop":"Jackfruit","treeNo":"574","canonicalId":"jackfruit:574"},"geometry":{"type":"Point","coordinates":[77.07768392,10.4798539]}},
{"type":"Feature","properties":{"crop":"Jackfruit","treeNo":"575","canonicalId":"jackfruit:575"},"geometry":{"type":"Point","coordinates":[77.07762963,10.47985088]}},
{"type":"Feature","properties":{"crop":"Jackfruit","treeNo":"576","canonicalId":"jackfruit:576"},"geometry":{"type":"Point","coordinates":[77.07758223,10.47985929]}},
{"type":"Feature","properties":{"crop":"Jackfruit","treeNo":"577","canonicalId":"jackfruit:577"},"geometry":{"type":"Point","coordinates":[77.07752764,10.47986337]}},
{"type":"Feature","properties":{"crop":"Jackfruit","treeNo":"578","canonicalId":"jackfruit:578"},"geometry":{"type":"Point","coordinates":[77.07752937,10.47991809]}},
{"type":"Feature","properties":{"crop":"Jackfruit","treeNo":"579","canonicalId":"jackfruit:579"},"geometry":{"type":"Point","coordinates":[77.07758363,10.47991571]}},
{"type":"Feature","properties":{"crop":"Jackfruit","treeNo":"580","canonicalId":"jackfruit:580"},"geometry":{"type":"Point","coordinates":[77.07764098,10.47991567]}},
{"type":"Feature","properties":{"crop":"Jackfruit","treeNo":"581","canonicalId":"jackfruit:581"},"geometry":{"type":"Point","coordinates":[77.0776932,10.47991364]}},
{"type":"Feature","properties":{"crop":"Jackfruit","treeNo":"582","canonicalId":"jackfruit:582"},"geometry":{"type":"Point","coordinates":[77.07775559,10.47990174]}}
]
}
