{
"type": "FeatureCollection",
"name": "SELECT",
"xy_coordinate_resolution": 1e-08,
"features": [
{"type":"Feature","properties":{"crop":"Jackfruit","treeNo":"1","canonicalId":"jackfruit:1"},"geometry":{"type":"Point","coordinates":[77.07907043,10.47881793]}},
{"type":"Feature","properties":{"crop":"Jackfruit","treeNo":"2","canonicalId":"jackfruit:2"},"geometry":{"type":"Point","coordinates":[77.07900752,10.47880247]}},
{"type":"Feature","properties":{"crop":"Jackfruit","treeNo":"3","canonicalId":"jackfruit:3"},"geometry":{"type":"Point","coordinates":[77.07895302,10.4787937]}},
{"type":"Feature","properties":{"crop":"Jackfruit","treeNo":"4","canonicalId":"jackfruit:4"},"geometry":{"type":"Point","coordinates":[77.07889067,10.47878634]}},
{"type":"Feature","properties":{"crop":"Jackfruit","treeNo":"5","canonicalId":"jackfruit:5"},"geometry":{"type":"Point","coordinates":[77.07883324,10.47877421]}},
{"type":"Feature","properties":{"crop":"Jackfruit","treeNo":"6","canonicalId":"jackfruit:6"},"geometry":{"type":"Point","coordinates":[77.078784,10.47876203]}},
{"type":"Feature","properties":{"crop":"Jackfruit","treeNo":"7","canonicalId":"jackfruit:7"},"geometry":{"type":"Point","coordinates":[77.07873144,10.47876271]}},
{"type":"Feature","properties":{"crop":"Jackfruit","treeNo":"8","canonicalId":"jackfruit:8"},"geometry":{"type":"Point","coordinates":[77.07866985,10.47874048]}},
{"type":"Feature","properties":{"crop":"Jackfruit","treeNo":"9","canonicalId":"jackfruit:9"},"geometry":{"type":"Point","coordinates":[77.07861266,10.47873916]}},
{"type":"Feature","properties":{"crop":"Jackfruit","treeNo":"10","canonicalId":"jackfruit:10"},"geometry":{"type":"Point","coordinates":[77.07855609,10.4787272]}},
{"type":"Feature","properties":{"crop":"Jackfruit","treeNo":"11","canonicalId":"jackfruit:11"},"geometry":{"type":"Point","coordinates":[77.07850413,10.47871707]}},
{"type":"Feature","properties":{"crop":"Jackfruit","treeNo":"12","canonicalId":"jackfruit:12"},"geometry":{"type":"Point","coordinates":[77.07843989,10.47870685]}},
{"type":"Feature","properties":{"crop":"Jackfruit","treeNo":"13","canonicalId":"jackfruit:13"},"geometry":{"type":"Point","coordinates":[77.07839013,10.47869349]}},
{"type":"Feature","properties":{"crop":"Jackfruit","treeNo":"14","canonicalId":"jackfruit:14"},"geometry":{"type":"Point","coordinates":[77.07833561,10.47868303]}},
{"type":"Feature","properties":{"crop":"Jackfruit","treeNo":"15","canonicalId":"jackfruit:15"},"geometry":{"type":"Point","coordinates":[77.07827514,10.47867515]}},
{"type":"Feature","properties":{"crop":"Jackfruit","treeNo":"16","canonicalId":"jackfruit:16"},"geometry":{"type":"Point","coordinates":[77.0782249,10.47866517]}},
{"type":"Feature","properties":{"crop":"Jackfruit","treeNo":"17","canonicalId":"jackfruit:17"},"geometry":{"type":"Point","coordinates":[77.07816224,10.47866339]}},
{"type":"Feature","properties":{"crop":"Jackfruit","treeNo":"18","canonicalId":"jackfruit:18"},"geometry":{"type":"Point","coordinates":[77.07810256,10.47864503]}},
{"type":"Feature","properties":{"crop":"Jackfruit","treeNo":"19","canonicalId":"jackfruit:19"},"geometry":{"type":"Point","coordinates":[77.07805695,10.47863992]}},
{"type":"Feature","properties":{"crop":"Jackfruit","treeNo":"20","canonicalId":"jackfruit:20"},"geometry":{"type":"Point","coordinates":[77.07798915,10.47863344]}},
{"type":"Feature","properties":{"crop":"Jackfruit","treeNo":"21","canonicalId":"jackfruit:21"},"geometry":{"type":"Point","coordinates":[77.07792826,10.47861525]}},
{"type":"Feature","properties":{"crop":"Jackfruit","treeNo":"22","canonicalId":"jackfruit:22"},"geometry":{"type":"Point","coordinates":[77.0778747,10.47861999]}},
{"type":"Feature","properties":{"crop":"Jackfruit","treeNo":"23","canonicalId":"jackfruit:23"},"geometry":{"type":"Point","coordinates":[77.07781909,10.47859857]}},
{"type":"Feature","properties":{"crop":"Jackfruit","treeNo":"24","canonicalId":"jackfruit:24"},"geometry":{"type":"Point","coordinates":[77.07776908,10.47859855]}},
{"type":"Feature","properties":{"crop":"Jackfruit","treeNo":"25","canonicalId":"jackfruit:25"},"geometry":{"type":"Point","coordinates":[77.07771472,10.47858539]}},
{"type":"Feature","properties":{"crop":"Jackfruit","treeNo":"26","canonicalId":"jackfruit:26"},"geometry":{"type":"Point","coordinates":[77.07766503,10.47858217]}},
{"type":"Feature","properties":{"crop":"Jackfruit","treeNo":"27","canonicalId":"jackfruit:27"},"geometry":{"type":"Point","coordinates":[77.07766548,10.47864957]}},
{"type":"Feature","properties":{"crop":"Jackfruit","treeNo":"28","canonicalId":"jackfruit:28"},"geometry":{"type":"Point","coordinates":[77.07772228,10.47864464]}},
{"type":"Feature","properties":{"crop":"Jackfruit","treeNo":"29","canonicalId":"jackfruit:29"},"geometry":{"type":"Point","coordinates":[77.0777785,10.47865424]}},
{"type":"Feature","properties":{"crop":"Jackfruit","treeNo":"30","canonicalId":"jackfruit:30"},"geometry":{"type":"Point","coordinates":[77.07783179,10.47866098]}},
{"type":"Feature","properties":{"crop":"Jackfruit","treeNo":"31","canonicalId":"jackfruit:31"},"geometry":{"type":"Point","coordinates":[77.07788854,10.47867244]}},
{"type":"Feature","properties":{"crop":"Jackfruit","treeNo":"32","canonicalId":"jackfruit:32"},"geometry":{"type":"Point","coordinates":[77.07794217,10.47867918]}},
{"type":"Feature","properties":{"crop":"Jackfruit","treeNo":"33","canonicalId":"jackfruit:33"},"geometry":{"type":"Point","coordinates":[77.07800044,10.47868928]}},
{"type":"Feature","properties":{"crop":"Jackfruit","treeNo":"34","canonicalId":"jackfruit:34"},"geometry":{"type":"Point","coordinates":[77.07806141,10.47869428]}},
{"type":"Feature","properties":{"crop":"Jackfruit","treeNo":"35","canonicalId":"jackfruit:35"},"geometry":{"type":"Point","coordinates":[77.07812109,10.47871079]}},
{"type":"Feature","properties":{"crop":"Jackfruit","treeNo":"36","canonicalId":"jackfruit:36"},"geometry":{"type":"Point","coordinates":[77.07817497,10.47870334]}},
{"type":"Feature","properties":{"crop":"Jackfruit","treeNo":"37","canonicalId":"jackfruit:37"},"geometry":{"type":"Point","coordinates":[77.07823585,10.47872119]}},
{"type":"Feature","properties":{"crop":"Jackfruit","treeNo":"38","canonicalId":"jackfruit:38"},"geometry":{"type":"Point","coordinates":[77.07828866,10.47873098]}},
{"type":"Feature","properties":{"crop":"Jackfruit","treeNo":"39","canonicalId":"jackfruit:39"},"geometry":{"type":"Point","coordinates":[77.07834265,10.47874008]}},
{"type":"Feature","properties":{"crop":"Jackfruit","treeNo":"40","canonicalId":"jackfruit:40"},"geometry":{"type":"Point","coordinates":[77.0783956,10.47874514]}},
{"type":"Feature","properties":{"crop":"Jackfruit","treeNo":"41","canonicalId":"jackfruit:41"},"geometry":{"type":"Point","coordinates":[77.07845338,10.47875963]}},
{"type":"Feature","properties":{"crop":"Jackfruit","treeNo":"42","canonicalId":"jackfruit:42"},"geometry":{"type":"Point","coordinates":[77.07850806,10.47876873]}},
{"type":"Feature","properties":{"crop":"Jackfruit","treeNo":"43","canonicalId":"jackfruit:43"},"geometry":{"type":"Point","coordinates":[77.07856277,10.4787829]}},
{"type":"Feature","properties":{"crop":"Jackfruit","treeNo":"44","canonicalId":"jackfruit:44"},"geometry":{"type":"Point","coordinates":[77.07862053,10.47879334]}},
{"type":"Feature","properties":{"crop":"Jackfruit","treeNo":"45","canonicalId":"jackfruit:45"},"geometry":{"type":"Point","coordinates":[77.07868647,10.47880169]}},
{"type":"Feature","properties":{"crop":"Jackfruit","treeNo":"46","canonicalId":"jackfruit:46"},"geometry":{"type":"Point","coordinates":[77.07873638,10.47881319]}},
{"type":"Feature","properties":{"crop":"Jackfruit","treeNo":"47","canonicalId":"jackfruit:47"},"geometry":{"type":"Point","coordinates":[77.07879686,10.47882192]}},
{"type":"Feature","properties":{"crop":"Jackfruit","treeNo":"48","canonicalId":"jackfruit:48"},"geometry":{"type":"Point","coordinates":[77.07885119,10.47883001]}},
{"type":"Feature","properties":{"crop":"Jackfruit","treeNo":"49","canonicalId":"jackfruit:49"},"geometry":{"type":"Point","coordinates":[77.07890793,10.47884045]}},
{"type":"Feature","properties":{"crop":"Jackfruit","treeNo":"50","canonicalId":"jackfruit:50"},"geometry":{"type":"Point","coordinates":[77.07895714,10.47884824]}},
{"type":"Feature","properties":{"crop":"Jackfruit","treeNo":"51","canonicalId":"jackfruit:51"},"geometry":{"type":"Point","coordinates":[77.07901622,10.47885292]}},
{"type":"Feature","properties":{"crop":"Jackfruit","treeNo":"52","canonicalId":"jackfruit:52"},"geometry":{"type":"Point","coordinates":[77.07908323,10.47886904]}},
{"type":"Feature","properties":{"crop":"Jackfruit","treeNo":"53","canonicalId":"jackfruit:53"},"geometry":{"type":"Point","coordinates":[77.0791324,10.4788704]}},
{"type":"Feature","properties":{"crop":"Jackfruit","treeNo":"54","canonicalId":"jackfruit:54"},"geometry":{"type":"Point","coordinates":[77.07914091,10.47891765]}},
{"type":"Feature","properties":{"crop":"Jackfruit","treeNo":"55","canonicalId":"jackfruit:55"},"geometry":{"type":"Point","coordinates":[77.07908426,10.47892106]}},
{"type":"Feature","properties":{"crop":"Jackfruit","treeNo":"56","canonicalId":"jackfruit:56"},"geometry":{"type":"Point","coordinates":[77.07902414,10.47891436]}},
{"type":"Feature","properties":{"crop":"Jackfruit","treeNo":"57","canonicalId":"jackfruit:57"},"geometry":{"type":"Point","coordinates":[77.07896439,10.47891272]}},
{"type":"Feature","properties":{"crop":"Jackfruit","treeNo":"58","canonicalId":"jackfruit:58"},"geometry":{"type":"Point","coordinates":[77.07891272,10.4788938]}},
{"type":"Feature","properties":{"crop":"Jackfruit","treeNo":"59","canonicalId":"jackfruit:59"},"geometry":{"type":"Point","coordinates":[77.07885941,10.47888435]}},
{"type":"Feature","properties":{"crop":"Jackfruit","treeNo":"60","canonicalId":"jackfruit:60"},"geometry":{"type":"Point","coordinates":[77.07880064,10.47887696]}},
{"type":"Feature","properties":{"crop":"Jackfruit","treeNo":"61","canonicalId":"jackfruit:61"},"geometry":{"type":"Point","coordinates":[77.07874255,10.47886704]}},
{"type":"Feature","properties":{"crop":"Jackfruit","treeNo":"62","canonicalId":"jackfruit:62"},"geometry":{"type":"Point","coordinates":[77.07869403,10.4788606]}},
{"type":"Feature","properties":{"crop":"Jackfruit","treeNo":"63","canonicalId":"jackfruit:63"},"geometry":{"type":"Point","coordinates":[77.07863505,10.47884612]}},
{"type":"Feature","properties":{"crop":"Jackfruit","treeNo":"64","canonicalId":"jackfruit:64"},"geometry":{"type":"Point","coordinates":[77.07858108,10.4788409]}},
{"type":"Feature","properties":{"crop":"Jackfruit","treeNo":"65","canonicalId":"jackfruit:65"},"geometry":{"type":"Point","coordinates":[77.07851733,10.47882831]}},
{"type":"Feature","properties":{"crop":"Jackfruit","treeNo":"66","canonicalId":"jackfruit:66"},"geometry":{"type":"Point","coordinates":[77.07846287,10.47882579]}},
{"type":"Feature","properties":{"crop":"Jackfruit","treeNo":"67","canonicalId":"jackfruit:67"},"geometry":{"type":"Point","coordinates":[77.07840253,10.47881301]}},
{"type":"Feature","properties":{"crop":"Jackfruit","treeNo":"68","canonicalId":"jackfruit:68"},"geometry":{"type":"Point","coordinates":[77.07834629,10.47879969]}},
{"type":"Feature","properties":{"crop":"Jackfruit","treeNo":"69","canonicalId":"jackfruit:69"},"geometry":{"type":"Point","coordinates":[77.07829607,10.47879292]}},
{"type":"Feature","properties":{"crop":"Jackfruit","treeNo":"70","canonicalId":"jackfruit:70"},"geometry":{"type":"Point","coordinates":[77.07824038,10.47878552]}},
{"type":"Feature","properties":{"crop":"Jackfruit","treeNo":"71","canonicalId":"jackfruit:71"},"geometry":{"type":"Point","coordinates":[77.07818329,10.47877305]}},
{"type":"Feature","properties":{"crop":"Jackfruit","treeNo":"72","canonicalId":"jackfruit:72"},"geometry":{"type":"Point","coordinates":[77.07812659,10.47876802]}},
{"type":"Feature","properties":{"crop":"Jackfruit","treeNo":"73","canonicalId":"jackfruit:73"},"geometry":{"type":"Point","coordinates":[77.07806539,10.47875456]}},
{"type":"Feature","properties":{"crop":"Jackfruit","treeNo":"74","canonicalId":"jackfruit:74"},"geometry":{"type":"Point","coordinates":[77.0780094,10.47875223]}},
{"type":"Feature","properties":{"crop":"Jackfruit","treeNo":"75","canonicalId":"jackfruit:75"},"geometry":{"type":"Point","coordinates":[77.07795504,10.47874042]}},
{"type":"Feature","properties":{"crop":"Jackfruit","treeNo":"76","canonicalId":"jackfruit:76"},"geometry":{"type":"Point","coordinates":[77.07789558,10.47873]}},
{"type":"Feature","properties":{"crop":"Jackfruit","treeNo":"77","canonicalId":"jackfruit:77"},"geometry":{"type":"Point","coordinates":[77.07784224,10.47871784]}},
{"type":"Feature","properties":{"crop":"Jackfruit","treeNo":"78","canonicalId":"jackfruit:78"},"geometry":{"type":"Point","coordinates":[77.07778518,10.47870943]}},
{"type":"Feature","properties":{"crop":"Jackfruit","treeNo":"79","canonicalId":"jackfruit:79"},"geometry":{"type":"Point","coordinates":[77.07773428,10.47870301]}},
{"type":"Feature","properties":{"crop":"Jackfruit","treeNo":"80","canonicalId":"jackfruit:80"},"geometry":{"type":"Point","coordinates":[77.07767507,10.47875779]}},
{"type":"Feature","properties":{"crop":"Jackfruit","treeNo":"81","canonicalId":"jackfruit:81"},"geometry":{"type":"Point","coordinates":[77.07773988,10.47874943]}},
{"type":"Feature","properties":{"crop":"Jackfruit","treeNo":"82","canonicalId":"jackfruit:82"},"geometry":{"type":"Point","coordinates":[77.07779421,10.47875853]}},
{"type":"Feature","properties":{"crop":"Jackfruit","treeNo":"83","canonicalId":"jackfruit:83"},"geometry":{"type":"Point","coordinates":[77.07785195,10.47876626]}},
{"type":"Feature","properties":{"crop":"Jackfruit","treeNo":"84","canonicalId":"jackfruit:84"},"geometry":{"type":"Point","coordinates":[77.07790921,10.47877805]}},
{"type":"Feature","properties":{"crop":"Jackfruit","treeNo":"85","canonicalId":"jackfruit:85"},"geometry":{"type":"Point","coordinates":[77.07796082,10.47878785]}},
{"type":"Feature","properties":{"crop":"Jackfruit","treeNo":"86","canonicalId":"jackfruit:86"},"geometry":{"type":"Point","coordinates":[77.07801791,10.47880082]}},
{"type":"Feature","properties":{"crop":"Jackfruit","treeNo":"87","canonicalId":"jackfruit:87"},"geometry":{"type":"Point","coordinates":[77.07807325,10.4788062]}},
{"type":"Feature","properties":{"crop":"Jackfruit","treeNo":"88","canonicalId":"jackfruit:88"},"geometry":{"type":"Point","coordinates":[77.0781278,10.4788219]}},
{"type":"Feature","properties":{"crop":"Jackfruit","treeNo":"89","canonicalId":"jackfruit:89"},"geometry":{"type":"Point","coordinates":[77.07818587,10.47882777]}},
{"type":"Feature","properties":{"crop":"Jackfruit","treeNo":"90","canonicalId":"jackfruit:90"},"geometry":{"type":"Point","coordinates":[77.07824774,10.47883986]}},
{"type":"Feature","properties":{"crop":"Jackfruit","treeNo":"91","canonicalId":"jackfruit:91"},"geometry":{"type":"Point","coordinates":[77.07830034,10.47884459]}},
{"type":"Feature","properties":{"crop":"Jackfruit","treeNo":"92","canonicalId":"jackfruit:92"},"geometry":{"type":"Point","coordinates":[77.07835263,10.47885371]}},
{"type":"Feature","properties":{"crop":"Jackfruit","treeNo":"93","canonicalId":"jackfruit:93"},"geometry":{"type":"Point","coordinates":[77.07841312,10.4788648]}},
{"type":"Feature","properties":{"crop":"Jackfruit","treeNo":"94","canonicalId":"jackfruit:94"},"geometry":{"type":"Point","coordinates":[77.07846815,10.47887491]}},
{"type":"Feature","properties":{"crop":"Jackfruit","treeNo":"95","canonicalId":"jackfruit:95"},"geometry":{"type":"Point","coordinates":[77.07852795,10.47888432]}},
{"type":"Feature","properties":{"crop":"Jackfruit","treeNo":"96","canonicalId":"jackfruit:96"},"geometry":{"type":"Point","coordinates":[77.07858669,10.478889]}},
{"type":"Feature","properties":{"crop":"Jackfruit","treeNo":"97","canonicalId":"jackfruit:97"},"geometry":{"type":"Point","coordinates":[77.07864075,10.47890689]}},
{"type":"Feature","properties":{"crop":"Jackfruit","treeNo":"98","canonicalId":"jackfruit:98"},"geometry":{"type":"Point","coordinates":[77.07869815,10.47891497]}},
{"type":"Feature","properties":{"crop":"Jackfruit","treeNo":"99","canonicalId":"jackfruit:99"},"geometry":{"type":"Point","coordinates":[77.07875107,10.47891665]}},
{"type":"Feature","properties":{"crop":"Jackfruit","treeNo":"100","canonicalId":"jackfruit:100"},"geometry":{"type":"Point","coordinates":[77.07881156,10.47892706]}},
{"type":"Feature","properties":{"crop":"Jackfruit","treeNo":"101","canonicalId":"jackfruit:101"},"geometry":{"type":"Point","coordinates":[77.07886726,10.47893616]}},
{"type":"Feature","properties":{"crop":"Jackfruit","treeNo":"102","canonicalId":"jackfruit:102"},"geometry":{"type":"Point","coordinates":[77.07891577,10.47894091]}},
{"type":"Feature","properties":{"crop":"Jackfruit","treeNo":"103","canonicalId":"jackfruit:103"},"geometry":{"type":"Point","coordinates":[77.07897832,10.47895368]}},
{"type":"Feature","properties":{"crop":"Jackfruit","treeNo":"104","canonicalId":"jackfruit:104"},"geometry":{"type":"Point","coordinates":[77.07903372,10.47896886]}},
{"type":"Feature","properties":{"crop":"Jackfruit","treeNo":"105","canonicalId":"jackfruit:105"},"geometry":{"type":"Point","coordinates":[77.07909689,10.47897182]}},
{"type":"Feature","properties":{"crop":"Jackfruit","treeNo":"106","canonicalId":"jackfruit:106"},"geometry":{"type":"Point","coordinates":[77.07915295,10.47898294]}},
{"type":"Feature","properties":{"crop":"Jackfruit","treeNo":"107","canonicalId":"jackfruit:107"},"geometry":{"type":"Point","coordinates":[77.07915814,10.47904541]}},
{"type":"Feature","properties":{"crop":"Jackfruit","treeNo":"108","canonicalId":"jackfruit:108"},"geometry":{"type":"Point","coordinates":[77.07910004,10.4790343]}},
{"type":"Feature","properties":{"crop":"Jackfruit","treeNo":"109","canonicalId":"jackfruit:109"},"geometry":{"type":"Point","coordinates":[77.07903579,10.47902324]}},
{"type":"Feature","properties":{"crop":"Jackfruit","treeNo":"110","canonicalId":"jackfruit:110"},"geometry":{"type":"Point","coordinates":[77.07898182,10.47901818]}},
{"type":"Feature","properties":{"crop":"Jackfruit","treeNo":"111","canonicalId":"jackfruit:111"},"geometry":{"type":"Point","coordinates":[77.0789295,10.47900366]}},
{"type":"Feature","properties":{"crop":"Jackfruit","treeNo":"112","canonicalId":"jackfruit:112"},"geometry":{"type":"Point","coordinates":[77.07887106,10.47899357]}},
{"type":"Feature","properties":{"crop":"Jackfruit","treeNo":"113","canonicalId":"jackfruit:113"},"geometry":{"type":"Point","coordinates":[77.07881466,10.47898177]}},
{"type":"Feature","properties":{"crop":"Jackfruit","treeNo":"114","canonicalId":"jackfruit:114"},"geometry":{"type":"Point","coordinates":[77.07876272,10.47897502]}},
{"type":"Feature","properties":{"crop":"Jackfruit","treeNo":"115","canonicalId":"jackfruit:115"},"geometry":{"type":"Point","coordinates":[77.07870738,10.47896795]}},
{"type":"Feature","properties":{"crop":"Jackfruit","treeNo":"116","canonicalId":"jackfruit:116"},"geometry":{"type":"Point","coordinates":[77.07864927,10.4789565]}},
{"type":"Feature","properties":{"crop":"Jackfruit","treeNo":"117","canonicalId":"jackfruit:117"},"geometry":{"type":"Point","coordinates":[77.07859151,10.47894539]}},
{"type":"Feature","properties":{"crop":"Jackfruit","treeNo":"118","canonicalId":"jackfruit:118"},"geometry":{"type":"Point","coordinates":[77.07853239,10.47893632]}},
{"type":"Feature","properties":{"crop":"Jackfruit","treeNo":"119","canonicalId":"jackfruit:119"},"geometry":{"type":"Point","coordinates":[77.07847669,10.47892756]}},
{"type":"Feature","properties":{"crop":"Jackfruit","treeNo":"120","canonicalId":"jackfruit:120"},"geometry":{"type":"Point","coordinates":[77.07842131,10.47891576]}},
{"type":"Feature","properties":{"crop":"Jackfruit","treeNo":"121","canonicalId":"jackfruit:121"},"geometry":{"type":"Point","coordinates":[77.07836528,10.47890903]}},
{"type":"Feature","properties":{"crop":"Jackfruit","treeNo":"122","canonicalId":"jackfruit:122"},"geometry":{"type":"Point","coordinates":[77.07830931,10.47890974]}},
{"type":"Feature","properties":{"crop":"Jackfruit","treeNo":"123","canonicalId":"jackfruit:123"},"geometry":{"type":"Point","coordinates":[77.07824676,10.47889764]}},
{"type":"Feature","properties":{"crop":"Jackfruit","treeNo":"124","canonicalId":"jackfruit:124"},"geometry":{"type":"Point","coordinates":[77.07818486,10.47888048]}},
{"type":"Feature","properties":{"crop":"Jackfruit","treeNo":"125","canonicalId":"jackfruit:125"},"geometry":{"type":"Point","coordinates":[77.07813292,10.47887305]}},
{"type":"Feature","properties":{"crop":"Jackfruit","treeNo":"126","canonicalId":"jackfruit:126"},"geometry":{"type":"Point","coordinates":[77.07808471,10.4788612]}},
{"type":"Feature","properties":{"crop":"Jackfruit","treeNo":"127","canonicalId":"jackfruit:127"},"geometry":{"type":"Point","coordinates":[77.07802422,10.47885146]}},
{"type":"Feature","properties":{"crop":"Jackfruit","treeNo":"128","canonicalId":"jackfruit:128"},"geometry":{"type":"Point","coordinates":[77.07796172,10.47884646]}},
{"type":"Feature","properties":{"crop":"Jackfruit","treeNo":"129","canonicalId":"jackfruit:129"},"geometry":{"type":"Point","coordinates":[77.07790397,10.47883704]}},
{"type":"Feature","properties":{"crop":"Jackfruit","treeNo":"130","canonicalId":"jackfruit:130"},"geometry":{"type":"Point","coordinates":[77.07785886,10.47882889]}},
{"type":"Feature","properties":{"crop":"Jackfruit","treeNo":"131","canonicalId":"jackfruit:131"},"geometry":{"type":"Point","coordinates":[77.07780077,10.47882048]}},
{"type":"Feature","properties":{"crop":"Jackfruit","treeNo":"132","canonicalId":"jackfruit:132"},"geometry":{"type":"Point","coordinates":[77.0777423,10.478806]}},
{"type":"Feature","properties":{"crop":"Jackfruit","treeNo":"133","canonicalId":"jackfruit:133"},"geometry":{"type":"Point","coordinates":[77.07769736,10.47887454]}},
{"type":"Feature","properties":{"crop":"Jackfruit","treeNo":"134","canonicalId":"jackfruit:134"},"geometry":{"type":"Point","coordinates":[77.07775876,10.4788684]}},
{"type":"Feature","properties":{"crop":"Jackfruit","treeNo":"135","canonicalId":"jackfruit:135"},"geometry":{"type":"Point","coordinates":[77.07781477,10.47887175]}},
{"type":"Feature","properties":{"crop":"Jackfruit","treeNo":"136","canonicalId":"jackfruit:136"},"geometry":{"type":"Point","coordinates":[77.07786055,10.47887753]}},
{"type":"Feature","properties":{"crop":"Jackfruit","treeNo":"137","canonicalId":"jackfruit:137"},"geometry":{"type":"Point","coordinates":[77.07792104,10.47888896]}},
{"type":"Feature","properties":{"crop":"Jackfruit","treeNo":"138","canonicalId":"jackfruit:138"},"geometry":{"type":"Point","coordinates":[77.07797745,10.47890143]}},
{"type":"Feature","properties":{"crop":"Jackfruit","treeNo":"139","canonicalId":"jackfruit:139"},"geometry":{"type":"Point","coordinates":[77.07804038,10.47891994]}},
{"type":"Feature","properties":{"crop":"Jackfruit","treeNo":"140","canonicalId":"jackfruit:140"},"geometry":{"type":"Point","coordinates":[77.07809261,10.47891926]}},
{"type":"Feature","properties":{"crop":"Jackfruit","treeNo":"141","canonicalId":"jackfruit:141"},"geometry":{"type":"Point","coordinates":[77.07814521,10.47892398]}},
{"type":"Feature","properties":{"crop":"Jackfruit","treeNo":"142","canonicalId":"jackfruit:142"},"geometry":{"type":"Point","coordinates":[77.0781982,10.47893681]}},
{"type":"Feature","properties":{"crop":"Jackfruit","treeNo":"143","canonicalId":"jackfruit:143"},"geometry":{"type":"Point","coordinates":[77.0782604,10.47894722]}},
{"type":"Feature","properties":{"crop":"Jackfruit","treeNo":"144","canonicalId":"jackfruit:144"},"geometry":{"type":"Point","coordinates":[77.07831713,10.47895732]}},
{"type":"Feature","properties":{"crop":"Jackfruit","treeNo":"145","canonicalId":"jackfruit:145"},"geometry":{"type":"Point","coordinates":[77.07837623,10.47896302]}},
{"type":"Feature","properties":{"crop":"Jackfruit","treeNo":"146","canonicalId":"jackfruit:146"},"geometry":{"type":"Point","coordinates":[77.07843432,10.47897277]}},
{"type":"Feature","properties":{"crop":"Jackfruit","treeNo":"147","canonicalId":"jackfruit:147"},"geometry":{"type":"Point","coordinates":[77.07848657,10.47897615]}},
{"type":"Feature","properties":{"crop":"Jackfruit","treeNo":"148","canonicalId":"jackfruit:148"},"geometry":{"type":"Point","coordinates":[77.07854066,10.47899877]}},
{"type":"Feature","properties":{"crop":"Jackfruit","treeNo":"149","canonicalId":"jackfruit:149"},"geometry":{"type":"Point","coordinates":[77.07859774,10.47900954]}},
{"type":"Feature","properties":{"crop":"Jackfruit","treeNo":"150","canonicalId":"jackfruit:150"},"geometry":{"type":"Point","coordinates":[77.07865647,10.47901254]}},
{"type":"Feature","properties":{"crop":"Jackfruit","treeNo":"151","canonicalId":"jackfruit:151"},"geometry":{"type":"Point","coordinates":[77.07871524,10.47902162]}},
{"type":"Feature","properties":{"crop":"Jackfruit","treeNo":"152","canonicalId":"jackfruit:152"},"geometry":{"type":"Point","coordinates":[77.07877332,10.47902765]}},
{"type":"Feature","properties":{"crop":"Jackfruit","treeNo":"153","canonicalId":"jackfruit:153"},"geometry":{"type":"Point","coordinates":[77.07882323,10.47903882]}},
{"type":"Feature","properties":{"crop":"Jackfruit","treeNo":"154","canonicalId":"jackfruit:154"},"geometry":{"type":"Point","coordinates":[77.0788779,10.47904758]}},
{"type":"Feature","properties":{"crop":"Jackfruit","treeNo":"155","canonicalId":"jackfruit:155"},"geometry":{"type":"Point","coordinates":[77.07894129,10.47905696]}},
{"type":"Feature","properties":{"crop":"Jackfruit","treeNo":"156","canonicalId":"jackfruit:156"},"geometry":{"type":"Point","coordinates":[77.07899444,10.47906743]}},
{"type":"Feature","properties":{"crop":"Jackfruit","treeNo":"157","canonicalId":"jackfruit:157"},"geometry":{"type":"Point","coordinates":[77.07904739,10.47907367]}},
{"type":"Feature","properties":{"crop":"Jackfruit","treeNo":"158","canonicalId":"jackfruit:158"},"geometry":{"type":"Point","coordinates":[77.07910686,10.47908477]}},
{"type":"Feature","properties":{"crop":"Jackfruit","treeNo":"159","canonicalId":"jackfruit:159"},"geometry":{"type":"Point","coordinates":[77.07916563,10.47909317]}},
{"type":"Feature","properties":{"crop":"Jackfruit","treeNo":"160","canonicalId":"jackfruit:160"},"geometry":{"type":"Point","coordinates":[77.07917217,10.47915259]}},
{"type":"Feature","properties":{"crop":"Jackfruit","treeNo":"161","canonicalId":"jackfruit:161"},"geometry":{"type":"Point","coordinates":[77.07911153,10.47914504]}},
{"type":"Feature","properties":{"crop":"Jackfruit","treeNo":"162","canonicalId":"jackfruit:162"},"geometry":{"type":"Point","coordinates":[77.079055,10.47913883]}},
{"type":"Feature","properties":{"crop":"Jackfruit","treeNo":"163","canonicalId":"jackfruit:163"},"geometry":{"type":"Point","coordinates":[77.07900217,10.4791265]}},
{"type":"Feature","properties":{"crop":"Jackfruit","treeNo":"164","canonicalId":"jackfruit:164"},"geometry":{"type":"Point","coordinates":[77.0789502,10.479114]}},
{"type":"Feature","properties":{"crop":"Jackfruit","treeNo":"165","canonicalId":"jackfruit:165"},"geometry":{"type":"Point","coordinates":[77.07888838,10.47910765]}},
{"type":"Feature","properties":{"crop":"Jackfruit","treeNo":"166","canonicalId":"jackfruit:166"},"geometry":{"type":"Point","coordinates":[77.07882923,10.47909452]}},
{"type":"Feature","properties":{"crop":"Jackfruit","treeNo":"167","canonicalId":"jackfruit:167"},"geometry":{"type":"Point","coordinates":[77.07878069,10.47908369]}},
{"type":"Feature","properties":{"crop":"Jackfruit","treeNo":"168","canonicalId":"jackfruit:168"},"geometry":{"type":"Point","coordinates":[77.07872229,10.47908002]}},
{"type":"Feature","properties":{"crop":"Jackfruit","treeNo":"169","canonicalId":"jackfruit:169"},"geometry":{"type":"Point","coordinates":[77.07866356,10.47907804]}},
{"type":"Feature","properties":{"crop":"Jackfruit","treeNo":"170","canonicalId":"jackfruit:170"},"geometry":{"type":"Point","coordinates":[77.0786078,10.47905914]}},
{"type":"Feature","properties":{"crop":"Jackfruit","treeNo":"171","canonicalId":"jackfruit:171"},"geometry":{"type":"Point","coordinates":[77.07855279,10.47905275]}},
{"type":"Feature","properties":{"crop":"Jackfruit","treeNo":"172","canonicalId":"jackfruit:172"},"geometry":{"type":"Point","coordinates":[77.07849877,10.47903857]}},
{"type":"Feature","properties":{"crop":"Jackfruit","treeNo":"173","canonicalId":"jackfruit:173"},"geometry":{"type":"Point","coordinates":[77.07843865,10.47903356]}},
{"type":"Feature","properties":{"crop":"Jackfruit","treeNo":"174","canonicalId":"jackfruit:174"},"geometry":{"type":"Point","coordinates":[77.07838568,10.47902377]}},
{"type":"Feature","properties":{"crop":"Jackfruit","treeNo":"175","canonicalId":"jackfruit:175"},"geometry":{"type":"Point","coordinates":[77.07832314,10.47901404]}},
{"type":"Feature","properties":{"crop":"Jackfruit","treeNo":"176","canonicalId":"jackfruit:176"},"geometry":{"type":"Point","coordinates":[77.07826472,10.47900631]}},
{"type":"Feature","properties":{"crop":"Jackfruit","treeNo":"177","canonicalId":"jackfruit:177"},"geometry":{"type":"Point","coordinates":[77.07820249,10.4789905]}},
{"type":"Feature","properties":{"crop":"Jackfruit","treeNo":"178","canonicalId":"jackfruit:178"},"geometry":{"type":"Point","coordinates":[77.07814437,10.47897805]}},
{"type":"Feature","properties":{"crop":"Jackfruit","treeNo":"179","canonicalId":"jackfruit:179"},"geometry":{"type":"Point","coordinates":[77.07809722,10.47897092]}},
{"type":"Feature","properties":{"crop":"Jackfruit","treeNo":"180","canonicalId":"jackfruit:180"},"geometry":{"type":"Point","coordinates":[77.07804257,10.47896587]}},
{"type":"Feature","properties":{"crop":"Jackfruit","treeNo":"181","canonicalId":"jackfruit:181"},"geometry":{"type":"Point","coordinates":[77.07798588,10.47896219]}},
{"type":"Feature","properties":{"crop":"Jackfruit","treeNo":"182","canonicalId":"jackfruit:182"},"geometry":{"type":"Point","coordinates":[77.07792501,10.47894637]}},
{"type":"Feature","properties":{"crop":"Jackfruit","treeNo":"183","canonicalId":"jackfruit:183"},"geometry":{"type":"Point","coordinates":[77.07787568,10.47891966]}},
{"type":"Feature","properties":{"crop":"Jackfruit","treeNo":"184","canonicalId":"jackfruit:184"},"geometry":{"type":"Point","coordinates":[77.07781838,10.47892747]}},
{"type":"Feature","properties":{"crop":"Jackfruit","treeNo":"185","canonicalId":"jackfruit:185"},"geometry":{"type":"Point","coordinates":[77.07776445,10.47892782]}},
{"type":"Feature","properties":{"crop":"Jackfruit","treeNo":"186","canonicalId":"jackfruit:186"},"geometry":{"type":"Point","coordinates":[77.07771116,10.47892209]}},
{"type":"Feature","properties":{"crop":"Jackfruit","treeNo":"187","canonicalId":"jackfruit:187"},"geometry":{"type":"Point","coordinates":[77.07776614,10.47897646]}},
{"type":"Feature","properties":{"crop":"Jackfruit","treeNo":"188","canonicalId":"jackfruit:188"},"geometry":{"type":"Point","coordinates":[77.07782625,10.47898147]}},
{"type":"Feature","properties":{"crop":"Jackfruit","treeNo":"189","canonicalId":"jackfruit:189"},"geometry":{"type":"Point","coordinates":[77.07787615,10.47899128]}},
{"type":"Feature","properties":{"crop":"Jackfruit","treeNo":"190","canonicalId":"jackfruit:190"},"geometry":{"type":"Point","coordinates":[77.07794929,10.47900432]}},
{"type":"Feature","properties":{"crop":"Jackfruit","treeNo":"191","canonicalId":"jackfruit:191"},"geometry":{"type":"Point","coordinates":[77.07799848,10.47900873]}},
{"type":"Feature","properties":{"crop":"Jackfruit","treeNo":"192","canonicalId":"jackfruit:192"},"geometry":{"type":"Point","coordinates":[77.07805454,10.47902053]}},
{"type":"Feature","properties":{"crop":"Jackfruit","treeNo":"193","canonicalId":"jackfruit:193"},"geometry":{"type":"Point","coordinates":[77.07810341,10.47902899]}},
{"type":"Feature","properties":{"crop":"Jackfruit","treeNo":"194","canonicalId":"jackfruit:194"},"geometry":{"type":"Point","coordinates":[77.07816866,10.47903667]}},
{"type":"Feature","properties":{"crop":"Jackfruit","treeNo":"195","canonicalId":"jackfruit:195"},"geometry":{"type":"Point","coordinates":[77.07822197,10.47904612]}},
{"type":"Feature","properties":{"crop":"Jackfruit","treeNo":"196","canonicalId":"jackfruit:196"},"geometry":{"type":"Point","coordinates":[77.07828109,10.47905486]}},
{"type":"Feature","properties":{"crop":"Jackfruit","treeNo":"197","canonicalId":"jackfruit:197"},"geometry":{"type":"Point","coordinates":[77.07832893,10.47906232]}},
{"type":"Feature","properties":{"crop":"Jackfruit","treeNo":"198","canonicalId":"jackfruit:198"},"geometry":{"type":"Point","coordinates":[77.07838467,10.47907783]}},
{"type":"Feature","properties":{"crop":"Jackfruit","treeNo":"199","canonicalId":"jackfruit:199"},"geometry":{"type":"Point","coordinates":[77.07844685,10.47908486]}},
{"type":"Feature","properties":{"crop":"Jackfruit","treeNo":"200","canonicalId":"jackfruit:200"},"geometry":{"type":"Point","coordinates":[77.07850628,10.47909055]}},
{"type":"Feature","properties":{"crop":"Jackfruit","treeNo":"201","canonicalId":"jackfruit:201"},"geometry":{"type":"Point","coordinates":[77.07855754,10.47909832]}},
{"type":"Feature","properties":{"crop":"Jackfruit","treeNo":"202","canonicalId":"jackfruit:202"},"geometry":{"type":"Point","coordinates":[77.0786148,10.47911079]}},
{"type":"Feature","properties":{"crop":"Jackfruit","treeNo":"203","canonicalId":"jackfruit:203"},"geometry":{"type":"Point","coordinates":[77.0786661,10.47912616]}},
{"type":"Feature","properties":{"crop":"Jackfruit","treeNo":"204","canonicalId":"jackfruit:204"},"geometry":{"type":"Point","coordinates":[77.07873321,10.4791313]}},
{"type":"Feature","properties":{"crop":"Jackfruit","treeNo":"205","canonicalId":"jackfruit:205"},"geometry":{"type":"Point","coordinates":[77.07878531,10.47913772]}},
{"type":"Feature","properties":{"crop":"Jackfruit","treeNo":"206","canonicalId":"jackfruit:206"},"geometry":{"type":"Point","coordinates":[77.07884053,10.47915053]}},
{"type":"Feature","properties":{"crop":"Jackfruit","treeNo":"207","canonicalId":"jackfruit:207"},"geometry":{"type":"Point","coordinates":[77.07889759,10.47915793]}},
{"type":"Feature","properties":{"crop":"Jackfruit","treeNo":"208","canonicalId":"jackfruit:208"},"geometry":{"type":"Point","coordinates":[77.07895497,10.47916397]}},
{"type":"Feature","properties":{"crop":"Jackfruit","treeNo":"209","canonicalId":"jackfruit:209"},"geometry":{"type":"Point","coordinates":[77.07900486,10.47917142]}},
{"type":"Feature","properties":{"crop":"Jackfruit","treeNo":"210","canonicalId":"jackfruit:210"},"geometry":{"type":"Point","coordinates":[77.07906608,10.47918926]}},
{"type":"Feature","properties":{"crop":"Jackfruit","treeNo":"211","canonicalId":"jackfruit:211"},"geometry":{"type":"Point","coordinates":[77.07911629,10.47919366]}},
{"type":"Feature","properties":{"crop":"Jackfruit","treeNo":"212","canonicalId":"jackfruit:212"},"geometry":{"type":"Point","coordinates":[77.0791795,10.4792017]}},
{"type":"Feature","properties":{"crop":"Jackfruit","treeNo":"213","canonicalId":"jackfruit:213"},"geometry":{"type":"Point","coordinates":[77.07918846,10.47926549]}},
{"type":"Feature","properties":{"crop":"Jackfruit","treeNo":"214","canonicalId":"jackfruit:214"},"geometry":{"type":"Point","coordinates":[77.07911771,10.47925278]}},
{"type":"Feature","properties":{"crop":"Jackfruit","treeNo":"215","canonicalId":"jackfruit:215"},"geometry":{"type":"Point","coordinates":[77.07907328,10.47924429]}},
{"type":"Feature","properties":{"crop":"Jackfruit","treeNo":"216","canonicalId":"jackfruit:216"},"geometry":{"type":"Point","coordinates":[77.07901822,10.47922877]}},
{"type":"Feature","properties":{"crop":"Jackfruit","treeNo":"217","canonicalId":"jackfruit:217"},"geometry":{"type":"Point","coordinates":[77.07895811,10.4792251]}},
{"type":"Feature","properties":{"crop":"Jackfruit","treeNo":"218","canonicalId":"jackfruit:218"},"geometry":{"type":"Point","coordinates":[77.07889765,10.4792184]}},
{"type":"Feature","properties":{"crop":"Jackfruit","treeNo":"219","canonicalId":"jackfruit:219"},"geometry":{"type":"Point","coordinates":[77.07884434,10.47920929]}},
{"type":"Feature","properties":{"crop":"Jackfruit","treeNo":"220","canonicalId":"jackfruit:220"},"geometry":{"type":"Point","coordinates":[77.07878488,10.47920022]}},
{"type":"Feature","properties":{"crop":"Jackfruit","treeNo":"221","canonicalId":"jackfruit:221"},"geometry":{"type":"Point","coordinates":[77.07873669,10.47919108]}},
{"type":"Feature","properties":{"crop":"Jackfruit","treeNo":"222","canonicalId":"jackfruit:222"},"geometry":{"type":"Point","coordinates":[77.07868266,10.47917758]}},
{"type":"Feature","properties":{"crop":"Jackfruit","treeNo":"223","canonicalId":"jackfruit:223"},"geometry":{"type":"Point","coordinates":[77.07862359,10.47917459]}},
{"type":"Feature","properties":{"crop":"Jackfruit","treeNo":"224","canonicalId":"jackfruit:224"},"geometry":{"type":"Point","coordinates":[77.07856167,10.47915506]}},
{"type":"Feature","properties":{"crop":"Jackfruit","treeNo":"225","canonicalId":"jackfruit:225"},"geometry":{"type":"Point","coordinates":[77.07850697,10.47914325]}},
{"type":"Feature","properties":{"crop":"Jackfruit","treeNo":"226","canonicalId":"jackfruit:226"},"geometry":{"type":"Point","coordinates":[77.07846328,10.47914286]}},
{"type":"Feature","properties":{"crop":"Jackfruit","treeNo":"227","canonicalId":"jackfruit:227"},"geometry":{"type":"Point","coordinates":[77.07839153,10.47913319]}},
{"type":"Feature","properties":{"crop":"Jackfruit","treeNo":"228","canonicalId":"jackfruit:228"},"geometry":{"type":"Point","coordinates":[77.07833686,10.47912612]}},
{"type":"Feature","properties":{"crop":"Jackfruit","treeNo":"229","canonicalId":"jackfruit:229"},"geometry":{"type":"Point","coordinates":[77.07828823,10.47910279]}},
{"type":"Feature","properties":{"crop":"Jackfruit","treeNo":"230","canonicalId":"jackfruit:230"},"geometry":{"type":"Point","coordinates":[77.0782239,10.47910506]}},
{"type":"Feature","properties":{"crop":"Jackfruit","treeNo":"231","canonicalId":"jackfruit:231"},"geometry":{"type":"Point","coordinates":[77.07816547,10.47909531]}},
{"type":"Feature","properties":{"crop":"Jackfruit","treeNo":"232","canonicalId":"jackfruit:232"},"geometry":{"type":"Point","coordinates":[77.07811009,10.47908385]}},
{"type":"Feature","properties":{"crop":"Jackfruit","treeNo":"233","canonicalId":"jackfruit:233"},"geometry":{"type":"Point","coordinates":[77.07805937,10.47907894]}},
{"type":"Feature","properties":{"crop":"Jackfruit","treeNo":"234","canonicalId":"jackfruit:234"},"geometry":{"type":"Point","coordinates":[77.07799441,10.4790645]}},
{"type":"Feature","properties":{"crop":"Jackfruit","treeNo":"235","canonicalId":"jackfruit:235"},"geometry":{"type":"Point","coordinates":[77.07794522,10.47905874]}},
{"type":"Feature","properties":{"crop":"Jackfruit","treeNo":"236","canonicalId":"jackfruit:236"},"geometry":{"type":"Point","coordinates":[77.07788368,10.47904428]}},
{"type":"Feature","properties":{"crop":"Jackfruit","treeNo":"237","canonicalId":"jackfruit:237"},"geometry":{"type":"Point","coordinates":[77.07782697,10.47903789]}},
{"type":"Feature","properties":{"crop":"Jackfruit","treeNo":"238","canonicalId":"jackfruit:238"},"geometry":{"type":"Point","coordinates":[77.07777097,10.47903623]}},
{"type":"Feature","properties":{"crop":"Jackfruit","treeNo":"239","canonicalId":"jackfruit:239"},"geometry":{"type":"Point","coordinates":[77.07771918,10.47904311]}},
{"type":"Feature","properties":{"crop":"Jackfruit","treeNo":"240","canonicalId":"jackfruit:240"},"geometry":{"type":"Point","coordinates":[77.07772272,10.47910137]}},
{"type":"Feature","properties":{"crop":"Jackfruit","treeNo":"241","canonicalId":"jackfruit:241"},"geometry":{"type":"Point","coordinates":[77.07778137,10.47909119]}},
{"type":"Feature","properties":{"crop":"Jackfruit","treeNo":"242","canonicalId":"jackfruit:242"},"geometry":{"type":"Point","coordinates":[77.07784215,10.47909417]}},
{"type":"Feature","properties":{"crop":"Jackfruit","treeNo":"243","canonicalId":"jackfruit:243"},"geometry":{"type":"Point","coordinates":[77.07789922,10.47910393]}},
{"type":"Feature","properties":{"crop":"Jackfruit","treeNo":"244","canonicalId":"jackfruit:244"},"geometry":{"type":"Point","coordinates":[77.07795458,10.47911337]}},
{"type":"Feature","properties":{"crop":"Jackfruit","treeNo":"245","canonicalId":"jackfruit:245"},"geometry":{"type":"Point","coordinates":[77.07801096,10.47912077]}},
{"type":"Feature","properties":{"crop":"Jackfruit","treeNo":"246","canonicalId":"jackfruit:246"},"geometry":{"type":"Point","coordinates":[77.07806564,10.47913055]}},
{"type":"Feature","properties":{"crop":"Jackfruit","treeNo":"247","canonicalId":"jackfruit:247"},"geometry":{"type":"Point","coordinates":[77.07812133,10.47913796]}},
{"type":"Feature","properties":{"crop":"Jackfruit","treeNo":"248","canonicalId":"jackfruit:248"},"geometry":{"type":"Point","coordinates":[77.07817985,10.47916055]}},
{"type":"Feature","properties":{"crop":"Jackfruit","treeNo":"249","canonicalId":"jackfruit:249"},"geometry":{"type":"Point","coordinates":[77.07829462,10.47917162]}},
{"type":"Feature","properties":{"crop":"Jackfruit","treeNo":"250","canonicalId":"jackfruit:250"},"geometry":{"type":"Point","coordinates":[77.07834996,10.47917701]}},
{"type":"Feature","properties":{"crop":"Jackfruit","treeNo":"251","canonicalId":"jackfruit:251"},"geometry":{"type":"Point","coordinates":[77.07840225,10.4791868]}},
{"type":"Feature","properties":{"crop":"Jackfruit","treeNo":"252","canonicalId":"jackfruit:252"},"geometry":{"type":"Point","coordinates":[77.07845557,10.47919693]}},
{"type":"Feature","properties":{"crop":"Jackfruit","treeNo":"253","canonicalId":"jackfruit:253"},"geometry":{"type":"Point","coordinates":[77.07852289,10.47920696]}},
{"type":"Feature","properties":{"crop":"Jackfruit","treeNo":"254","canonicalId":"jackfruit:254"},"geometry":{"type":"Point","coordinates":[77.07857895,10.47921876]}},
{"type":"Feature","properties":{"crop":"Jackfruit","treeNo":"255","canonicalId":"jackfruit:255"},"geometry":{"type":"Point","coordinates":[77.07863187,10.47922077]}},
{"type":"Feature","properties":{"crop":"Jackfruit","treeNo":"256","canonicalId":"jackfruit:256"},"geometry":{"type":"Point","coordinates":[77.07869234,10.47922815]}},
{"type":"Feature","properties":{"crop":"Jackfruit","treeNo":"257","canonicalId":"jackfruit:257"},"geometry":{"type":"Point","coordinates":[77.0787385,10.47923967]}},
{"type":"Feature","properties":{"crop":"Jackfruit","treeNo":"258","canonicalId":"jackfruit:258"},"geometry":{"type":"Point","coordinates":[77.07880177,10.4792575]}},
{"type":"Feature","properties":{"crop":"Jackfruit","treeNo":"259","canonicalId":"jackfruit:259"},"geometry":{"type":"Point","coordinates":[77.07886018,10.47926287]}},
{"type":"Feature","properties":{"crop":"Jackfruit","treeNo":"260","canonicalId":"jackfruit:260"},"geometry":{"type":"Point","coordinates":[77.07891173,10.47926388]}},
{"type":"Feature","properties":{"crop":"Jackfruit","treeNo":"261","canonicalId":"jackfruit:261"},"geometry":{"type":"Point","coordinates":[77.07897606,10.47928711]}},
{"type":"Feature","properties":{"crop":"Jackfruit","treeNo":"262","canonicalId":"jackfruit:262"},"geometry":{"type":"Point","coordinates":[77.07902693,10.47928813]}},
{"type":"Feature","properties":{"crop":"Jackfruit","treeNo":"263","canonicalId":"jackfruit:263"},"geometry":{"type":"Point","coordinates":[77.07907851,10.47929354]}},
{"type":"Feature","properties":{"crop":"Jackfruit","treeNo":"264","canonicalId":"jackfruit:264"},"geometry":{"type":"Point","coordinates":[77.07913562,10.47930837]}},
{"type":"Feature","properties":{"crop":"Jackfruit","treeNo":"265","canonicalId":"jackfruit:265"},"geometry":{"type":"Point","coordinates":[77.07918589,10.47932121]}},
{"type":"Feature","properties":{"crop":"Jackfruit","treeNo":"266","canonicalId":"jackfruit:266"},"geometry":{"type":"Point","coordinates":[77.07919855,10.47937721]}},
{"type":"Feature","properties":{"crop":"Jackfruit","treeNo":"267","canonicalId":"jackfruit:267"},"geometry":{"type":"Point","coordinates":[77.07914725,10.4793637]}},
{"type":"Feature","properties":{"crop":"Jackfruit","treeNo":"268","canonicalId":"jackfruit:268"},"geometry":{"type":"Point","coordinates":[77.07908748,10.47935868]}},
{"type":"Feature","properties":{"crop":"Jackfruit","treeNo":"269","canonicalId":"jackfruit:269"},"geometry":{"type":"Point","coordinates":[77.07903622,10.47934956]}},
{"type":"Feature","properties":{"crop":"Jackfruit","treeNo":"270","canonicalId":"jackfruit:270"},"geometry":{"type":"Point","coordinates":[77.07897396,10.47932936]}},
{"type":"Feature","properties":{"crop":"Jackfruit","treeNo":"271","canonicalId":"jackfruit:271"},"geometry":{"type":"Point","coordinates":[77.07891456,10.47932941]}},
{"type":"Feature","properties":{"crop":"Jackfruit","treeNo":"272","canonicalId":"jackfruit:272"},"geometry":{"type":"Point","coordinates":[77.07885988,10.47931963]}},
{"type":"Feature","properties":{"crop":"Jackfruit","treeNo":"273","canonicalId":"jackfruit:273"},"geometry":{"type":"Point","coordinates":[77.07880386,10.47931391]}},
{"type":"Feature","properties":{"crop":"Jackfruit","treeNo":"274","canonicalId":"jackfruit:274"},"geometry":{"type":"Point","coordinates":[77.07874644,10.47930348]}},
{"type":"Feature","properties":{"crop":"Jackfruit","treeNo":"275","canonicalId":"jackfruit:275"},"geometry":{"type":"Point","coordinates":[77.07868932,10.47928729]}},
{"type":"Feature","properties":{"crop":"Jackfruit","treeNo":"276","canonicalId":"jackfruit:276"},"geometry":{"type":"Point","coordinates":[77.07864288,10.47928388]}},
{"type":"Feature","properties":{"crop":"Jackfruit","treeNo":"277","canonicalId":"jackfruit:277"},"geometry":{"type":"Point","coordinates":[77.07858587,10.47928358]}},
{"type":"Feature","properties":{"crop":"Jackfruit","treeNo":"278","canonicalId":"jackfruit:278"},"geometry":{"type":"Point","coordinates":[77.07853064,10.47926823]}},
{"type":"Feature","properties":{"crop":"Jackfruit","treeNo":"279","canonicalId":"jackfruit:279"},"geometry":{"type":"Point","coordinates":[77.07846897,10.47926035]}},
{"type":"Feature","properties":{"crop":"Jackfruit","treeNo":"280","canonicalId":"jackfruit:280"},"geometry":{"type":"Point","coordinates":[77.07841292,10.47925008]}},
{"type":"Feature","properties":{"crop":"Jackfruit","treeNo":"281","canonicalId":"jackfruit:281"},"geometry":{"type":"Point","coordinates":[77.07835107,10.4792417]}},
{"type":"Feature","properties":{"crop":"Jackfruit","treeNo":"282","canonicalId":"jackfruit:282"},"geometry":{"type":"Point","coordinates":[77.07829231,10.47923347]}},
{"type":"Feature","properties":{"crop":"Jackfruit","treeNo":"283","canonicalId":"jackfruit:283"},"geometry":{"type":"Point","coordinates":[77.07823993,10.4792105]}},
{"type":"Feature","properties":{"crop":"Jackfruit","treeNo":"284","canonicalId":"jackfruit:284"},"geometry":{"type":"Point","coordinates":[77.07818663,10.47920443]}},
{"type":"Feature","properties":{"crop":"Jackfruit","treeNo":"285","canonicalId":"jackfruit:285"},"geometry":{"type":"Point","coordinates":[77.07813472,10.47920071]}},
{"type":"Feature","properties":{"crop":"Jackfruit","treeNo":"286","canonicalId":"jackfruit:286"},"geometry":{"type":"Point","coordinates":[77.07807934,10.47918891]}},
{"type":"Feature","properties":{"crop":"Jackfruit","treeNo":"287","canonicalId":"jackfruit:287"},"geometry":{"type":"Point","coordinates":[77.07801747,10.4791758]}},
{"type":"Feature","properties":{"crop":"Jackfruit","treeNo":"288","canonicalId":"jackfruit:288"},"geometry":{"type":"Point","coordinates":[77.07795944,10.4791755]}},
{"type":"Feature","properties":{"crop":"Jackfruit","treeNo":"289","canonicalId":"jackfruit:289"},"geometry":{"type":"Point","coordinates":[77.0779109,10.47916568]}},
{"type":"Feature","properties":{"crop":"Jackfruit","treeNo":"290","canonicalId":"jackfruit:290"},"geometry":{"type":"Point","coordinates":[77.07785178,10.47915627]}},
{"type":"Feature","properties":{"crop":"Jackfruit","treeNo":"291","canonicalId":"jackfruit:291"},"geometry":{"type":"Point","coordinates":[77.07778547,10.47914285]}},
{"type":"Feature","properties":{"crop":"Jackfruit","treeNo":"292","canonicalId":"jackfruit:292"},"geometry":{"type":"Point","coordinates":[77.07773225,10.47914793]}},
{"type":"Feature","properties":{"crop":"Jackfruit","treeNo":"293","canonicalId":"jackfruit:293"},"geometry":{"type":"Point","coordinates":[77.07774257,10.47921104]}},
{"type":"Feature","properties":{"crop":"Jackfruit","treeNo":"294","canonicalId":"jackfruit:294"},"geometry":{"type":"Point","coordinates":[77.0777958,10.47920833]}},
{"type":"Feature","properties":{"crop":"Jackfruit","treeNo":"295","canonicalId":"jackfruit:295"},"geometry":{"type":"Point","coordinates":[77.07785455,10.47921403]}},
{"type":"Feature","properties":{"crop":"Jackfruit","treeNo":"296","canonicalId":"jackfruit:296"},"geometry":{"type":"Point","coordinates":[77.07791807,10.47921699]}},
{"type":"Feature","properties":{"crop":"Jackfruit","treeNo":"297","canonicalId":"jackfruit:297"},"geometry":{"type":"Point","coordinates":[77.0779659,10.47922377]}},
{"type":"Feature","properties":{"crop":"Jackfruit","treeNo":"298","canonicalId":"jackfruit:298"},"geometry":{"type":"Point","coordinates":[77.07801785,10.47923222]}},
{"type":"Feature","properties":{"crop":"Jackfruit","treeNo":"299","canonicalId":"jackfruit:299"},"geometry":{"type":"Point","coordinates":[77.07808378,10.4792399]}},
{"type":"Feature","properties":{"crop":"Jackfruit","treeNo":"300","canonicalId":"jackfruit:300"},"geometry":{"type":"Point","coordinates":[77.07813506,10.47925172]}},
{"type":"Feature","properties":{"crop":"Jackfruit","treeNo":"301","canonicalId":"jackfruit:301"},"geometry":{"type":"Point","coordinates":[77.07819587,10.4792591]}},
{"type":"Feature","properties":{"crop":"Jackfruit","treeNo":"302","canonicalId":"jackfruit:302"},"geometry":{"type":"Point","coordinates":[77.07824684,10.47927532]}},
{"type":"Feature","properties":{"crop":"Jackfruit","treeNo":"303","canonicalId":"jackfruit:303"},"geometry":{"type":"Point","coordinates":[77.07830457,10.47928035]}},
{"type":"Feature","properties":{"crop":"Jackfruit","treeNo":"304","canonicalId":"jackfruit:304"},"geometry":{"type":"Point","coordinates":[77.07836129,10.47928876]}},
{"type":"Feature","properties":{"crop":"Jackfruit","treeNo":"305","canonicalId":"jackfruit:305"},"geometry":{"type":"Point","coordinates":[77.07842177,10.47929816]}},
{"type":"Feature","properties":{"crop":"Jackfruit","treeNo":"306","canonicalId":"jackfruit:306"},"geometry":{"type":"Point","coordinates":[77.0784754,10.47930356]}},
{"type":"Feature","properties":{"crop":"Jackfruit","treeNo":"307","canonicalId":"jackfruit:307"},"geometry":{"type":"Point","coordinates":[77.07853042,10.47931266]}},
{"type":"Feature","properties":{"crop":"Jackfruit","treeNo":"308","canonicalId":"jackfruit:308"},"geometry":{"type":"Point","coordinates":[77.07858339,10.47932211]}},
{"type":"Feature","properties":{"crop":"Jackfruit","treeNo":"309","canonicalId":"jackfruit:309"},"geometry":{"type":"Point","coordinates":[77.07864288,10.47933625]}},
{"type":"Feature","properties":{"crop":"Jackfruit","treeNo":"310","canonicalId":"jackfruit:310"},"geometry":{"type":"Point","coordinates":[77.07869891,10.4793423]}},
{"type":"Feature","properties":{"crop":"Jackfruit","treeNo":"311","canonicalId":"jackfruit:311"},"geometry":{"type":"Point","coordinates":[77.07875633,10.47935341]}},
{"type":"Feature","properties":{"crop":"Jackfruit","treeNo":"312","canonicalId":"jackfruit:312"},"geometry":{"type":"Point","coordinates":[77.07882364,10.4793621]}},
{"type":"Feature","properties":{"crop":"Jackfruit","treeNo":"313","canonicalId":"jackfruit:313"},"geometry":{"type":"Point","coordinates":[77.07887355,10.47937292]}},
{"type":"Feature","properties":{"crop":"Jackfruit","treeNo":"314","canonicalId":"jackfruit:314"},"geometry":{"type":"Point","coordinates":[77.07892581,10.47937764]}},
{"type":"Feature","properties":{"crop":"Jackfruit","treeNo":"315","canonicalId":"jackfruit:315"},"geometry":{"type":"Point","coordinates":[77.07898185,10.47938708]}},
{"type":"Feature","properties":{"crop":"Jackfruit","treeNo":"316","canonicalId":"jackfruit:316"},"geometry":{"type":"Point","coordinates":[77.07903623,10.47940294]}},
{"type":"Feature","properties":{"crop":"Jackfruit","treeNo":"317","canonicalId":"jackfruit:317"},"geometry":{"type":"Point","coordinates":[77.07909261,10.47941102]}},
{"type":"Feature","properties":{"crop":"Jackfruit","treeNo":"318","canonicalId":"jackfruit:318"},"geometry":{"type":"Point","coordinates":[77.07915409,10.47941568]}},
{"type":"Feature","properties":{"crop":"Jackfruit","treeNo":"319","canonicalId":"jackfruit:319"},"geometry":{"type":"Point","coordinates":[77.07916499,10.47946392]}},
{"type":"Feature","properties":{"crop":"Jackfruit","treeNo":"320","canonicalId":"jackfruit:320"},"geometry":{"type":"Point","coordinates":[77.07910184,10.479464]}},
{"type":"Feature","properties":{"crop":"Jackfruit","treeNo":"321","canonicalId":"jackfruit:321"},"geometry":{"type":"Point","coordinates":[77.07905469,10.47945822]}},
{"type":"Feature","properties":{"crop":"Jackfruit","treeNo":"322","canonicalId":"jackfruit:322"},"geometry":{"type":"Point","coordinates":[77.07898295,10.4794489]}},
{"type":"Feature","properties":{"crop":"Jackfruit","treeNo":"323","canonicalId":"jackfruit:323"},"geometry":{"type":"Point","coordinates":[77.0789228,10.47943915]}},
{"type":"Feature","properties":{"crop":"Jackfruit","treeNo":"324","canonicalId":"jackfruit:324"},"geometry":{"type":"Point","coordinates":[77.07887461,10.47942933]}},
{"type":"Feature","properties":{"crop":"Jackfruit","treeNo":"325","canonicalId":"jackfruit:325"},"geometry":{"type":"Point","coordinates":[77.07881273,10.47941589]}},
{"type":"Feature","properties":{"crop":"Jackfruit","treeNo":"326","canonicalId":"jackfruit:326"},"geometry":{"type":"Point","coordinates":[77.07874849,10.47940651]}},
{"type":"Feature","properties":{"crop":"Jackfruit","treeNo":"327","canonicalId":"jackfruit:327"},"geometry":{"type":"Point","coordinates":[77.07870644,10.47939732]}},
{"type":"Feature","properties":{"crop":"Jackfruit","treeNo":"328","canonicalId":"jackfruit:328"},"geometry":{"type":"Point","coordinates":[77.07865179,10.47939227]}},
{"type":"Feature","properties":{"crop":"Jackfruit","treeNo":"329","canonicalId":"jackfruit:329"},"geometry":{"type":"Point","coordinates":[77.07859747,10.47938553]}},
{"type":"Feature","properties":{"crop":"Jackfruit","treeNo":"330","canonicalId":"jackfruit:330"},"geometry":{"type":"Point","coordinates":[77.07854551,10.47937506]}},
{"type":"Feature","properties":{"crop":"Jackfruit","treeNo":"331","canonicalId":"jackfruit:331"},"geometry":{"type":"Point","coordinates":[77.07842281,10.47935221]}},
{"type":"Feature","properties":{"crop":"Jackfruit","treeNo":"332","canonicalId":"jackfruit:332"},"geometry":{"type":"Point","coordinates":[77.07836781,10.47934514]}},
{"type":"Feature","properties":{"crop":"Jackfruit","treeNo":"333","canonicalId":"jackfruit:333"},"geometry":{"type":"Point","coordinates":[77.07831214,10.47934077]}},
{"type":"Feature","properties":{"crop":"Jackfruit","treeNo":"334","canonicalId":"jackfruit:334"},"geometry":{"type":"Point","coordinates":[77.07825608,10.47932999]}},
{"type":"Feature","properties":{"crop":"Jackfruit","treeNo":"335","canonicalId":"jackfruit:335"},"geometry":{"type":"Point","coordinates":[77.07819694,10.47931619]}},
{"type":"Feature","properties":{"crop":"Jackfruit","treeNo":"336","canonicalId":"jackfruit:336"},"geometry":{"type":"Point","coordinates":[77.07814873,10.47930434]}},
{"type":"Feature","properties":{"crop":"Jackfruit","treeNo":"337","canonicalId":"jackfruit:337"},"geometry":{"type":"Point","coordinates":[77.07809373,10.47929896]}},
{"type":"Feature","properties":{"crop":"Jackfruit","treeNo":"338","canonicalId":"jackfruit:338"},"geometry":{"type":"Point","coordinates":[77.07803487,10.47927738]}},
{"type":"Feature","properties":{"crop":"Jackfruit","treeNo":"339","canonicalId":"jackfruit:339"},"geometry":{"type":"Point","coordinates":[77.07797551,10.47928216]}},
{"type":"Feature","properties":{"crop":"Jackfruit","treeNo":"340","canonicalId":"jackfruit:340"},"geometry":{"type":"Point","coordinates":[77.07792152,10.47927339]}},
{"type":"Feature","properties":{"crop":"Jackfruit","treeNo":"341","canonicalId":"jackfruit:341"},"geometry":{"type":"Point","coordinates":[77.07785321,10.47926809]}},
{"type":"Feature","properties":{"crop":"Jackfruit","treeNo":"342","canonicalId":"jackfruit:342"},"geometry":{"type":"Point","coordinates":[77.07779749,10.47925629]}},
{"type":"Feature","properties":{"crop":"Jackfruit","treeNo":"343","canonicalId":"jackfruit:343"},"geometry":{"type":"Point","coordinates":[77.07774465,10.47926745]}},
{"type":"Feature","properties":{"crop":"Jackfruit","treeNo":"344","canonicalId":"jackfruit:344"},"geometry":{"type":"Point","coordinates":[77.07775042,10.47931302]}},
{"type":"Feature","properties":{"crop":"Jackfruit","treeNo":"345","canonicalId":"jackfruit:345"},"geometry":{"type":"Point","coordinates":[77.07781631,10.47931496]}},
{"type":"Feature","properties":{"crop":"Jackfruit","treeNo":"346","canonicalId":"jackfruit:346"},"geometry":{"type":"Point","coordinates":[77.07787644,10.47932234]}},
{"type":"Feature","properties":{"crop":"Jackfruit","treeNo":"347","canonicalId":"jackfruit:347"},"geometry":{"type":"Point","coordinates":[77.07792836,10.4793274]}},
{"type":"Feature","properties":{"crop":"Jackfruit","treeNo":"348","canonicalId":"jackfruit:348"},"geometry":{"type":"Point","coordinates":[77.07798372,10.4793365]}},
{"type":"Feature","properties":{"crop":"Jackfruit","treeNo":"349","canonicalId":"jackfruit:349"},"geometry":{"type":"Point","coordinates":[77.07804185,10.47935031]}},
{"type":"Feature","properties":{"crop":"Jackfruit","treeNo":"350","canonicalId":"jackfruit:350"},"geometry":{"type":"Point","coordinates":[77.0780972,10.47935873]}},
{"type":"Feature","properties":{"crop":"Jackfruit","treeNo":"351","canonicalId":"jackfruit:351"},"geometry":{"type":"Point","coordinates":[77.07813785,10.47936218]}},
{"type":"Feature","properties":{"crop":"Jackfruit","treeNo":"352","canonicalId":"jackfruit:352"},"geometry":{"type":"Point","coordinates":[77.07820245,10.47937561]}},
{"type":"Feature","properties":{"crop":"Jackfruit","treeNo":"353","canonicalId":"jackfruit:353"},"geometry":{"type":"Point","coordinates":[77.07825917,10.47938301]}},
{"type":"Feature","properties":{"crop":"Jackfruit","treeNo":"354","canonicalId":"jackfruit:354"},"geometry":{"type":"Point","coordinates":[77.07832236,10.4793897]}},
{"type":"Feature","properties":{"crop":"Jackfruit","treeNo":"355","canonicalId":"jackfruit:355"},"geometry":{"type":"Point","coordinates":[77.07837293,10.4793968]}},
{"type":"Feature","properties":{"crop":"Jackfruit","treeNo":"356","canonicalId":"jackfruit:356"},"geometry":{"type":"Point","coordinates":[77.07843958,10.47940988]}},
{"type":"Feature","properties":{"crop":"Jackfruit","treeNo":"357","canonicalId":"jackfruit:357"},"geometry":{"type":"Point","coordinates":[77.07848808,10.47941328]}},
{"type":"Feature","properties":{"crop":"Jackfruit","treeNo":"358","canonicalId":"jackfruit:358"},"geometry":{"type":"Point","coordinates":[77.07854489,10.47943554]}},
{"type":"Feature","properties":{"crop":"Jackfruit","treeNo":"359","canonicalId":"jackfruit:359"},"geometry":{"type":"Point","coordinates":[77.07860363,10.47943854]}},
{"type":"Feature","properties":{"crop":"Jackfruit","treeNo":"360","canonicalId":"jackfruit:360"},"geometry":{"type":"Point","coordinates":[77.07866477,10.47944388]}},
{"type":"Feature","properties":{"crop":"Jackfruit","treeNo":"361","canonicalId":"jackfruit:361"},"geometry":{"type":"Point","coordinates":[77.07871569,10.47945301]}},
{"type":"Feature","properties":{"crop":"Jackfruit","treeNo":"362","canonicalId":"jackfruit:362"},"geometry":{"type":"Point","coordinates":[77.07877449,10.47946546]}},
{"type":"Feature","properties":{"crop":"Jackfruit","treeNo":"363","canonicalId":"jackfruit:363"},"geometry":{"type":"Point","coordinates":[77.0788329,10.47947116]}},
{"type":"Feature","properties":{"crop":"Jackfruit","treeNo":"364","canonicalId":"jackfruit:364"},"geometry":{"type":"Point","coordinates":[77.07887939,10.47948201]}},
{"type":"Feature","properties":{"crop":"Jackfruit","treeNo":"365","canonicalId":"jackfruit:365"},"geometry":{"type":"Point","coordinates":[77.07893746,10.47948771]}},
{"type":"Feature","properties":{"crop":"Jackfruit","treeNo":"366","canonicalId":"jackfruit:366"},"geometry":{"type":"Point","coordinates":[77.07899318,10.47949951]}},
{"type":"Feature","properties":{"crop":"Jackfruit","treeNo":"367","canonicalId":"jackfruit:367"},"geometry":{"type":"Point","coordinates":[77.07906529,10.4795112]}},
{"type":"Feature","properties":{"crop":"Jackfruit","treeNo":"368","canonicalId":"jackfruit:368"},"geometry":{"type":"Point","coordinates":[77.07918902,10.47953505]}},
{"type":"Feature","properties":{"crop":"Jackfruit","treeNo":"369","canonicalId":"jackfruit:369"},"geometry":{"type":"Point","coordinates":[77.07917811,10.47958817]}},
{"type":"Feature","properties":{"crop":"Jackfruit","treeNo":"370","canonicalId":"jackfruit:370"},"geometry":{"type":"Point","coordinates":[77.07911382,10.47957169]}},
{"type":"Feature","properties":{"crop":"Jackfruit","treeNo":"371","canonicalId":"jackfruit:371"},"geometry":{"type":"Point","coordinates":[77.07906645,10.47958315]}},
{"type":"Feature","properties":{"crop":"Jackfruit","treeNo":"372","canonicalId":"jackfruit:372"},"geometry":{"type":"Point","coordinates":[77.07895459,10.47954706]}},
{"type":"Feature","properties":{"crop":"Jackfruit","treeNo":"373","canonicalId":"jackfruit:373"},"geometry":{"type":"Point","coordinates":[77.07889613,10.47953393]}},
{"type":"Feature","properties":{"crop":"Jackfruit","treeNo":"374","canonicalId":"jackfruit:374"},"geometry":{"type":"Point","coordinates":[77.0788374,10.47953228]}},
{"type":"Feature","properties":{"crop":"Jackfruit","treeNo":"375","canonicalId":"jackfruit:375"},"geometry":{"type":"Point","coordinates":[77.07877487,10.47952289]}},
{"type":"Feature","properties":{"crop":"Jackfruit","treeNo":"376","canonicalId":"jackfruit:376"},"geometry":{"type":"Point","coordinates":[77.07872123,10.47951615]}},
{"type":"Feature","properties":{"crop":"Jackfruit","treeNo":"377","canonicalId":"jackfruit:377"},"geometry":{"type":"Point","coordinates":[77.07866109,10.47950641]}},
{"type":"Feature","properties":{"crop":"Jackfruit","treeNo":"378","canonicalId":"jackfruit:378"},"geometry":{"type":"Point","coordinates":[77.07861119,10.47949829]}},
{"type":"Feature","properties":{"crop":"Jackfruit","treeNo":"379","canonicalId":"jackfruit:379"},"geometry":{"type":"Point","coordinates":[77.07855271,10.47948076]}},
{"type":"Feature","properties":{"crop":"Jackfruit","treeNo":"380","canonicalId":"jackfruit:380"},"geometry":{"type":"Point","coordinates":[77.0784977,10.47947335]}},
{"type":"Feature","properties":{"crop":"Jackfruit","treeNo":"381","canonicalId":"jackfruit:381"},"geometry":{"type":"Point","coordinates":[77.07843928,10.4794663]}},
{"type":"Feature","properties":{"crop":"Jackfruit","treeNo":"382","canonicalId":"jackfruit:382"},"geometry":{"type":"Point","coordinates":[77.0783863,10.47945685]}},
{"type":"Feature","properties":{"crop":"Jackfruit","treeNo":"383","canonicalId":"jackfruit:383"},"geometry":{"type":"Point","coordinates":[77.07832443,10.47944408]}},
{"type":"Feature","properties":{"crop":"Jackfruit","treeNo":"384","canonicalId":"jackfruit:384"},"geometry":{"type":"Point","coordinates":[77.07827832,10.47943999]}},
{"type":"Feature","properties":{"crop":"Jackfruit","treeNo":"385","canonicalId":"jackfruit:385"},"geometry":{"type":"Point","coordinates":[77.07821376,10.47943264]}},
{"type":"Feature","properties":{"crop":"Jackfruit","treeNo":"386","canonicalId":"jackfruit:386"},"geometry":{"type":"Point","coordinates":[77.07815496,10.47941951]}},
{"type":"Feature","properties":{"crop":"Jackfruit","treeNo":"387","canonicalId":"jackfruit:387"},"geometry":{"type":"Point","coordinates":[77.07810129,10.47940837]}},
{"type":"Feature","properties":{"crop":"Jackfruit","treeNo":"388","canonicalId":"jackfruit:388"},"geometry":{"type":"Point","coordinates":[77.07805177,10.47940565]}},
{"type":"Feature","properties":{"crop":"Jackfruit","treeNo":"389","canonicalId":"jackfruit:389"},"geometry":{"type":"Point","coordinates":[77.07799159,10.47939017]}},
{"type":"Feature","properties":{"crop":"Jackfruit","treeNo":"390","canonicalId":"jackfruit:390"},"geometry":{"type":"Point","coordinates":[77.07793694,10.47938512]}},
{"type":"Feature","properties":{"crop":"Jackfruit","treeNo":"391","canonicalId":"jackfruit:391"},"geometry":{"type":"Point","coordinates":[77.07788158,10.47937602]}},
{"type":"Feature","properties":{"crop":"Jackfruit","treeNo":"392","canonicalId":"jackfruit:392"},"geometry":{"type":"Point","coordinates":[77.07782009,10.47937]}},
{"type":"Feature","properties":{"crop":"Jackfruit","treeNo":"393","canonicalId":"jackfruit:393"},"geometry":{"type":"Point","coordinates":[77.07776686,10.47937339]}},
{"type":"Feature","properties":{"crop":"Jackfruit","treeNo":"394","canonicalId":"jackfruit:394"},"geometry":{"type":"Point","coordinates":[77.07777407,10.47943078]}},
{"type":"Feature","properties":{"crop":"Jackfruit","treeNo":"395","canonicalId":"jackfruit:395"},"geometry":{"type":"Point","coordinates":[77.07782519,10.47941727]}},
{"type":"Feature","properties":{"crop":"Jackfruit","treeNo":"396","canonicalId":"jackfruit:396"},"geometry":{"type":"Point","coordinates":[77.07788435,10.47943377]}},
{"type":"Feature","properties":{"crop":"Jackfruit","treeNo":"397","canonicalId":"jackfruit:397"},"geometry":{"type":"Point","coordinates":[77.07794074,10.47944354]}},
{"type":"Feature","properties":{"crop":"Jackfruit","treeNo":"398","canonicalId":"jackfruit:398"},"geometry":{"type":"Point","coordinates":[77.07800017,10.47944788]}},
{"type":"Feature","properties":{"crop":"Jackfruit","treeNo":"399","canonicalId":"jackfruit:399"},"geometry":{"type":"Point","coordinates":[77.07810034,10.47947122]}},
{"type":"Feature","properties":{"crop":"Jackfruit","treeNo":"400","canonicalId":"jackfruit:400"},"geometry":{"type":"Point","coordinates":[77.07816966,10.47947482]}},
{"type":"Feature","properties":{"crop":"Jackfruit","treeNo":"401","canonicalId":"jackfruit:401"},"geometry":{"type":"Point","coordinates":[77.07822059,10.4794853]}},
{"type":"Feature","properties":{"crop":"Jackfruit","treeNo":"402","canonicalId":"jackfruit:402"},"geometry":{"type":"Point","coordinates":[77.07827801,10.47949506]}},
{"type":"Feature","properties":{"crop":"Jackfruit","treeNo":"403","canonicalId":"jackfruit:403"},"geometry":{"type":"Point","coordinates":[77.07834023,10.47950985]}},
{"type":"Feature","properties":{"crop":"Jackfruit","treeNo":"404","canonicalId":"jackfruit:404"},"geometry":{"type":"Point","coordinates":[77.07839242,10.47950445]}},
{"type":"Feature","properties":{"crop":"Jackfruit","treeNo":"405","canonicalId":"jackfruit:405"},"geometry":{"type":"Point","coordinates":[77.07844339,10.47952033]}},
{"type":"Feature","properties":{"crop":"Jackfruit","treeNo":"406","canonicalId":"jackfruit:406"},"geometry":{"type":"Point","coordinates":[77.07850829,10.47952632]}},
{"type":"Feature","properties":{"crop":"Jackfruit","treeNo":"407","canonicalId":"jackfruit:407"},"geometry":{"type":"Point","coordinates":[77.07856913,10.47953741]}},
{"type":"Feature","properties":{"crop":"Jackfruit","treeNo":"408","canonicalId":"jackfruit:408"},"geometry":{"type":"Point","coordinates":[77.078618,10.47954689]}},
{"type":"Feature","properties":{"crop":"Jackfruit","treeNo":"409","canonicalId":"jackfruit:409"},"geometry":{"type":"Point","coordinates":[77.07868193,10.47955999]}},
{"type":"Feature","properties":{"crop":"Jackfruit","treeNo":"410","canonicalId":"jackfruit:410"},"geometry":{"type":"Point","coordinates":[77.07873011,10.47956778]}},
{"type":"Feature","properties":{"crop":"Jackfruit","treeNo":"411","canonicalId":"jackfruit:411"},"geometry":{"type":"Point","coordinates":[77.07878372,10.47957047]}},
{"type":"Feature","properties":{"crop":"Jackfruit","treeNo":"412","canonicalId":"jackfruit:412"},"geometry":{"type":"Point","coordinates":[77.07883808,10.47958363]}},
{"type":"Feature","properties":{"crop":"Jackfruit","treeNo":"413","canonicalId":"jackfruit:413"},"geometry":{"type":"Point","coordinates":[77.07889414,10.47959442]}},
{"type":"Feature","properties":{"crop":"Jackfruit","treeNo":"414","canonicalId":"jackfruit:414"},"geometry":{"type":"Point","coordinates":[77.0789539,10.47959842]}},
{"type":"Feature","properties":{"crop":"Jackfruit","treeNo":"415","canonicalId":"jackfruit:415"},"geometry":{"type":"Point","coordinates":[77.07890989,10.4796531]}},
{"type":"Feature","properties":{"crop":"Jackfruit","treeNo":"416","canonicalId":"jackfruit:416"},"geometry":{"type":"Point","coordinates":[77.07885315,10.47964131]}},
{"type":"Feature","properties":{"crop":"Jackfruit","treeNo":"417","canonicalId":"jackfruit:417"},"geometry":{"type":"Point","coordinates":[77.078794,10.47962784]}},
{"type":"Feature","properties":{"crop":"Jackfruit","treeNo":"418","canonicalId":"jackfruit:418"},"geometry":{"type":"Point","coordinates":[77.07874105,10.47962143]}},
{"type":"Feature","properties":{"crop":"Jackfruit","treeNo":"419","canonicalId":"jackfruit:419"},"geometry":{"type":"Point","coordinates":[77.07869085,10.47961804]}},
{"type":"Feature","properties":{"crop":"Jackfruit","treeNo":"420","canonicalId":"jackfruit:420"},"geometry":{"type":"Point","coordinates":[77.07862892,10.47959716]}},
{"type":"Feature","properties":{"crop":"Jackfruit","treeNo":"421","canonicalId":"jackfruit:421"},"geometry":{"type":"Point","coordinates":[77.07856812,10.47959114]}},
{"type":"Feature","properties":{"crop":"Jackfruit","treeNo":"422","canonicalId":"jackfruit:422"},"geometry":{"type":"Point","coordinates":[77.07851414,10.47958507]}},
{"type":"Feature","properties":{"crop":"Jackfruit","treeNo":"423","canonicalId":"jackfruit:423"},"geometry":{"type":"Point","coordinates":[77.07846426,10.47957864]}},
{"type":"Feature","properties":{"crop":"Jackfruit","treeNo":"424","canonicalId":"jackfruit:424"},"geometry":{"type":"Point","coordinates":[77.07840618,10.47957091]}},
{"type":"Feature","properties":{"crop":"Jackfruit","treeNo":"425","canonicalId":"jackfruit:425"},"geometry":{"type":"Point","coordinates":[77.07834669,10.47955644]}},
{"type":"Feature","properties":{"crop":"Jackfruit","treeNo":"426","canonicalId":"jackfruit:426"},"geometry":{"type":"Point","coordinates":[77.07829203,10.47955071]}},
{"type":"Feature","properties":{"crop":"Jackfruit","treeNo":"427","canonicalId":"jackfruit:427"},"geometry":{"type":"Point","coordinates":[77.07823529,10.4795396]}},
{"type":"Feature","properties":{"crop":"Jackfruit","treeNo":"428","canonicalId":"jackfruit:428"},"geometry":{"type":"Point","coordinates":[77.0781772,10.47953052]}},
{"type":"Feature","properties":{"crop":"Jackfruit","treeNo":"429","canonicalId":"jackfruit:429"},"geometry":{"type":"Point","coordinates":[77.07812183,10.47952007]}},
{"type":"Feature","properties":{"crop":"Jackfruit","treeNo":"430","canonicalId":"jackfruit:430"},"geometry":{"type":"Point","coordinates":[77.07806448,10.47951909]}},
{"type":"Feature","properties":{"crop":"Jackfruit","treeNo":"431","canonicalId":"jackfruit:431"},"geometry":{"type":"Point","coordinates":[77.07800157,10.47950463]}},
{"type":"Feature","properties":{"crop":"Jackfruit","treeNo":"432","canonicalId":"jackfruit:432"},"geometry":{"type":"Point","coordinates":[77.07794825,10.47949485]}},
{"type":"Feature","properties":{"crop":"Jackfruit","treeNo":"433","canonicalId":"jackfruit:433"},"geometry":{"type":"Point","coordinates":[77.07789157,10.47949251]}},
{"type":"Feature","properties":{"crop":"Jackfruit","treeNo":"434","canonicalId":"jackfruit:434"},"geometry":{"type":"Point","coordinates":[77.07779255,10.47948843]}},
{"type":"Feature","properties":{"crop":"Jackfruit","treeNo":"435","canonicalId":"jackfruit:435"},"geometry":{"type":"Point","coordinates":[77.07750303,10.47958357]}},
{"type":"Feature","properties":{"crop":"Jackfruit","treeNo":"436","canonicalId":"jackfruit:436"},"geometry":{"type":"Point","coordinates":[77.07755659,10.47957815]}},
{"type":"Feature","properties":{"crop":"Jackfruit","treeNo":"437","canonicalId":"jackfruit:437"},"geometry":{"type":"Point","coordinates":[77.07761731,10.47957201]}},
{"type":"Feature","properties":{"crop":"Jackfruit","treeNo":"438","canonicalId":"jackfruit:438"},"geometry":{"type":"Point","coordinates":[77.07768896,10.47956681]}},
{"type":"Feature","properties":{"crop":"Jackfruit","treeNo":"439","canonicalId":"jackfruit:439"},"geometry":{"type":"Point","coordinates":[77.07784354,10.47953337]}},
{"type":"Feature","properties":{"crop":"Jackfruit","treeNo":"440","canonicalId":"jackfruit:440"},"geometry":{"type":"Point","coordinates":[77.07796622,10.47955318]}},
{"type":"Feature","properties":{"crop":"Jackfruit","treeNo":"441","canonicalId":"jackfruit:441"},"geometry":{"type":"Point","coordinates":[77.07800789,10.4795573]}},
{"type":"Feature","properties":{"crop":"Jackfruit","treeNo":"442","canonicalId":"jackfruit:442"},"geometry":{"type":"Point","coordinates":[77.07806808,10.47957278]}},
{"type":"Feature","properties":{"crop":"Jackfruit","treeNo":"443","canonicalId":"jackfruit:443"},"geometry":{"type":"Point","coordinates":[77.07812273,10.47957851]}},
{"type":"Feature","properties":{"crop":"Jackfruit","treeNo":"444","canonicalId":"jackfruit:444"},"geometry":{"type":"Point","coordinates":[77.07818766,10.47958923]}},
{"type":"Feature","properties":{"crop":"Jackfruit","treeNo":"445","canonicalId":"jackfruit:445"},"geometry":{"type":"Point","coordinates":[77.07824678,10.47959898]}},
{"type":"Feature","properties":{"crop":"Jackfruit","treeNo":"446","canonicalId":"jackfruit:446"},"geometry":{"type":"Point","coordinates":[77.07829705,10.47961183]}},
{"type":"Feature","properties":{"crop":"Jackfruit","treeNo":"447","canonicalId":"jackfruit:447"},"geometry":{"type":"Point","coordinates":[77.07835267,10.47960843]}},
{"type":"Feature","properties":{"crop":"Jackfruit","treeNo":"448","canonicalId":"jackfruit:448"},"geometry":{"type":"Point","coordinates":[77.07841011,10.47962224]}},
{"type":"Feature","properties":{"crop":"Jackfruit","treeNo":"449","canonicalId":"jackfruit:449"},"geometry":{"type":"Point","coordinates":[77.07846925,10.47963469]}},
{"type":"Feature","properties":{"crop":"Jackfruit","treeNo":"450","canonicalId":"jackfruit:450"},"geometry":{"type":"Point","coordinates":[77.07851982,10.47964315]}},
{"type":"Feature","properties":{"crop":"Jackfruit","treeNo":"451","canonicalId":"jackfruit:451"},"geometry":{"type":"Point","coordinates":[77.07857188,10.47966848]}},
{"type":"Feature","properties":{"crop":"Jackfruit","treeNo":"452","canonicalId":"jackfruit:452"},"geometry":{"type":"Point","coordinates":[77.07862918,10.47966203]}},
{"type":"Feature","properties":{"crop":"Jackfruit","treeNo":"453","canonicalId":"jackfruit:453"},"geometry":{"type":"Point","coordinates":[77.07868624,10.47966909]}},
{"type":"Feature","properties":{"crop":"Jackfruit","treeNo":"454","canonicalId":"jackfruit:454"},"geometry":{"type":"Point","coordinates":[77.07874471,10.47968357]}},
{"type":"Feature","properties":{"crop":"Jackfruit","treeNo":"455","canonicalId":"jackfruit:455"},"geometry":{"type":"Point","coordinates":[77.07880378,10.47968589]}},
{"type":"Feature","properties":{"crop":"Jackfruit","treeNo":"456","canonicalId":"jackfruit:456"},"geometry":{"type":"Point","coordinates":[77.07887499,10.479691]}},
{"type":"Feature","properties":{"crop":"Jackfruit","treeNo":"457","canonicalId":"jackfruit:457"},"geometry":{"type":"Point","coordinates":[77.07918856,10.47969723]}},
{"type":"Feature","properties":{"crop":"Jackfruit","treeNo":"458","canonicalId":"jackfruit:458"},"geometry":{"type":"Point","coordinates":[77.07923957,10.47977021]}},
{"type":"Feature","properties":{"crop":"Jackfruit","treeNo":"459","canonicalId":"jackfruit:459"},"geometry":{"type":"Point","coordinates":[77.07919337,10.47975226]}},
{"type":"Feature","properties":{"crop":"Jackfruit","treeNo":"460","canonicalId":"jackfruit:460"},"geometry":{"type":"Point","coordinates":[77.07891286,10.47971389]}},
{"type":"Feature","properties":{"crop":"Jackfruit","treeNo":"461","canonicalId":"jackfruit:461"},"geometry":{"type":"Point","coordinates":[77.07886375,10.47972046]}},
{"type":"Feature","properties":{"crop":"Jackfruit","treeNo":"462","canonicalId":"jackfruit:462"},"geometry":{"type":"Point","coordinates":[77.07879359,10.47971873]}},
{"type":"Feature","properties":{"crop":"Jackfruit","treeNo":"463","canonicalId":"jackfruit:463"},"geometry":{"type":"Point","coordinates":[77.07875491,10.47972979]}},
{"type":"Feature","properties":{"crop":"Jackfruit","treeNo":"464","canonicalId":"jackfruit:464"},"geometry":{"type":"Point","coordinates":[77.07870283,10.47972625]}},
{"type":"Feature","properties":{"crop":"Jackfruit","treeNo":"465","canonicalId":"jackfruit:465"},"geometry":{"type":"Point","coordinates":[77.07864248,10.47971076]}},
{"type":"Feature","properties":{"crop":"Jackfruit","treeNo":"466","canonicalId":"jackfruit:466"},"geometry":{"type":"Point","coordinates":[77.07858446,10.47971182]}},
{"type":"Feature","properties":{"crop":"Jackfruit","treeNo":"467","canonicalId":"jackfruit:467"},"geometry":{"type":"Point","coordinates":[77.07854206,10.47970162]}},
{"type":"Feature","properties":{"crop":"Jackfruit","treeNo":"468","canonicalId":"jackfruit:468"},"geometry":{"type":"Point","coordinates":[77.078487,10.47968711]}},
{"type":"Feature","properties":{"crop":"Jackfruit","treeNo":"469","canonicalId":"jackfruit:469"},"geometry":{"type":"Point","coordinates":[77.07836848,10.47967606]}},
{"type":"Feature","properties":{"crop":"Jackfruit","treeNo":"470","canonicalId":"jackfruit:470"},"geometry":{"type":"Point","coordinates":[77.07830147,10.47965995]}},
{"type":"Feature","properties":{"crop":"Jackfruit","treeNo":"471","canonicalId":"jackfruit:471"},"geometry":{"type":"Point","coordinates":[77.07825019,10.47964913]}},
{"type":"Feature","properties":{"crop":"Jackfruit","treeNo":"472","canonicalId":"jackfruit:472"},"geometry":{"type":"Point","coordinates":[77.07819484,10.47964138]}},
{"type":"Feature","properties":{"crop":"Jackfruit","treeNo":"473","canonicalId":"jackfruit:473"},"geometry":{"type":"Point","coordinates":[77.07813778,10.47963331]}},
{"type":"Feature","properties":{"crop":"Jackfruit","treeNo":"474","canonicalId":"jackfruit:474"},"geometry":{"type":"Point","coordinates":[77.07807967,10.4796222]}},
{"type":"Feature","properties":{"crop":"Jackfruit","treeNo":"475","canonicalId":"jackfruit:475"},"geometry":{"type":"Point","coordinates":[77.07802091,10.47961482]}},
{"type":"Feature","properties":{"crop":"Jackfruit","treeNo":"476","canonicalId":"jackfruit:476"},"geometry":{"type":"Point","coordinates":[77.07796867,10.47961313]}},
{"type":"Feature","properties":{"crop":"Jackfruit","treeNo":"477","canonicalId":"jackfruit:477"},"geometry":{"type":"Point","coordinates":[77.07790304,10.47959937]}},
{"type":"Feature","properties":{"crop":"Jackfruit","treeNo":"478","canonicalId":"jackfruit:478"},"geometry":{"type":"Point","coordinates":[77.07784148,10.47958322]}},
{"type":"Feature","properties":{"crop":"Jackfruit","treeNo":"479","canonicalId":"jackfruit:479"},"geometry":{"type":"Point","coordinates":[77.07779407,10.47958826]}},
{"type":"Feature","properties":{"crop":"Jackfruit","treeNo":"480","canonicalId":"jackfruit:480"},"geometry":{"type":"Point","coordinates":[77.07773862,10.47961649]}},
{"type":"Feature","properties":{"crop":"Jackfruit","treeNo":"481","canonicalId":"jackfruit:481"},"geometry":{"type":"Point","coordinates":[77.07767262,10.47962571]}},
{"type":"Feature","properties":{"crop":"Jackfruit","treeNo":"482","canonicalId":"jackfruit:482"},"geometry":{"type":"Point","coordinates":[77.07762926,10.47962413]}},
{"type":"Feature","properties":{"crop":"Jackfruit","treeNo":"483","canonicalId":"jackfruit:483"},"geometry":{"type":"Point","coordinates":[77.07756121,10.47963201]}},
{"type":"Feature","properties":{"crop":"Jackfruit","treeNo":"484","canonicalId":"jackfruit:484"},"geometry":{"type":"Point","coordinates":[77.07750901,10.47963607]}},
{"type":"Feature","properties":{"crop":"Jackfruit","treeNo":"485","canonicalId":"jackfruit:485"},"geometry":{"type":"Point","coordinates":[77.0775172,10.47968703]}},
{"type":"Feature","properties":{"crop":"Jackfruit","treeNo":"486","canonicalId":"jackfruit:486"},"geometry":{"type":"Point","coordinates":[77.07758206,10.47968762]}},
{"type":"Feature","properties":{"crop":"Jackfruit","treeNo":"487","canonicalId":"jackfruit:487"},"geometry":{"type":"Point","coordinates":[77.07764105,10.4796771]}},
{"type":"Feature","properties":{"crop":"Jackfruit","treeNo":"488","canonicalId":"jackfruit:488"},"geometry":{"type":"Point","coordinates":[77.07769357,10.47967034]}},
{"type":"Feature","properties":{"crop":"Jackfruit","treeNo":"489","canonicalId":"jackfruit:489"},"geometry":{"type":"Point","coordinates":[77.07774894,10.47966727]}},
{"type":"Feature","properties":{"crop":"Jackfruit","treeNo":"490","canonicalId":"jackfruit:490"},"geometry":{"type":"Point","coordinates":[77.0778037,10.47963684]}},
{"type":"Feature","properties":{"crop":"Jackfruit","treeNo":"491","canonicalId":"jackfruit:491"},"geometry":{"type":"Point","coordinates":[77.07786451,10.47964523]}},
{"type":"Feature","properties":{"crop":"Jackfruit","treeNo":"492","canonicalId":"jackfruit:492"},"geometry":{"type":"Point","coordinates":[77.07791027,10.47964764]}},
{"type":"Feature","properties":{"crop":"Jackfruit","treeNo":"493","canonicalId":"jackfruit:493"},"geometry":{"type":"Point","coordinates":[77.07797455,10.47966276]}},
{"type":"Feature","properties":{"crop":"Jackfruit","treeNo":"494","canonicalId":"jackfruit:494"},"geometry":{"type":"Point","coordinates":[77.07808865,10.4796762]}},
{"type":"Feature","properties":{"crop":"Jackfruit","treeNo":"495","canonicalId":"jackfruit:495"},"geometry":{"type":"Point","coordinates":[77.07817612,10.47968779]}},
{"type":"Feature","properties":{"crop":"Jackfruit","treeNo":"496","canonicalId":"jackfruit:496"},"geometry":{"type":"Point","coordinates":[77.0782486,10.47970556]}},
{"type":"Feature","properties":{"crop":"Jackfruit","treeNo":"497","canonicalId":"jackfruit:497"},"geometry":{"type":"Point","coordinates":[77.07831005,10.47970651]}},
{"type":"Feature","properties":{"crop":"Jackfruit","treeNo":"498","canonicalId":"jackfruit:498"},"geometry":{"type":"Point","coordinates":[77.07843142,10.47973444]}},
{"type":"Feature","properties":{"crop":"Jackfruit","treeNo":"499","canonicalId":"jackfruit:499"},"geometry":{"type":"Point","coordinates":[77.07848746,10.47974184]}},
{"type":"Feature","properties":{"crop":"Jackfruit","treeNo":"500","canonicalId":"jackfruit:500"},"geometry":{"type":"Point","coordinates":[77.07853876,10.47975637]}},
{"type":"Feature","properties":{"crop":"Jackfruit","treeNo":"501","canonicalId":"jackfruit:501"},"geometry":{"type":"Point","coordinates":[77.07859241,10.47976548]}},
{"type":"Feature","properties":{"crop":"Jackfruit","treeNo":"502","canonicalId":"jackfruit:502"},"geometry":{"type":"Point","coordinates":[77.07865249,10.47976576]}},
{"type":"Feature","properties":{"crop":"Jackfruit","treeNo":"503","canonicalId":"jackfruit:503"},"geometry":{"type":"Point","coordinates":[77.07870785,10.47977486]}},
{"type":"Feature","properties":{"crop":"Jackfruit","treeNo":"504","canonicalId":"jackfruit:504"},"geometry":{"type":"Point","coordinates":[77.07876084,10.47978634]}},
{"type":"Feature","properties":{"crop":"Jackfruit","treeNo":"505","canonicalId":"jackfruit:505"},"geometry":{"type":"Point","coordinates":[77.07880095,10.4797604]}},
{"type":"Feature","properties":{"crop":"Jackfruit","treeNo":"506","canonicalId":"jackfruit:506"},"geometry":{"type":"Point","coordinates":[77.07885585,10.47975261]}},
{"type":"Feature","properties":{"crop":"Jackfruit","treeNo":"507","canonicalId":"jackfruit:507"},"geometry":{"type":"Point","coordinates":[77.07892589,10.47976195]}},
{"type":"Feature","properties":{"crop":"Jackfruit","treeNo":"508","canonicalId":"jackfruit:508"},"geometry":{"type":"Point","coordinates":[77.07897371,10.47976536]}},
{"type":"Feature","properties":{"crop":"Jackfruit","treeNo":"509","canonicalId":"jackfruit:509"},"geometry":{"type":"Point","coordinates":[77.07903418,10.47977307]}},
{"type":"Feature","properties":{"crop":"Jackfruit","treeNo":"510","canonicalId":"jackfruit:510"},"geometry":{"type":"Point","coordinates":[77.07914868,10.47979529]}},
{"type":"Feature","properties":{"crop":"Jackfruit","treeNo":"511","canonicalId":"jackfruit:511"},"geometry":{"type":"Point","coordinates":[77.07927326,10.47989415]}},
{"type":"Feature","properties":{"crop":"Jackfruit","treeNo":"512","canonicalId":"jackfruit:512"},"geometry":{"type":"Point","coordinates":[77.07920779,10.47985437]}},
{"type":"Feature","properties":{"crop":"Jackfruit","treeNo":"513","canonicalId":"jackfruit:513"},"geometry":{"type":"Point","coordinates":[77.07909811,10.47983819]}},
{"type":"Feature","properties":{"crop":"Jackfruit","treeNo":"514","canonicalId":"jackfruit:514"},"geometry":{"type":"Point","coordinates":[77.0790452,10.47983888]}},
{"type":"Feature","properties":{"crop":"Jackfruit","treeNo":"515","canonicalId":"jackfruit:515"},"geometry":{"type":"Point","coordinates":[77.07888184,10.47980954]}},
{"type":"Feature","properties":{"crop":"Jackfruit","treeNo":"516","canonicalId":"jackfruit:516"},"geometry":{"type":"Point","coordinates":[77.07877416,10.4798393]}},
{"type":"Feature","properties":{"crop":"Jackfruit","treeNo":"517","canonicalId":"jackfruit:517"},"geometry":{"type":"Point","coordinates":[77.07871504,10.47982887]}},
{"type":"Feature","properties":{"crop":"Jackfruit","treeNo":"518","canonicalId":"jackfruit:518"},"geometry":{"type":"Point","coordinates":[77.07865902,10.47982383]}},
{"type":"Feature","properties":{"crop":"Jackfruit","treeNo":"519","canonicalId":"jackfruit:519"},"geometry":{"type":"Point","coordinates":[77.0786054,10.47981979]}},
{"type":"Feature","properties":{"crop":"Jackfruit","treeNo":"520","canonicalId":"jackfruit:520"},"geometry":{"type":"Point","coordinates":[77.07854256,10.47981446]}},
{"type":"Feature","properties":{"crop":"Jackfruit","treeNo":"521","canonicalId":"jackfruit:521"},"geometry":{"type":"Point","coordinates":[77.07848957,10.4798023]}},
{"type":"Feature","properties":{"crop":"Jackfruit","treeNo":"522","canonicalId":"jackfruit:522"},"geometry":{"type":"Point","coordinates":[77.07843824,10.47978473]}},
{"type":"Feature","properties":{"crop":"Jackfruit","treeNo":"523","canonicalId":"jackfruit:523"},"geometry":{"type":"Point","coordinates":[77.07838388,10.47977191]}},
{"type":"Feature","properties":{"crop":"Jackfruit","treeNo":"524","canonicalId":"jackfruit:524"},"geometry":{"type":"Point","coordinates":[77.07832515,10.47976892]}},
{"type":"Feature","properties":{"crop":"Jackfruit","treeNo":"525","canonicalId":"jackfruit:525"},"geometry":{"type":"Point","coordinates":[77.07826537,10.47976289]}},
{"type":"Feature","properties":{"crop":"Jackfruit","treeNo":"526","canonicalId":"jackfruit:526"},"geometry":{"type":"Point","coordinates":[77.07820728,10.47975415]}},
{"type":"Feature","properties":{"crop":"Jackfruit","treeNo":"527","canonicalId":"jackfruit:527"},"geometry":{"type":"Point","coordinates":[77.07815054,10.47974269]}},
{"type":"Feature","properties":{"crop":"Jackfruit","treeNo":"528","canonicalId":"jackfruit:528"},"geometry":{"type":"Point","coordinates":[77.07809588,10.47973663]}},
{"type":"Feature","properties":{"crop":"Jackfruit","treeNo":"529","canonicalId":"jackfruit:529"},"geometry":{"type":"Point","coordinates":[77.07804152,10.47972381]}},
{"type":"Feature","properties":{"crop":"Jackfruit","treeNo":"530","canonicalId":"jackfruit:530"},"geometry":{"type":"Point","coordinates":[77.0779838,10.47971878]}},
{"type":"Feature","properties":{"crop":"Jackfruit","treeNo":"531","canonicalId":"jackfruit:531"},"geometry":{"type":"Point","coordinates":[77.07792396,10.47970329]}},
{"type":"Feature","properties":{"crop":"Jackfruit","treeNo":"532","canonicalId":"jackfruit:532"},"geometry":{"type":"Point","coordinates":[77.0778727,10.47969552]}},
{"type":"Feature","properties":{"crop":"Jackfruit","treeNo":"533","canonicalId":"jackfruit:533"},"geometry":{"type":"Point","coordinates":[77.07781733,10.47968507]}},
{"type":"Feature","properties":{"crop":"Jackfruit","treeNo":"534","canonicalId":"jackfruit:534"},"geometry":{"type":"Point","coordinates":[77.0775115,10.47974011]}},
{"type":"Feature","properties":{"crop":"Jackfruit","treeNo":"535","canonicalId":"jackfruit:535"},"geometry":{"type":"Point","coordinates":[77.0775801,10.47973831]}},
{"type":"Feature","properties":{"crop":"Jackfruit","treeNo":"536","canonicalId":"jackfruit:536"},"geometry":{"type":"Point","coordinates":[77.07764497,10.47974025]}},
{"type":"Feature","properties":{"crop":"Jackfruit","treeNo":"537","canonicalId":"jackfruit:537"},"geometry":{"type":"Point","coordinates":[77.07775376,10.47972434]}},
{"type":"Feature","properties":{"crop":"Jackfruit","treeNo":"538","canonicalId":"jackfruit:538"},"geometry":{"type":"Point","coordinates":[77.07781666,10.47973812]}},
{"type":"Feature","properties":{"crop":"Jackfruit","treeNo":"539","canonicalId":"jackfruit:539"},"geometry":{"type":"Point","coordinates":[77.07787482,10.47975767]}},
{"type":"Feature","properties":{"crop":"Jackfruit","treeNo":"540","canonicalId":"jackfruit:540"},"geometry":{"type":"Point","coordinates":[77.07792299,10.47976377]}},
{"type":"Feature","properties":{"crop":"Jackfruit","treeNo":"541","canonicalId":"jackfruit:541"},"geometry":{"type":"Point","coordinates":[77.07798787,10.47976605]}},
{"type":"Feature","properties":{"crop":"Jackfruit","treeNo":"542","canonicalId":"jackfruit:542"},"geometry":{"type":"Point","coordinates":[77.07804837,10.47977816]}},
{"type":"Feature","properties":{"crop":"Jackfruit","treeNo":"543","canonicalId":"jackfruit:543"},"geometry":{"type":"Point","coordinates":[77.07815025,10.47980182]}},
{"type":"Feature","properties":{"crop":"Jackfruit","treeNo":"544","canonicalId":"jackfruit:544"},"geometry":{"type":"Point","coordinates":[77.07821925,10.47980779]}},
{"type":"Feature","properties":{"crop":"Jackfruit","treeNo":"545","canonicalId":"jackfruit:545"},"geometry":{"type":"Point","coordinates":[77.0782729,10.47981723]}},
{"type":"Feature","properties":{"crop":"Jackfruit","treeNo":"546","canonicalId":"jackfruit:546"},"geometry":{"type":"Point","coordinates":[77.07833954,10.47982896]}},
{"type":"Feature","properties":{"crop":"Jackfruit","treeNo":"547","canonicalId":"jackfruit:547"},"geometry":{"type":"Point","coordinates":[77.07838385,10.47981752]}},
{"type":"Feature","properties":{"crop":"Jackfruit","treeNo":"548","canonicalId":"jackfruit:548"},"geometry":{"type":"Point","coordinates":[77.07844311,10.47984889]}},
{"type":"Feature","properties":{"crop":"Jackfruit","treeNo":"549","canonicalId":"jackfruit:549"},"geometry":{"type":"Point","coordinates":[77.07850736,10.47985962]}},
{"type":"Feature","properties":{"crop":"Jackfruit","treeNo":"550","canonicalId":"jackfruit:550"},"geometry":{"type":"Point","coordinates":[77.07856233,10.4798623]}},
{"type":"Feature","properties":{"crop":"Jackfruit","treeNo":"551","canonicalId":"jackfruit:551"},"geometry":{"type":"Point","coordinates":[77.07834218,10.47986645]}},
{"type":"Feature","properties":{"crop":"Jackfruit","treeNo":"552","canonicalId":"jackfruit:552"},"geometry":{"type":"Point","coordinates":[77.07827562,10.4798662]}},
{"type":"Feature","properties":{"crop":"Jackfruit","treeNo":"553","canonicalId":"jackfruit:553"},"geometry":{"type":"Point","coordinates":[77.0781653,10.4798578]}},
{"type":"Feature","properties":{"crop":"Jackfruit","treeNo":"554","canonicalId":"jackfruit:554"},"geometry":{"type":"Point","coordinates":[77.0781069,10.47985345]}},
{"type":"Feature","properties":{"crop":"Jackfruit","treeNo":"555","canonicalId":"jackfruit:555"},"geometry":{"type":"Point","coordinates":[77.0780409,10.4798353]}},
{"type":"Feature","properties":{"crop":"Jackfruit","treeNo":"556","canonicalId":"jackfruit:556"},"geometry":{"type":"Point","coordinates":[77.07799584,10.47983594]}},
{"type":"Feature","properties":{"crop":"Jackfruit","treeNo":"557","canonicalId":"jackfruit:557"},"geometry":{"type":"Point","coordinates":[77.07793873,10.47981942]}},
{"type":"Feature","properties":{"crop":"Jackfruit","treeNo":"558","canonicalId":"jackfruit:558"},"geometry":{"type":"Point","coordinates":[77.07788232,10.47980762]}},
{"type":"Feature","properties":{"crop":"Jackfruit","treeNo":"559","canonicalId":"jackfruit:559"},"geometry":{"type":"Point","coordinates":[77.07782248,10.47979146]}},
{"type":"Feature","properties":{"crop":"Jackfruit","treeNo":"560","canonicalId":"jackfruit:560"},"geometry":{"type":"Point","coordinates":[77.07775925,10.47978038]}},
{"type":"Feature","properties":{"crop":"Jackfruit","treeNo":"561","canonicalId":"jackfruit:561"},"geometry":{"type":"Point","coordinates":[77.0776494,10.47979022]}},
{"type":"Feature","properties":{"crop":"Jackfruit","treeNo":"562","canonicalId":"jackfruit:562"},"geometry":{"type":"Point","coordinates":[77.07759447,10.47979396]}},
{"type":"Feature","properties":{"crop":"Jackfruit","treeNo":"563","canonicalId":"jackfruit:563"},"geometry":{"type":"Point","coordinates":[77.07753407,10.4797974]}},
{"type":"Feature","properties":{"crop":"Jackfruit","treeNo":"564","canonicalId":"jackfruit:564"},"geometry":{"type":"Point","coordinates":[77.07754439,10.47986051]}},
{"type":"Feature","properties":{"crop":"Jackfruit","treeNo":"565","canonicalId":"jackfruit:565"},"geometry":{"type":"Point","coordinates":[77.07759554,10.47985342]}},
{"type":"Feature","properties":{"crop":"Jackfruit","treeNo":"566","canonicalId":"jackfruit:566"},"geometry":{"type":"Point","coordinates":[77.07766003,10.4798486]}},
{"type":"Feature","properties":{"crop":"Jackfruit","treeNo":"567","canonicalId":"jackfruit:567"},"geometry":{"type":"Point","coordinates":[77.07771115,10.47983678]}},
{"type":"Feature","properties":{"crop":"Jackfruit","treeNo":"568","canonicalId":"jackfruit:568"},"geometry":{"type":"Point","coordinates":[77.07776848,10.47983404]}},
{"type":"Feature","properties":{"crop":"Jackfruit","treeNo":"569","canonicalId":"jackfruit:569"},"geometry":{"type":"Point","coordinates":[77.07782525,10.47984887]}},
{"type":"Feature","properties":{"crop":"Jackfruit","treeNo":"570","canonicalId":"jackfruit:570"},"geometry":{"type":"Point","coordinates":[77.07794455,10.47987377]}},
{"type":"Feature","properties":{"crop":"Jackfruit","treeNo":"571","canonicalId":"jackfruit:571"},"geometry":{"type":"Point","coordinates":[77.07789251,10.47990148]}},
{"type":"Feature","properties":{"crop":"Jackfruit","treeNo":"572","canonicalId":"jackfruit:572"},"geometry":{"type":"Point","coordinates":[77.07784446,10.47991429]}},
{"type":"Feature","properties":{"crop":"Jackfruit","treeNo":"573","canonicalId":"jackfruit:573"},"geometry":{"type":"Point","coordinates":[77.07777535,10.47989042]}},
{"type":"Feature","properties":{"crop":"Jackfruit","treeNo":"574","canonicalId":"jackfruit:574"},"geometry":{"type":"Point","coordinates":[77.07771121,10.47989591]}},
{"type":"Feature","properties":{"crop":"Jackfruit","treeNo":"575","canonicalId":"jackfruit:575"},"geometry":{"type":"Point","coordinates":[77.07765691,10.47989288]}},
{"type":"Feature","properties":{"crop":"Jackfruit","treeNo":"576","canonicalId":"jackfruit:576"},"geometry":{"type":"Point","coordinates":[77.07760952,10.4799013]}},
{"type":"Feature","properties":{"crop":"Jackfruit","treeNo":"577","canonicalId":"jackfruit:577"},"geometry":{"type":"Point","coordinates":[77.07755493,10.47990537]}},
{"type":"Feature","properties":{"crop":"Jackfruit","treeNo":"578","canonicalId":"jackfruit:578"},"geometry":{"type":"Point","coordinates":[77.07755666,10.47996009]}},
{"type":"Feature","properties":{"crop":"Jackfruit","treeNo":"579","canonicalId":"jackfruit:579"},"geometry":{"type":"Point","coordinates":[77.07761092,10.47995771]}},
{"type":"Feature","properties":{"crop":"Jackfruit","treeNo":"580","canonicalId":"jackfruit:580"},"geometry":{"type":"Point","coordinates":[77.07766827,10.47995768]}},
{"type":"Feature","properties":{"crop":"Jackfruit","treeNo":"581","canonicalId":"jackfruit:581"},"geometry":{"type":"Point","coordinates":[77.07772048,10.47995564]}},
{"type":"Feature","properties":{"crop":"Jackfruit","treeNo":"582","canonicalId":"jackfruit:582"},"geometry":{"type":"Point","coordinates":[77.07778287,10.47994375]}}
]
}
