{"type":"FeatureCollection","features":[{"type":"Feature","properties":{"crop":"Jackfruit","tree_no":"1"},"geometry":{"type":"Point","coordinates":[77.0792657241,10.4799156075]}},{"type":"Feature","properties":{"crop":"Jackfruit","tree_no":"2"},"geometry":{"type":"Point","coordinates":[77.0791991038,10.4798757099]}},{"type":"Feature","properties":{"crop":"Jackfruit","tree_no":"4"},"geometry":{"type":"Point","coordinates":[77.0790875848,10.4798604054]}},{"type":"Feature","properties":{"crop":"Jackfruit","tree_no":"5"},"geometry":{"type":"Point","coordinates":[77.0790338105,10.4798616899]}},{"type":"Feature","properties":{"crop":"Jackfruit","tree_no":"6"},"geometry":{"type":"Point","coordinates":[77.0788677018,10.4798335368]}},{"type":"Feature","properties":{"crop":"Jackfruit","tree_no":"7"},"geometry":{"type":"Point","coordinates":[77.0787583207,10.4798651223]}},{"type":"Feature","properties":{"crop":"Jackfruit","tree_no":"8"},"geometry":{"type":"Point","coordinates":[77.0786982035,10.4798551307]}},{"type":"Feature","properties":{"crop":"Jackfruit","tree_no":"10"},"geometry":{"type":"Point","coordinates":[77.0785867467,10.4798470711]}},{"type":"Feature","properties":{"crop":"Jackfruit","tree_no":"11"},"geometry":{"type":"Point","coordinates":[77.0785430546,10.4798909661]}},{"type":"Feature","properties":{"crop":"Jackfruit","tree_no":"12"},"geometry":{"type":"Point","coordinates":[77.078487169,10.4798888369]}},{"type":"Feature","properties":{"crop":"Jackfruit","tree_no":"13"},"geometry":{"type":"Point","coordinates":[77.0784218446,10.4798785911]}},{"type":"Feature","properties":{"crop":"Jackfruit","tree_no":"15"},"geometry":{"type":"Point","coordinates":[77.0783615437,10.4798472093]}},{"type":"Feature","properties":{"crop":"Jackfruit","tree_no":"17"},"geometry":{"type":"Point","coordinates":[77.0783192957,10.4798976352]}},{"type":"Feature","properties":{"crop":"Jackfruit","tree_no":"18"},"geometry":{"type":"Point","coordinates":[77.0782516345,10.4798981269]}},{"type":"Feature","properties":{"crop":"Jackfruit","tree_no":"22"},"geometry":{"type":"Point","coordinates":[77.0781394897,10.4798907693]}},{"type":"Feature","properties":{"crop":"Jackfruit","tree_no":"26"},"geometry":{"type":"Point","coordinates":[77.0780801198,10.4798869755]}},{"type":"Feature","properties":{"crop":"Jackfruit","tree_no":"30"},"geometry":{"type":"Point","coordinates":[77.0779151406,10.4799095252]}},{"type":"Feature","properties":{"crop":"Jackfruit","tree_no":"31"},"geometry":{"type":"Point","coordinates":[77.0778622973,10.4799383976]}},{"type":"Feature","properties":{"crop":"Jackfruit","tree_no":"33"},"geometry":{"type":"Point","coordinates":[77.077813487,10.4799520172]}},{"type":"Feature","properties":{"crop":"Jackfruit","tree_no":"34"},"geometry":{"type":"Point","coordinates":[77.0777509439,10.4799827843]}},{"type":"Feature","properties":{"crop":"Jackfruit","tree_no":"35"},"geometry":{"type":"Point","coordinates":[77.0776875528,10.4799956233]}},{"type":"Feature","properties":{"crop":"Jackfruit","tree_no":"36"},"geometry":{"type":"Point","coordinates":[77.0776344842,10.4799982754]}},{"type":"Feature","properties":{"crop":"Jackfruit","tree_no":"42"},"geometry":{"type":"Point","coordinates":[77.0775761936,10.4799989484]}},{"type":"Feature","properties":{"crop":"Jackfruit","tree_no":"40"},"geometry":{"type":"Point","coordinates":[77.0775210464,10.4800019819]}},{"type":"Feature","properties":{"crop":"Jackfruit","tree_no":"49"},"geometry":{"type":"Point","coordinates":[77.0775191785,10.4799461157]}},{"type":"Feature","properties":{"crop":"Jackfruit","tree_no":"48"},"geometry":{"type":"Point","coordinates":[77.0775746579,10.4799413511]}},{"type":"Feature","properties":{"crop":"Jackfruit","tree_no":"43"},"geometry":{"type":"Point","coordinates":[77.0776228129,10.4799322288]}},{"type":"Feature","properties":{"crop":"Jackfruit","tree_no":"44"},"geometry":{"type":"Point","coordinates":[77.0776780076,10.4799347153]}},{"type":"Feature","properties":{"crop":"Jackfruit","tree_no":"32"},"geometry":{"type":"Point","coordinates":[77.0777431897,10.479928401]}},{"type":"Feature","properties":{"crop":"Jackfruit","tree_no":"75"},"geometry":{"type":"Point","coordinates":[77.0777938298,10.4798854199]}},{"type":"Feature","properties":{"crop":"Jackfruit","tree_no":"27"},"geometry":{"type":"Point","coordinates":[77.0779091122,10.4798540767]}},{"type":"Feature","properties":{"crop":"Jackfruit","tree_no":"28"},"geometry":{"type":"Point","coordinates":[77.077967201,10.4798703149]}},{"type":"Feature","properties":{"crop":"Jackfruit","tree_no":"21"},"geometry":{"type":"Point","coordinates":[77.0780129954,10.4798691699]}},{"type":"Feature","properties":{"crop":"Jackfruit","tree_no":"97"},"geometry":{"type":"Point","coordinates":[77.0781240789,10.4798337594]}},{"type":"Feature","properties":{"crop":"Jackfruit","tree_no":"20"},"geometry":{"type":"Point","coordinates":[77.078194219,10.4798390903]}},{"type":"Feature","properties":{"crop":"Jackfruit","tree_no":"19"},"geometry":{"type":"Point","coordinates":[77.0782487761,10.4798481439]}},{"type":"Feature","properties":{"crop":"Jackfruit","tree_no":"16"},"geometry":{"type":"Point","coordinates":[77.078316538,10.4798593823]}},{"type":"Feature","properties":{"crop":"Jackfruit","tree_no":"106"},"geometry":{"type":"Point","coordinates":[77.0783614905,10.4798006279]}},{"type":"Feature","properties":{"crop":"Jackfruit","tree_no":"107"},"geometry":{"type":"Point","coordinates":[77.0784167711,10.4798131194]}},{"type":"Feature","properties":{"crop":"Jackfruit","tree_no":"112"},"geometry":{"type":"Point","coordinates":[77.0784689706,10.4798304955]}},{"type":"Feature","properties":{"crop":"Jackfruit","tree_no":"111"},"geometry":{"type":"Point","coordinates":[77.0785228575,10.4798423212]}},{"type":"Feature","properties":{"crop":"Jackfruit","tree_no":"113"},"geometry":{"type":"Point","coordinates":[77.0785734323,10.4797917499]}},{"type":"Feature","properties":{"crop":"Jackfruit","tree_no":"115"},"geometry":{"type":"Point","coordinates":[77.0786345013,10.4797913732]}},{"type":"Feature","properties":{"crop":"Jackfruit","tree_no":"9"},"geometry":{"type":"Point","coordinates":[77.0786412563,10.4798506046]}},{"type":"Feature","properties":{"crop":"Jackfruit","tree_no":"116"},"geometry":{"type":"Point","coordinates":[77.0786907902,10.4798000515]}},{"type":"Feature","properties":{"crop":"Jackfruit","tree_no":"117"},"geometry":{"type":"Point","coordinates":[77.0787446711,10.4798111872]}},{"type":"Feature","properties":{"crop":"Jackfruit","tree_no":"123"},"geometry":{"type":"Point","coordinates":[77.0787853859,10.4797842518]}},{"type":"Feature","properties":{"crop":"Jackfruit","tree_no":"122"},"geometry":{"type":"Point","coordinates":[77.0788411795,10.4797756859]}},{"type":"Feature","properties":{"crop":"Jackfruit","tree_no":"121"},"geometry":{"type":"Point","coordinates":[77.0789123902,10.4797844485]}},{"type":"Feature","properties":{"crop":"Jackfruit","tree_no":"120"},"geometry":{"type":"Point","coordinates":[77.0789609957,10.479787395]}},{"type":"Feature","properties":{"crop":"Jackfruit","tree_no":"119"},"geometry":{"type":"Point","coordinates":[77.0790224769,10.4797946023]}},{"type":"Feature","properties":{"crop":"Jackfruit","tree_no":"118"},"geometry":{"type":"Point","coordinates":[77.0791389067,10.479816032]}},{"type":"Feature","properties":{"crop":"Jackfruit","tree_no":"171"},"geometry":{"type":"Point","coordinates":[77.0792312405,10.4797894024]}},{"type":"Feature","properties":{"crop":"Jackfruit","tree_no":"170"},"geometry":{"type":"Point","coordinates":[77.0791842422,10.4797715906]}},{"type":"Feature","properties":{"crop":"Jackfruit","tree_no":"168"},"geometry":{"type":"Point","coordinates":[77.0788990438,10.4797355114]}},{"type":"Feature","properties":{"crop":"Jackfruit","tree_no":"167"},"geometry":{"type":"Point","coordinates":[77.0788605028,10.4797125484]}},{"type":"Feature","properties":{"crop":"Jackfruit","tree_no":"166"},"geometry":{"type":"Point","coordinates":[77.0788491379,10.4797427667]}},{"type":"Feature","properties":{"crop":"Jackfruit","tree_no":"164"},"geometry":{"type":"Point","coordinates":[77.0787778205,10.4797417697]}},{"type":"Feature","properties":{"crop":"Jackfruit","tree_no":"124"},"geometry":{"type":"Point","coordinates":[77.0787385366,10.4797534977]}},{"type":"Feature","properties":{"crop":"Jackfruit","tree_no":"125"},"geometry":{"type":"Point","coordinates":[77.0786855927,10.4797504544]}},{"type":"Feature","properties":{"crop":"Jackfruit","tree_no":"126"},"geometry":{"type":"Point","coordinates":[77.0786242168,10.479735309]}},{"type":"Feature","properties":{"crop":"Jackfruit","tree_no":"127"},"geometry":{"type":"Point","coordinates":[77.0785652413,10.4797370293]}},{"type":"Feature","properties":{"crop":"Jackfruit","tree_no":"114"},"geometry":{"type":"Point","coordinates":[77.0785188782,10.4797830413]}},{"type":"Feature","properties":{"crop":"Jackfruit","tree_no":"105"},"geometry":{"type":"Point","coordinates":[77.0784667053,10.4797687703]}},{"type":"Feature","properties":{"crop":"Jackfruit","tree_no":"104"},"geometry":{"type":"Point","coordinates":[77.0784097374,10.4797618291]}},{"type":"Feature","properties":{"crop":"Jackfruit","tree_no":"108"},"geometry":{"type":"Point","coordinates":[77.0783017855,10.4797982202]}},{"type":"Feature","properties":{"crop":"Jackfruit","tree_no":"110"},"geometry":{"type":"Point","coordinates":[77.078241013,10.4797927257]}},{"type":"Feature","properties":{"crop":"Jackfruit","tree_no":"109"},"geometry":{"type":"Point","coordinates":[77.0781819515,10.4797844409]}},{"type":"Feature","properties":{"crop":"Jackfruit","tree_no":"99"},"geometry":{"type":"Point","coordinates":[77.0781242541,10.4797733718]}},{"type":"Feature","properties":{"crop":"Jackfruit","tree_no":"98"},"geometry":{"type":"Point","coordinates":[77.0780686858,10.4797677863]}},{"type":"Feature","properties":{"crop":"Jackfruit","tree_no":"96"},"geometry":{"type":"Point","coordinates":[77.0780204744,10.4798107251]}},{"type":"Feature","properties":{"crop":"Jackfruit","tree_no":"88"},"geometry":{"type":"Point","coordinates":[77.0779589546,10.4797990326]}},{"type":"Feature","properties":{"crop":"Jackfruit","tree_no":"89"},"geometry":{"type":"Point","coordinates":[77.0778930105,10.4797974239]}},{"type":"Feature","properties":{"crop":"Jackfruit","tree_no":"87"},"geometry":{"type":"Point","coordinates":[77.0778517588,10.4798426565]}},{"type":"Feature","properties":{"crop":"Jackfruit","tree_no":"76"},"geometry":{"type":"Point","coordinates":[77.0777908974,10.4798268118]}},{"type":"Feature","properties":{"crop":"Jackfruit","tree_no":"74"},"geometry":{"type":"Point","coordinates":[77.0777361028,10.4798709007]}},{"type":"Feature","properties":{"crop":"Jackfruit","tree_no":"46"},"geometry":{"type":"Point","coordinates":[77.0776778359,10.4798743337]}},{"type":"Feature","properties":{"crop":"Jackfruit","tree_no":"45"},"geometry":{"type":"Point","coordinates":[77.0776258942,10.4798869728]}},{"type":"Feature","properties":{"crop":"Jackfruit","tree_no":"47"},"geometry":{"type":"Point","coordinates":[77.0775603591,10.4798926031]}},{"type":"Feature","properties":{"crop":"Jackfruit","tree_no":"51"},"geometry":{"type":"Point","coordinates":[77.0775083759,10.479900412]}},{"type":"Feature","properties":{"crop":"Jackfruit","tree_no":"59"},"geometry":{"type":"Point","coordinates":[77.0774977602,10.4798360722]}},{"type":"Feature","properties":{"crop":"Jackfruit","tree_no":"60"},"geometry":{"type":"Point","coordinates":[77.0775591437,10.4798318946]}},{"type":"Feature","properties":{"crop":"Jackfruit","tree_no":"73"},"geometry":{"type":"Point","coordinates":[77.077614973,10.479827469]}},{"type":"Feature","properties":{"crop":"Jackfruit","tree_no":"71"},"geometry":{"type":"Point","coordinates":[77.0777266109,10.4798162028]}},{"type":"Feature","properties":{"crop":"Jackfruit","tree_no":"77"},"geometry":{"type":"Point","coordinates":[77.0777848779,10.4797723983]}},{"type":"Feature","properties":{"crop":"Jackfruit","tree_no":"86"},"geometry":{"type":"Point","coordinates":[77.0778440342,10.4797917233]}},{"type":"Feature","properties":{"crop":"Jackfruit","tree_no":"85"},"geometry":{"type":"Point","coordinates":[77.0778938678,10.4797356442]}},{"type":"Feature","properties":{"crop":"Jackfruit","tree_no":"90"},"geometry":{"type":"Point","coordinates":[77.0779547233,10.4797507988]}},{"type":"Feature","properties":{"crop":"Jackfruit","tree_no":"94"},"geometry":{"type":"Point","coordinates":[77.0780134052,10.4797552947]}},{"type":"Feature","properties":{"crop":"Jackfruit","tree_no":"93"},"geometry":{"type":"Point","coordinates":[77.0780612163,10.479706152]}},{"type":"Feature","properties":{"crop":"Jackfruit","tree_no":"100"},"geometry":{"type":"Point","coordinates":[77.0781417917,10.4797170753]}},{"type":"Feature","properties":{"crop":"Jackfruit","tree_no":"102"},"geometry":{"type":"Point","coordinates":[77.0782238555,10.4797343661]}},{"type":"Feature","properties":{"crop":"Jackfruit","tree_no":"103"},"geometry":{"type":"Point","coordinates":[77.0782863183,10.4797346553]}},{"type":"Feature","properties":{"crop":"Jackfruit","tree_no":"131"},"geometry":{"type":"Point","coordinates":[77.0783456431,10.4797029092]}},{"type":"Feature","properties":{"crop":"Jackfruit","tree_no":"129"},"geometry":{"type":"Point","coordinates":[77.0784661383,10.4797128813]}},{"type":"Feature","properties":{"crop":"Jackfruit","tree_no":"128"},"geometry":{"type":"Point","coordinates":[77.0785221277,10.4797270857]}},{"type":"Feature","properties":{"crop":"Jackfruit","tree_no":"160"},"geometry":{"type":"Point","coordinates":[77.0785523702,10.4796929146]}},{"type":"Feature","properties":{"crop":"Jackfruit","tree_no":"161"},"geometry":{"type":"Point","coordinates":[77.0786106044,10.4796856864]}},{"type":"Feature","properties":{"crop":"Jackfruit","tree_no":"162"},"geometry":{"type":"Point","coordinates":[77.0786686101,10.4796922643]}},{"type":"Feature","properties":{"crop":"Jackfruit","tree_no":"163"},"geometry":{"type":"Point","coordinates":[77.078728069,10.4797064081]}},{"type":"Feature","properties":{"crop":"Jackfruit","tree_no":"165"},"geometry":{"type":"Point","coordinates":[77.0787881149,10.4797081196]}},{"type":"Feature","properties":{"crop":"Jackfruit","tree_no":"174"},"geometry":{"type":"Point","coordinates":[77.0788382077,10.4796620424]}},{"type":"Feature","properties":{"crop":"Jackfruit","tree_no":"173"},"geometry":{"type":"Point","coordinates":[77.0788959081,10.4796734564]}},{"type":"Feature","properties":{"crop":"Jackfruit","tree_no":"172"},"geometry":{"type":"Point","coordinates":[77.0791792485,10.4797154339]}},{"type":"Feature","properties":{"crop":"Jackfruit","tree_no":"214"},"geometry":{"type":"Point","coordinates":[77.0789405342,10.479617123]}},{"type":"Feature","properties":{"crop":"Jackfruit","tree_no":"213"},"geometry":{"type":"Point","coordinates":[77.0788797795,10.4796136986]}},{"type":"Feature","properties":{"crop":"Jackfruit","tree_no":"212"},"geometry":{"type":"Point","coordinates":[77.0788227819,10.4796033075]}},{"type":"Feature","properties":{"crop":"Jackfruit","tree_no":"175"},"geometry":{"type":"Point","coordinates":[77.0787780639,10.4796489458]}},{"type":"Feature","properties":{"crop":"Jackfruit","tree_no":"176"},"geometry":{"type":"Point","coordinates":[77.0787242275,10.4796429851]}},{"type":"Feature","properties":{"crop":"Jackfruit","tree_no":"177"},"geometry":{"type":"Point","coordinates":[77.0786731933,10.479640081]}},{"type":"Feature","properties":{"crop":"Jackfruit","tree_no":"178"},"geometry":{"type":"Point","coordinates":[77.0786102087,10.4796194428]}},{"type":"Feature","properties":{"crop":"Jackfruit","tree_no":"159"},"geometry":{"type":"Point","coordinates":[77.0784994086,10.4796676156]}},{"type":"Feature","properties":{"crop":"Jackfruit","tree_no":"158"},"geometry":{"type":"Point","coordinates":[77.078447983,10.4796595425]}},{"type":"Feature","properties":{"crop":"Jackfruit","tree_no":"157"},"geometry":{"type":"Point","coordinates":[77.0783878481,10.4796474808]}},{"type":"Feature","properties":{"crop":"Jackfruit","tree_no":"132"},"geometry":{"type":"Point","coordinates":[77.0782774957,10.4796871919]}},{"type":"Feature","properties":{"crop":"Jackfruit","tree_no":"133"},"geometry":{"type":"Point","coordinates":[77.0782253555,10.4796767158]}},{"type":"Feature","properties":{"crop":"Jackfruit","tree_no":"134"},"geometry":{"type":"Point","coordinates":[77.0781690785,10.4796694175]}},{"type":"Feature","properties":{"crop":"Jackfruit","tree_no":"135"},"geometry":{"type":"Point","coordinates":[77.0781110638,10.4796618044]}},{"type":"Feature","properties":{"crop":"Jackfruit","tree_no":"136"},"geometry":{"type":"Point","coordinates":[77.0780519816,10.4796511045]}},{"type":"Feature","properties":{"crop":"Jackfruit","tree_no":"91"},"geometry":{"type":"Point","coordinates":[77.0779452106,10.4796936859]}},{"type":"Feature","properties":{"crop":"Jackfruit","tree_no":"84"},"geometry":{"type":"Point","coordinates":[77.0778417542,10.4797282731]}},{"type":"Feature","properties":{"crop":"Jackfruit","tree_no":"79"},"geometry":{"type":"Point","coordinates":[77.0777854535,10.4797182146]}},{"type":"Feature","properties":{"crop":"Jackfruit","tree_no":"68"},"geometry":{"type":"Point","coordinates":[77.0777209147,10.4797590232]}},{"type":"Feature","properties":{"crop":"Jackfruit","tree_no":"70"},"geometry":{"type":"Point","coordinates":[77.077610371,10.4797764813]}},{"type":"Feature","properties":{"crop":"Jackfruit","tree_no":"61"},"geometry":{"type":"Point","coordinates":[77.0775444298,10.4797752176]}},{"type":"Feature","properties":{"crop":"Jackfruit","tree_no":"58"},"geometry":{"type":"Point","coordinates":[77.0774747047,10.4797778155]}},{"type":"Feature","properties":{"crop":"Jackfruit","tree_no":"57"},"geometry":{"type":"Point","coordinates":[77.0774803979,10.4797235425]}},{"type":"Feature","properties":{"crop":"Jackfruit","tree_no":"62"},"geometry":{"type":"Point","coordinates":[77.0775463272,10.4797234262]}},{"type":"Feature","properties":{"crop":"Jackfruit","tree_no":"67"},"geometry":{"type":"Point","coordinates":[77.0776062607,10.4797120278]}},{"type":"Feature","properties":{"crop":"Jackfruit","tree_no":"66"},"geometry":{"type":"Point","coordinates":[77.0776596346,10.4797045396]}},{"type":"Feature","properties":{"crop":"Jackfruit","tree_no":"78"},"geometry":{"type":"Point","coordinates":[77.0777159035,10.4797007964]}},{"type":"Feature","properties":{"crop":"Jackfruit","tree_no":"83"},"geometry":{"type":"Point","coordinates":[77.0777714987,10.4796691155]}},{"type":"Feature","properties":{"crop":"Jackfruit","tree_no":"82"},"geometry":{"type":"Point","coordinates":[77.0778333328,10.479677007]}},{"type":"Feature","properties":{"crop":"Jackfruit","tree_no":"139"},"geometry":{"type":"Point","coordinates":[77.0778723982,10.4796297423]}},{"type":"Feature","properties":{"crop":"Jackfruit","tree_no":"81"},"geometry":{"type":"Point","coordinates":[77.0778798477,10.479678955]}},{"type":"Feature","properties":{"crop":"Jackfruit","tree_no":"138"},"geometry":{"type":"Point","coordinates":[77.077939137,10.4796430689]}},{"type":"Feature","properties":{"crop":"Jackfruit","tree_no":"137"},"geometry":{"type":"Point","coordinates":[77.0779922381,10.4796442118]}},{"type":"Feature","properties":{"crop":"Jackfruit","tree_no":"151"},"geometry":{"type":"Point","coordinates":[77.0780400981,10.4796007616]}},{"type":"Feature","properties":{"crop":"Jackfruit","tree_no":"152"},"geometry":{"type":"Point","coordinates":[77.0780956634,10.479606002]}},{"type":"Feature","properties":{"crop":"Jackfruit","tree_no":"153"},"geometry":{"type":"Point","coordinates":[77.0781616816,10.4796162357]}},{"type":"Feature","properties":{"crop":"Jackfruit","tree_no":"154"},"geometry":{"type":"Point","coordinates":[77.0782217928,10.4796255374]}},{"type":"Feature","properties":{"crop":"Jackfruit","tree_no":"155"},"geometry":{"type":"Point","coordinates":[77.07827291,10.4796381017]}},{"type":"Feature","properties":{"crop":"Jackfruit","tree_no":"156"},"geometry":{"type":"Point","coordinates":[77.0783294361,10.4796340088]}},{"type":"Feature","properties":{"crop":"Jackfruit","tree_no":"182"},"geometry":{"type":"Point","coordinates":[77.0783837545,10.479595104]}},{"type":"Feature","properties":{"crop":"Jackfruit","tree_no":"181"},"geometry":{"type":"Point","coordinates":[77.0784428071,10.4796023538]}},{"type":"Feature","properties":{"crop":"Jackfruit","tree_no":"180"},"geometry":{"type":"Point","coordinates":[77.078493521,10.4796083691]}},{"type":"Feature","properties":{"crop":"Jackfruit","tree_no":"179"},"geometry":{"type":"Point","coordinates":[77.0785483953,10.4796139665]}},{"type":"Feature","properties":{"crop":"Jackfruit","tree_no":"208"},"geometry":{"type":"Point","coordinates":[77.0785990115,10.4795682253]}},{"type":"Feature","properties":{"crop":"Jackfruit","tree_no":"209"},"geometry":{"type":"Point","coordinates":[77.0786640097,10.4795808921]}},{"type":"Feature","properties":{"crop":"Jackfruit","tree_no":"210"},"geometry":{"type":"Point","coordinates":[77.0787130007,10.4795883176]}},{"type":"Feature","properties":{"crop":"Jackfruit","tree_no":"211"},"geometry":{"type":"Point","coordinates":[77.0787674984,10.4795904711]}},{"type":"Feature","properties":{"crop":"Jackfruit","tree_no":"222"},"geometry":{"type":"Point","coordinates":[77.0788219844,10.4795508732]}},{"type":"Feature","properties":{"crop":"Jackfruit","tree_no":"221"},"geometry":{"type":"Point","coordinates":[77.0788816774,10.4795519007]}},{"type":"Feature","properties":{"crop":"Jackfruit","tree_no":"220"},"geometry":{"type":"Point","coordinates":[77.0789411244,10.4795646644]}},{"type":"Feature","properties":{"crop":"Jackfruit","tree_no":"218"},"geometry":{"type":"Point","coordinates":[77.0790549,10.4796002877]}},{"type":"Feature","properties":{"crop":"Jackfruit","tree_no":"217"},"geometry":{"type":"Point","coordinates":[77.0791030281,10.4795880602]}},{"type":"Feature","properties":{"crop":"Jackfruit","tree_no":"216"},"geometry":{"type":"Point","coordinates":[77.0791684028,10.4796041708]}},{"type":"Feature","properties":{"crop":"Jackfruit","tree_no":"267"},"geometry":{"type":"Point","coordinates":[77.0791793866,10.4795498054]}},{"type":"Feature","properties":{"crop":"Jackfruit","tree_no":"265"},"geometry":{"type":"Point","coordinates":[77.0790535745,10.4795268143]}},{"type":"Feature","properties":{"crop":"Jackfruit","tree_no":"264"},"geometry":{"type":"Point","coordinates":[77.0789802615,10.4795156731]}},{"type":"Feature","properties":{"crop":"Jackfruit","tree_no":"263"},"geometry":{"type":"Point","coordinates":[77.0789236021,10.4795042409]}},{"type":"Feature","properties":{"crop":"Jackfruit","tree_no":"262"},"geometry":{"type":"Point","coordinates":[77.0788645673,10.4794990612]}},{"type":"Feature","properties":{"crop":"Jackfruit","tree_no":"261"},"geometry":{"type":"Point","coordinates":[77.0788172844,10.4794885004]}},{"type":"Feature","properties":{"crop":"Jackfruit","tree_no":"223"},"geometry":{"type":"Point","coordinates":[77.0787584067,10.4795419772]}},{"type":"Feature","properties":{"crop":"Jackfruit","tree_no":"224"},"geometry":{"type":"Point","coordinates":[77.0787038734,10.4795356837]}},{"type":"Feature","properties":{"crop":"Jackfruit","tree_no":"225"},"geometry":{"type":"Point","coordinates":[77.0786427214,10.4795264003]}},{"type":"Feature","properties":{"crop":"Jackfruit","tree_no":"226"},"geometry":{"type":"Point","coordinates":[77.0785919926,10.47951866]}},{"type":"Feature","properties":{"crop":"Jackfruit","tree_no":"207"},"geometry":{"type":"Point","coordinates":[77.0785493118,10.4795590869]}},{"type":"Feature","properties":{"crop":"Jackfruit","tree_no":"206"},"geometry":{"type":"Point","coordinates":[77.078487454,10.4795484355]}},{"type":"Feature","properties":{"crop":"Jackfruit","tree_no":"205"},"geometry":{"type":"Point","coordinates":[77.0784214773,10.479543032]}},{"type":"Feature","properties":{"crop":"Jackfruit","tree_no":"204"},"geometry":{"type":"Point","coordinates":[77.0783696396,10.4795273748]}},{"type":"Feature","properties":{"crop":"Jackfruit","tree_no":"183"},"geometry":{"type":"Point","coordinates":[77.0783232549,10.4795809784]}},{"type":"Feature","properties":{"crop":"Jackfruit","tree_no":"184"},"geometry":{"type":"Point","coordinates":[77.0782676896,10.479575738]}},{"type":"Feature","properties":{"crop":"Jackfruit","tree_no":"185"},"geometry":{"type":"Point","coordinates":[77.0782099953,10.4795650139]}},{"type":"Feature","properties":{"crop":"Jackfruit","tree_no":"186"},"geometry":{"type":"Point","coordinates":[77.0781509309,10.479556384]}},{"type":"Feature","properties":{"crop":"Jackfruit","tree_no":"187"},"geometry":{"type":"Point","coordinates":[77.0780946302,10.4795463256]}},{"type":"Feature","properties":{"crop":"Jackfruit","tree_no":"188"},"geometry":{"type":"Point","coordinates":[77.0780363308,10.4795459637]}},{"type":"Feature","properties":{"crop":"Jackfruit","tree_no":"150"},"geometry":{"type":"Point","coordinates":[77.0779788957,10.479585613]}},{"type":"Feature","properties":{"crop":"Jackfruit","tree_no":"149"},"geometry":{"type":"Point","coordinates":[77.0779365293,10.4795818673]}},{"type":"Feature","properties":{"crop":"Jackfruit","tree_no":"140"},"geometry":{"type":"Point","coordinates":[77.0778098021,10.4796139279]}},{"type":"Feature","properties":{"crop":"Jackfruit","tree_no":"141"},"geometry":{"type":"Point","coordinates":[77.0777616176,10.4796196002]}},{"type":"Feature","properties":{"crop":"Jackfruit","tree_no":"80"},"geometry":{"type":"Point","coordinates":[77.0777053093,10.4796490507]}},{"type":"Feature","properties":{"crop":"Jackfruit","tree_no":"65"},"geometry":{"type":"Point","coordinates":[77.0776382515,10.4796591933]}},{"type":"Feature","properties":{"crop":"Jackfruit","tree_no":"64"},"geometry":{"type":"Point","coordinates":[77.0775941726,10.4796580654]}},{"type":"Feature","properties":{"crop":"Jackfruit","tree_no":"63"},"geometry":{"type":"Point","coordinates":[77.0775250213,10.4796668643]}},{"type":"Feature","properties":{"crop":"Jackfruit","tree_no":"56"},"geometry":{"type":"Point","coordinates":[77.0774719706,10.4796715864]}},{"type":"Feature","properties":{"crop":"Jackfruit","tree_no":"55"},"geometry":{"type":"Point","coordinates":[77.0774657852,10.4796180384]}},{"type":"Feature","properties":{"crop":"Jackfruit","tree_no":"144"},"geometry":{"type":"Point","coordinates":[77.0775202118,10.479611912]}},{"type":"Feature","properties":{"crop":"Jackfruit","tree_no":"143"},"geometry":{"type":"Point","coordinates":[77.0775819185,10.4796049684]}},{"type":"Feature","properties":{"crop":"Jackfruit","tree_no":"142"},"geometry":{"type":"Point","coordinates":[77.0776547364,10.4795988659]}},{"type":"Feature","properties":{"crop":"Jackfruit","tree_no":"147"},"geometry":{"type":"Point","coordinates":[77.0778117936,10.4795629975]}},{"type":"Feature","properties":{"crop":"Jackfruit","tree_no":"190"},"geometry":{"type":"Point","coordinates":[77.0779181487,10.4795224938]}},{"type":"Feature","properties":{"crop":"Jackfruit","tree_no":"189"},"geometry":{"type":"Point","coordinates":[77.0779723617,10.4795318986]}},{"type":"Feature","properties":{"crop":"Jackfruit","tree_no":"199"},"geometry":{"type":"Point","coordinates":[77.0780726896,10.4794966759]}},{"type":"Feature","properties":{"crop":"Jackfruit","tree_no":"200"},"geometry":{"type":"Point","coordinates":[77.0781431559,10.4794995858]}},{"type":"Feature","properties":{"crop":"Jackfruit","tree_no":"201"},"geometry":{"type":"Point","coordinates":[77.0781949462,10.4795097229]}},{"type":"Feature","properties":{"crop":"Jackfruit","tree_no":"202"},"geometry":{"type":"Point","coordinates":[77.0782533226,10.4795190549]}},{"type":"Feature","properties":{"crop":"Jackfruit","tree_no":"203"},"geometry":{"type":"Point","coordinates":[77.0783166008,10.4795334771]}},{"type":"Feature","properties":{"crop":"Jackfruit","tree_no":"230"},"geometry":{"type":"Point","coordinates":[77.0783633235,10.4794788324]}},{"type":"Feature","properties":{"crop":"Jackfruit","tree_no":"229"},"geometry":{"type":"Point","coordinates":[77.0784171866,10.4794878982]}},{"type":"Feature","properties":{"crop":"Jackfruit","tree_no":"228"},"geometry":{"type":"Point","coordinates":[77.0784765802,10.4794944519]}},{"type":"Feature","properties":{"crop":"Jackfruit","tree_no":"227"},"geometry":{"type":"Point","coordinates":[77.0785325072,10.4795014112]}},{"type":"Feature","properties":{"crop":"Jackfruit","tree_no":"257"},"geometry":{"type":"Point","coordinates":[77.078584182,10.4794577218]}},{"type":"Feature","properties":{"crop":"Jackfruit","tree_no":"258"},"geometry":{"type":"Point","coordinates":[77.0786463363,10.479462502]}},{"type":"Feature","properties":{"crop":"Jackfruit","tree_no":"259"},"geometry":{"type":"Point","coordinates":[77.0786981148,10.4794712591]}},{"type":"Feature","properties":{"crop":"Jackfruit","tree_no":"260"},"geometry":{"type":"Point","coordinates":[77.0787579027,10.4794833267]}},{"type":"Feature","properties":{"crop":"Jackfruit","tree_no":"273"},"geometry":{"type":"Point","coordinates":[77.0788595945,10.4794453196]}},{"type":"Feature","properties":{"crop":"Jackfruit","tree_no":"272"},"geometry":{"type":"Point","coordinates":[77.0789086033,10.4794548151]}},{"type":"Feature","properties":{"crop":"Jackfruit","tree_no":"271"},"geometry":{"type":"Point","coordinates":[77.0789697553,10.4794640984]}},{"type":"Feature","properties":{"crop":"Jackfruit","tree_no":"270"},"geometry":{"type":"Point","coordinates":[77.0790427006,10.4794728307]}},{"type":"Feature","properties":{"crop":"Jackfruit","tree_no":"269"},"geometry":{"type":"Point","coordinates":[77.0790906329,10.4794782043]}},{"type":"Feature","properties":{"crop":"Jackfruit","tree_no":"268"},"geometry":{"type":"Point","coordinates":[77.0791548215,10.479477428]}},{"type":"Feature","properties":{"crop":"Jackfruit","tree_no":"319"},"geometry":{"type":"Point","coordinates":[77.0791436421,10.4794282805]}},{"type":"Feature","properties":{"crop":"Jackfruit","tree_no":"318"},"geometry":{"type":"Point","coordinates":[77.0790811468,10.4794241965]}},{"type":"Feature","properties":{"crop":"Jackfruit","tree_no":"317"},"geometry":{"type":"Point","coordinates":[77.0790238261,10.4794165715]}},{"type":"Feature","properties":{"crop":"Jackfruit","tree_no":"316"},"geometry":{"type":"Point","coordinates":[77.0789685188,10.4794009751]}},{"type":"Feature","properties":{"crop":"Jackfruit","tree_no":"315"},"geometry":{"type":"Point","coordinates":[77.0789115332,10.479391964]}},{"type":"Feature","properties":{"crop":"Jackfruit","tree_no":"314"},"geometry":{"type":"Point","coordinates":[77.0788584055,10.4793877162]}},{"type":"Feature","properties":{"crop":"Jackfruit","tree_no":"274"},"geometry":{"type":"Point","coordinates":[77.0787966752,10.4794322715]}},{"type":"Feature","properties":{"crop":"Jackfruit","tree_no":"275"},"geometry":{"type":"Point","coordinates":[77.0787313627,10.4794234058]}},{"type":"Feature","properties":{"crop":"Jackfruit","tree_no":"276"},"geometry":{"type":"Point","coordinates":[77.078688605,10.4794144912]}},{"type":"Feature","properties":{"crop":"Jackfruit","tree_no":"277"},"geometry":{"type":"Point","coordinates":[77.0786330457,10.4794099408]}},{"type":"Feature","properties":{"crop":"Jackfruit","tree_no":"278"},"geometry":{"type":"Point","coordinates":[77.0785778185,10.4794036594]}},{"type":"Feature","properties":{"crop":"Jackfruit","tree_no":"256"},"geometry":{"type":"Point","coordinates":[77.0785244771,10.4794553142]}},{"type":"Feature","properties":{"crop":"Jackfruit","tree_no":"255"},"geometry":{"type":"Point","coordinates":[77.0784666849,10.479433205]}},{"type":"Feature","properties":{"crop":"Jackfruit","tree_no":"254"},"geometry":{"type":"Point","coordinates":[77.0784173855,10.4794302706]}},{"type":"Feature","properties":{"crop":"Jackfruit","tree_no":"253"},"geometry":{"type":"Point","coordinates":[77.0783496118,10.4794176522]}},{"type":"Feature","properties":{"crop":"Jackfruit","tree_no":"231"},"geometry":{"type":"Point","coordinates":[77.0783004101,10.4794664742]}},{"type":"Feature","properties":{"crop":"Jackfruit","tree_no":"232"},"geometry":{"type":"Point","coordinates":[77.0782535334,10.4794628073]}},{"type":"Feature","properties":{"crop":"Jackfruit","tree_no":"233"},"geometry":{"type":"Point","coordinates":[77.0781878918,10.4794560176]}},{"type":"Feature","properties":{"crop":"Jackfruit","tree_no":"234"},"geometry":{"type":"Point","coordinates":[77.0781280979,10.4794432598]}},{"type":"Feature","properties":{"crop":"Jackfruit","tree_no":"235"},"geometry":{"type":"Point","coordinates":[77.0780735261,10.4794324811]}},{"type":"Feature","properties":{"crop":"Jackfruit","tree_no":"236"},"geometry":{"type":"Point","coordinates":[77.0780231918,10.4794302548]}},{"type":"Feature","properties":{"crop":"Jackfruit","tree_no":"197"},"geometry":{"type":"Point","coordinates":[77.077970823,10.4794739563]}},{"type":"Feature","properties":{"crop":"Jackfruit","tree_no":"196"},"geometry":{"type":"Point","coordinates":[77.0779104123,10.4794701806]}},{"type":"Feature","properties":{"crop":"Jackfruit","tree_no":"191"},"geometry":{"type":"Point","coordinates":[77.0778605314,10.4795207397]}},{"type":"Feature","properties":{"crop":"Jackfruit","tree_no":"192"},"geometry":{"type":"Point","coordinates":[77.0777598745,10.479517667]}},{"type":"Feature","properties":{"crop":"Jackfruit","tree_no":"193"},"geometry":{"type":"Point","coordinates":[77.0777409794,10.4794589927]}},{"type":"Feature","properties":{"crop":"Jackfruit","tree_no":"194"},"geometry":{"type":"Point","coordinates":[77.0777929063,10.4794446286]}},{"type":"Feature","properties":{"crop":"Jackfruit","tree_no":"195"},"geometry":{"type":"Point","coordinates":[77.0778530767,10.4794608304]}},{"type":"Feature","properties":{"crop":"Jackfruit","tree_no":"238"},"geometry":{"type":"Point","coordinates":[77.0779064301,10.4794105557]}},{"type":"Feature","properties":{"crop":"Jackfruit","tree_no":"237"},"geometry":{"type":"Point","coordinates":[77.0779619894,10.4794151062]}},{"type":"Feature","properties":{"crop":"Jackfruit","tree_no":"247"},"geometry":{"type":"Point","coordinates":[77.0780129912,10.479373844]}},{"type":"Feature","properties":{"crop":"Jackfruit","tree_no":"248"},"geometry":{"type":"Point","coordinates":[77.078069274,10.4793818324]}},{"type":"Feature","properties":{"crop":"Jackfruit","tree_no":"249"},"geometry":{"type":"Point","coordinates":[77.0781105936,10.4793849063]}},{"type":"Feature","properties":{"crop":"Jackfruit","tree_no":"250"},"geometry":{"type":"Point","coordinates":[77.0781762885,10.479397906]}},{"type":"Feature","properties":{"crop":"Jackfruit","tree_no":"251"},"geometry":{"type":"Point","coordinates":[77.0782339503,10.4794048351]}},{"type":"Feature","properties":{"crop":"Jackfruit","tree_no":"252"},"geometry":{"type":"Point","coordinates":[77.0782981981,10.4794109591]}},{"type":"Feature","properties":{"crop":"Jackfruit","tree_no":"282"},"geometry":{"type":"Point","coordinates":[77.0783443011,10.4793649516]}},{"type":"Feature","properties":{"crop":"Jackfruit","tree_no":"281"},"geometry":{"type":"Point","coordinates":[77.0784002251,10.479371566]}},{"type":"Feature","properties":{"crop":"Jackfruit","tree_no":"279"},"geometry":{"type":"Point","coordinates":[77.0785249874,10.4793935405]}},{"type":"Feature","properties":{"crop":"Jackfruit","tree_no":"310"},"geometry":{"type":"Point","coordinates":[77.0786238799,10.4793528219]}},{"type":"Feature","properties":{"crop":"Jackfruit","tree_no":"311"},"geometry":{"type":"Point","coordinates":[77.0786808358,10.479358383]}},{"type":"Feature","properties":{"crop":"Jackfruit","tree_no":"312"},"geometry":{"type":"Point","coordinates":[77.0787392241,10.4793690949]}},{"type":"Feature","properties":{"crop":"Jackfruit","tree_no":"313"},"geometry":{"type":"Point","coordinates":[77.0788076531,10.479377216]}},{"type":"Feature","properties":{"crop":"Jackfruit","tree_no":"327"},"geometry":{"type":"Point","coordinates":[77.0788444061,10.4793334422]}},{"type":"Feature","properties":{"crop":"Jackfruit","tree_no":"326"},"geometry":{"type":"Point","coordinates":[77.0789000069,10.4793428225]}},{"type":"Feature","properties":{"crop":"Jackfruit","tree_no":"325"},"geometry":{"type":"Point","coordinates":[77.078960379,10.4793421129]}},{"type":"Feature","properties":{"crop":"Jackfruit","tree_no":"324"},"geometry":{"type":"Point","coordinates":[77.0790237046,10.479362055]}},{"type":"Feature","properties":{"crop":"Jackfruit","tree_no":"323"},"geometry":{"type":"Point","coordinates":[77.0790758299,10.4793708059]}},{"type":"Feature","properties":{"crop":"Jackfruit","tree_no":"322"},"geometry":{"type":"Point","coordinates":[77.0791365935,10.4793752653]}},{"type":"Feature","properties":{"crop":"Jackfruit","tree_no":"321"},"geometry":{"type":"Point","coordinates":[77.0791887574,10.4793885012]}},{"type":"Feature","properties":{"crop":"Jackfruit","tree_no":"374"},"geometry":{"type":"Point","coordinates":[77.079175775,10.479331449]}},{"type":"Feature","properties":{"crop":"Jackfruit","tree_no":"373"},"geometry":{"type":"Point","coordinates":[77.0791246579,10.4793188849]}},{"type":"Feature","properties":{"crop":"Jackfruit","tree_no":"372"},"geometry":{"type":"Point","coordinates":[77.079066584,10.4793043719]}},{"type":"Feature","properties":{"crop":"Jackfruit","tree_no":"371"},"geometry":{"type":"Point","coordinates":[77.0790141443,10.4792994221]}},{"type":"Feature","properties":{"crop":"Jackfruit","tree_no":"370"},"geometry":{"type":"Point","coordinates":[77.078962437,10.4792989452]}},{"type":"Feature","properties":{"crop":"Jackfruit","tree_no":"369"},"geometry":{"type":"Point","coordinates":[77.0788970031,10.4792759344]}},{"type":"Feature","properties":{"crop":"Jackfruit","tree_no":"368"},"geometry":{"type":"Point","coordinates":[77.0788446019,10.4792754696]}},{"type":"Feature","properties":{"crop":"Jackfruit","tree_no":"328"},"geometry":{"type":"Point","coordinates":[77.0787874531,10.4793282261]}},{"type":"Feature","properties":{"crop":"Jackfruit","tree_no":"329"},"geometry":{"type":"Point","coordinates":[77.0787290708,10.4793182042]}},{"type":"Feature","properties":{"crop":"Jackfruit","tree_no":"330"},"geometry":{"type":"Point","coordinates":[77.078670985,10.4793023112]}},{"type":"Feature","properties":{"crop":"Jackfruit","tree_no":"331"},"geometry":{"type":"Point","coordinates":[77.0786237673,10.4792993404]}},{"type":"Feature","properties":{"crop":"Jackfruit","tree_no":"332"},"geometry":{"type":"Point","coordinates":[77.0785658209,10.4792996625]}},{"type":"Feature","properties":{"crop":"Jackfruit","tree_no":"309"},"geometry":{"type":"Point","coordinates":[77.0785633832,10.4793390413]}},{"type":"Feature","properties":{"crop":"Jackfruit","tree_no":"308"},"geometry":{"type":"Point","coordinates":[77.0785095202,10.4793299756]}},{"type":"Feature","properties":{"crop":"Jackfruit","tree_no":"307"},"geometry":{"type":"Point","coordinates":[77.0784535783,10.4793212912]}},{"type":"Feature","properties":{"crop":"Jackfruit","tree_no":"306"},"geometry":{"type":"Point","coordinates":[77.0783990569,10.4793163776]}},{"type":"Feature","properties":{"crop":"Jackfruit","tree_no":"305"},"geometry":{"type":"Point","coordinates":[77.078337561,10.4793074452]}},{"type":"Feature","properties":{"crop":"Jackfruit","tree_no":"283"},"geometry":{"type":"Point","coordinates":[77.0782877068,10.4793611094]}},{"type":"Feature","properties":{"crop":"Jackfruit","tree_no":"284"},"geometry":{"type":"Point","coordinates":[77.0782307093,10.4793507182]}},{"type":"Feature","properties":{"crop":"Jackfruit","tree_no":"285"},"geometry":{"type":"Point","coordinates":[77.0781705626,10.4793372764]}},{"type":"Feature","properties":{"crop":"Jackfruit","tree_no":"286"},"geometry":{"type":"Point","coordinates":[77.0781215361,10.4793257108]}},{"type":"Feature","properties":{"crop":"Jackfruit","tree_no":"287"},"geometry":{"type":"Point","coordinates":[77.0780656269,10.4793208214]}},{"type":"Feature","properties":{"crop":"Jackfruit","tree_no":"246"},"geometry":{"type":"Point","coordinates":[77.0779538853,10.4793603841]}},{"type":"Feature","properties":{"crop":"Jackfruit","tree_no":"245"},"geometry":{"type":"Point","coordinates":[77.0778975965,10.4793517057]}},{"type":"Feature","properties":{"crop":"Jackfruit","tree_no":"239"},"geometry":{"type":"Point","coordinates":[77.0778501413,10.4794018773]}},{"type":"Feature","properties":{"crop":"Jackfruit","tree_no":"240"},"geometry":{"type":"Point","coordinates":[77.0777876341,10.479396413]}},{"type":"Feature","properties":{"crop":"Jackfruit","tree_no":"241"},"geometry":{"type":"Point","coordinates":[77.0777335367,10.4794004633]}},{"type":"Feature","properties":{"crop":"Jackfruit","tree_no":"243"},"geometry":{"type":"Point","coordinates":[77.0777836816,10.4793402381]}},{"type":"Feature","properties":{"crop":"Jackfruit","tree_no":"244"},"geometry":{"type":"Point","coordinates":[77.0778448128,10.4793471067]}},{"type":"Feature","properties":{"crop":"Jackfruit","tree_no":"290"},"geometry":{"type":"Point","coordinates":[77.0778905303,10.4792966203]}},{"type":"Feature","properties":{"crop":"Jackfruit","tree_no":"289"},"geometry":{"type":"Point","coordinates":[77.0779454283,10.479304978]}},{"type":"Feature","properties":{"crop":"Jackfruit","tree_no":"288"},"geometry":{"type":"Point","coordinates":[77.078005759,10.4792994385]}},{"type":"Feature","properties":{"crop":"Jackfruit","tree_no":"300"},"geometry":{"type":"Point","coordinates":[77.0780553937,10.4792606156]}},{"type":"Feature","properties":{"crop":"Jackfruit","tree_no":"301"},"geometry":{"type":"Point","coordinates":[77.0781075427,10.4792721267]}},{"type":"Feature","properties":{"crop":"Jackfruit","tree_no":"302"},"geometry":{"type":"Point","coordinates":[77.0781693679,10.4792789831]}},{"type":"Feature","properties":{"crop":"Jackfruit","tree_no":"303"},"geometry":{"type":"Point","coordinates":[77.0782212085,10.4792949853]}},{"type":"Feature","properties":{"crop":"Jackfruit","tree_no":"304"},"geometry":{"type":"Point","coordinates":[77.0782798904,10.4792994811]}},{"type":"Feature","properties":{"crop":"Jackfruit","tree_no":"336"},"geometry":{"type":"Point","coordinates":[77.078327086,10.4792594931]}},{"type":"Feature","properties":{"crop":"Jackfruit","tree_no":"335"},"geometry":{"type":"Point","coordinates":[77.0783899608,10.4792673662]}},{"type":"Feature","properties":{"crop":"Jackfruit","tree_no":"334"},"geometry":{"type":"Point","coordinates":[77.0784469539,10.4792772399]}},{"type":"Feature","properties":{"crop":"Jackfruit","tree_no":"333"},"geometry":{"type":"Point","coordinates":[77.0785096508,10.4792845986]}},{"type":"Feature","properties":{"crop":"Jackfruit","tree_no":"364"},"geometry":{"type":"Point","coordinates":[77.0786124576,10.4792350127]}},{"type":"Feature","properties":{"crop":"Jackfruit","tree_no":"365"},"geometry":{"type":"Point","coordinates":[77.0786739357,10.4792418751]}},{"type":"Feature","properties":{"crop":"Jackfruit","tree_no":"366"},"geometry":{"type":"Point","coordinates":[77.0787208776,10.479253132]}},{"type":"Feature","properties":{"crop":"Jackfruit","tree_no":"367"},"geometry":{"type":"Point","coordinates":[77.0787852233,10.4792706409]}},{"type":"Feature","properties":{"crop":"Jackfruit","tree_no":"381"},"geometry":{"type":"Point","coordinates":[77.0788283881,10.4792209323]}},{"type":"Feature","properties":{"crop":"Jackfruit","tree_no":"380"},"geometry":{"type":"Point","coordinates":[77.0788825952,10.4792296469]}},{"type":"Feature","properties":{"crop":"Jackfruit","tree_no":"379"},"geometry":{"type":"Point","coordinates":[77.0789440674,10.4792358192]}},{"type":"Feature","properties":{"crop":"Jackfruit","tree_no":"378"},"geometry":{"type":"Point","coordinates":[77.079005166,10.4792388925]}},{"type":"Feature","properties":{"crop":"Jackfruit","tree_no":"377"},"geometry":{"type":"Point","coordinates":[77.0790611641,10.4792541318]}},{"type":"Feature","properties":{"crop":"Jackfruit","tree_no":"376"},"geometry":{"type":"Point","coordinates":[77.0791063446,10.4792623139]}},{"type":"Feature","properties":{"crop":"Jackfruit","tree_no":"375"},"geometry":{"type":"Point","coordinates":[77.0791782786,10.4792745144]}},{"type":"Feature","properties":{"crop":"Jackfruit","tree_no":"428"},"geometry":{"type":"Point","coordinates":[77.0791690445,10.4792094604]}},{"type":"Feature","properties":{"crop":"Jackfruit","tree_no":"427"},"geometry":{"type":"Point","coordinates":[77.0791047849,10.4792019566]}},{"type":"Feature","properties":{"crop":"Jackfruit","tree_no":"426"},"geometry":{"type":"Point","coordinates":[77.0790537419,10.4791980176]}},{"type":"Feature","properties":{"crop":"Jackfruit","tree_no":"425"},"geometry":{"type":"Point","coordinates":[77.0789914779,10.4791804723]}},{"type":"Feature","properties":{"crop":"Jackfruit","tree_no":"424"},"geometry":{"type":"Point","coordinates":[77.0789407552,10.4791734222]}},{"type":"Feature","properties":{"crop":"Jackfruit","tree_no":"423"},"geometry":{"type":"Point","coordinates":[77.0788824115,10.4791678853]}},{"type":"Feature","properties":{"crop":"Jackfruit","tree_no":"422"},"geometry":{"type":"Point","coordinates":[77.0788244028,10.4791609624]}},{"type":"Feature","properties":{"crop":"Jackfruit","tree_no":"382"},"geometry":{"type":"Point","coordinates":[77.078767936,10.4792123268]}},{"type":"Feature","properties":{"crop":"Jackfruit","tree_no":"383"},"geometry":{"type":"Point","coordinates":[77.0787189332,10.4792035212]}},{"type":"Feature","properties":{"crop":"Jackfruit","tree_no":"384"},"geometry":{"type":"Point","coordinates":[77.0786639937,10.4791903337]}},{"type":"Feature","properties":{"crop":"Jackfruit","tree_no":"385"},"geometry":{"type":"Point","coordinates":[77.0786039419,10.4791879321]}},{"type":"Feature","properties":{"crop":"Jackfruit","tree_no":"363"},"geometry":{"type":"Point","coordinates":[77.0785586597,10.4792335371]}},{"type":"Feature","properties":{"crop":"Jackfruit","tree_no":"362"},"geometry":{"type":"Point","coordinates":[77.0785016534,10.4792221109]}},{"type":"Feature","properties":{"crop":"Jackfruit","tree_no":"361"},"geometry":{"type":"Point","coordinates":[77.0784332125,10.4792126097]}},{"type":"Feature","properties":{"crop":"Jackfruit","tree_no":"360"},"geometry":{"type":"Point","coordinates":[77.0783789966,10.47920286]}},{"type":"Feature","properties":{"crop":"Jackfruit","tree_no":"359"},"geometry":{"type":"Point","coordinates":[77.0783258245,10.4791934371]}},{"type":"Feature","properties":{"crop":"Jackfruit","tree_no":"337"},"geometry":{"type":"Point","coordinates":[77.0782673351,10.4792517378]}},{"type":"Feature","properties":{"crop":"Jackfruit","tree_no":"338"},"geometry":{"type":"Point","coordinates":[77.0782140474,10.4792288598]}},{"type":"Feature","properties":{"crop":"Jackfruit","tree_no":"339"},"geometry":{"type":"Point","coordinates":[77.078159867,10.4792232502]}},{"type":"Feature","properties":{"crop":"Jackfruit","tree_no":"340"},"geometry":{"type":"Point","coordinates":[77.0781070952,10.4792200312]}},{"type":"Feature","properties":{"crop":"Jackfruit","tree_no":"341"},"geometry":{"type":"Point","coordinates":[77.0780507828,10.4792085928]}},{"type":"Feature","properties":{"crop":"Jackfruit","tree_no":"299"},"geometry":{"type":"Point","coordinates":[77.0779883613,10.479253505]}},{"type":"Feature","properties":{"crop":"Jackfruit","tree_no":"298"},"geometry":{"type":"Point","coordinates":[77.077935548,10.4792454561]}},{"type":"Feature","properties":{"crop":"Jackfruit","tree_no":"297"},"geometry":{"type":"Point","coordinates":[77.0778869129,10.4792390594]}},{"type":"Feature","properties":{"crop":"Jackfruit","tree_no":"291"},"geometry":{"type":"Point","coordinates":[77.0778210901,10.4792919672]}},{"type":"Feature","properties":{"crop":"Jackfruit","tree_no":"242"},"geometry":{"type":"Point","coordinates":[77.0777166996,10.4793389926]}},{"type":"Feature","properties":{"crop":"Jackfruit","tree_no":"293"},"geometry":{"type":"Point","coordinates":[77.0777107484,10.4792925142]}},{"type":"Feature","properties":{"crop":"Jackfruit","tree_no":"295"},"geometry":{"type":"Point","coordinates":[77.0777626221,10.4792315686]}},{"type":"Feature","properties":{"crop":"Jackfruit","tree_no":"292"},"geometry":{"type":"Point","coordinates":[77.0777644307,10.4792805348]}},{"type":"Feature","properties":{"crop":"Jackfruit","tree_no":"296"},"geometry":{"type":"Point","coordinates":[77.0778223507,10.4792367364]}},{"type":"Feature","properties":{"crop":"Jackfruit","tree_no":"344"},"geometry":{"type":"Point","coordinates":[77.0778795235,10.4791867401]}},{"type":"Feature","properties":{"crop":"Jackfruit","tree_no":"343"},"geometry":{"type":"Point","coordinates":[77.0779288791,10.4791962297]}},{"type":"Feature","properties":{"crop":"Jackfruit","tree_no":"342"},"geometry":{"type":"Point","coordinates":[77.0779878664,10.4791958896]}},{"type":"Feature","properties":{"crop":"Jackfruit","tree_no":"354"},"geometry":{"type":"Point","coordinates":[77.078036739,10.4791491437]}},{"type":"Feature","properties":{"crop":"Jackfruit","tree_no":"355"},"geometry":{"type":"Point","coordinates":[77.0780933599,10.479156091]}},{"type":"Feature","properties":{"crop":"Jackfruit","tree_no":"356"},"geometry":{"type":"Point","coordinates":[77.0781528897,10.4791785149]}},{"type":"Feature","properties":{"crop":"Jackfruit","tree_no":"358"},"geometry":{"type":"Point","coordinates":[77.0782695683,10.4791885538]}},{"type":"Feature","properties":{"crop":"Jackfruit","tree_no":"389"},"geometry":{"type":"Point","coordinates":[77.0783679871,10.4791482318]}},{"type":"Feature","properties":{"crop":"Jackfruit","tree_no":"388"},"geometry":{"type":"Point","coordinates":[77.0784409353,10.4791573092]}},{"type":"Feature","properties":{"crop":"Jackfruit","tree_no":"387"},"geometry":{"type":"Point","coordinates":[77.0784853507,10.4791572235]}},{"type":"Feature","properties":{"crop":"Jackfruit","tree_no":"386"},"geometry":{"type":"Point","coordinates":[77.0785409693,10.4791686739]}},{"type":"Feature","properties":{"crop":"Jackfruit","tree_no":"418"},"geometry":{"type":"Point","coordinates":[77.0785948814,10.4791228751]}},{"type":"Feature","properties":{"crop":"Jackfruit","tree_no":"419"},"geometry":{"type":"Point","coordinates":[77.0786470616,10.4791380086]}},{"type":"Feature","properties":{"crop":"Jackfruit","tree_no":"420"},"geometry":{"type":"Point","coordinates":[77.078715286,10.4791425103]}},{"type":"Feature","properties":{"crop":"Jackfruit","tree_no":"421"},"geometry":{"type":"Point","coordinates":[77.078768255,10.4791484861]}},{"type":"Feature","properties":{"crop":"Jackfruit","tree_no":"435"},"geometry":{"type":"Point","coordinates":[77.0788128084,10.4791038859]}},{"type":"Feature","properties":{"crop":"Jackfruit","tree_no":"434"},"geometry":{"type":"Point","coordinates":[77.0788729491,10.4791166375]}},{"type":"Feature","properties":{"crop":"Jackfruit","tree_no":"433"},"geometry":{"type":"Point","coordinates":[77.0789358061,10.4791224405]}},{"type":"Feature","properties":{"crop":"Jackfruit","tree_no":"432"},"geometry":{"type":"Point","coordinates":[77.078988655,10.4791346294]}},{"type":"Feature","properties":{"crop":"Jackfruit","tree_no":"431"},"geometry":{"type":"Point","coordinates":[77.0790423698,10.4791466306]}},{"type":"Feature","properties":{"crop":"Jackfruit","tree_no":"430"},"geometry":{"type":"Point","coordinates":[77.0790998476,10.479152355]}},{"type":"Feature","properties":{"crop":"Jackfruit","tree_no":"429"},"geometry":{"type":"Point","coordinates":[77.0791615007,10.4791593868]}},{"type":"Feature","properties":{"crop":"Jackfruit","tree_no":"482"},"geometry":{"type":"Point","coordinates":[77.0791547338,10.4790987754]}},{"type":"Feature","properties":{"crop":"Jackfruit","tree_no":"481"},"geometry":{"type":"Point","coordinates":[77.0790949815,10.4790908478]}},{"type":"Feature","properties":{"crop":"Jackfruit","tree_no":"480"},"geometry":{"type":"Point","coordinates":[77.0790345117,10.4790801723]}},{"type":"Feature","properties":{"crop":"Jackfruit","tree_no":"479"},"geometry":{"type":"Point","coordinates":[77.0789806768,10.4790743842]}},{"type":"Feature","properties":{"crop":"Jackfruit","tree_no":"478"},"geometry":{"type":"Point","coordinates":[77.0789266314,10.4790642866]}},{"type":"Feature","properties":{"crop":"Jackfruit","tree_no":"477"},"geometry":{"type":"Point","coordinates":[77.0788621864,10.4790554058]}},{"type":"Feature","properties":{"crop":"Jackfruit","tree_no":"436"},"geometry":{"type":"Point","coordinates":[77.0787634438,10.4790933614]}},{"type":"Feature","properties":{"crop":"Jackfruit","tree_no":"437"},"geometry":{"type":"Point","coordinates":[77.07870408,10.4790902577]}},{"type":"Feature","properties":{"crop":"Jackfruit","tree_no":"438"},"geometry":{"type":"Point","coordinates":[77.078644384,10.4790888851]}},{"type":"Feature","properties":{"crop":"Jackfruit","tree_no":"439"},"geometry":{"type":"Point","coordinates":[77.0785876624,10.4790702078]}},{"type":"Feature","properties":{"crop":"Jackfruit","tree_no":"417"},"geometry":{"type":"Point","coordinates":[77.0785366548,10.4791107801]}},{"type":"Feature","properties":{"crop":"Jackfruit","tree_no":"416"},"geometry":{"type":"Point","coordinates":[77.0784845414,10.4791034091]}},{"type":"Feature","properties":{"crop":"Jackfruit","tree_no":"415"},"geometry":{"type":"Point","coordinates":[77.0784241189,10.4790982535]}},{"type":"Feature","properties":{"crop":"Jackfruit","tree_no":"414"},"geometry":{"type":"Point","coordinates":[77.078360909,10.4790917664]}},{"type":"Feature","properties":{"crop":"Jackfruit","tree_no":"390"},"geometry":{"type":"Point","coordinates":[77.0783124101,10.4791416113]}},{"type":"Feature","properties":{"crop":"Jackfruit","tree_no":"391"},"geometry":{"type":"Point","coordinates":[77.0782629358,10.4791183217]}},{"type":"Feature","properties":{"crop":"Jackfruit","tree_no":"392"},"geometry":{"type":"Point","coordinates":[77.0781975523,10.4791213615]}},{"type":"Feature","properties":{"crop":"Jackfruit","tree_no":"393"},"geometry":{"type":"Point","coordinates":[77.0781381351,10.4791120477]}},{"type":"Feature","properties":{"crop":"Jackfruit","tree_no":"394"},"geometry":{"type":"Point","coordinates":[77.0780818256,10.4791009543]}},{"type":"Feature","properties":{"crop":"Jackfruit","tree_no":"395"},"geometry":{"type":"Point","coordinates":[77.0780302577,10.4790965066]}},{"type":"Feature","properties":{"crop":"Jackfruit","tree_no":"353"},"geometry":{"type":"Point","coordinates":[77.0779811383,10.4791397632]}},{"type":"Feature","properties":{"crop":"Jackfruit","tree_no":"352"},"geometry":{"type":"Point","coordinates":[77.0779238235,10.4791328279]}},{"type":"Feature","properties":{"crop":"Jackfruit","tree_no":"345"},"geometry":{"type":"Point","coordinates":[77.0778194153,10.4791777833]}},{"type":"Feature","properties":{"crop":"Jackfruit","tree_no":"294"},"geometry":{"type":"Point","coordinates":[77.0777085188,10.4792349289]}},{"type":"Feature","properties":{"crop":"Jackfruit","tree_no":"347"},"geometry":{"type":"Point","coordinates":[77.0776979031,10.4791705891]}},{"type":"Feature","properties":{"crop":"Jackfruit","tree_no":"346"},"geometry":{"type":"Point","coordinates":[77.0777519857,10.4791648138]}},{"type":"Feature","properties":{"crop":"Jackfruit","tree_no":"350"},"geometry":{"type":"Point","coordinates":[77.0778095024,10.4791144664]}},{"type":"Feature","properties":{"crop":"Jackfruit","tree_no":"351"},"geometry":{"type":"Point","coordinates":[77.0778675318,10.4791238045]}},{"type":"Feature","properties":{"crop":"Jackfruit","tree_no":"397"},"geometry":{"type":"Point","coordinates":[77.077914193,10.4790771404]}},{"type":"Feature","properties":{"crop":"Jackfruit","tree_no":"396"},"geometry":{"type":"Point","coordinates":[77.077964207,10.4790824779]}},{"type":"Feature","properties":{"crop":"Jackfruit","tree_no":"408"},"geometry":{"type":"Point","coordinates":[77.0780252347,10.4790368999]}},{"type":"Feature","properties":{"crop":"Jackfruit","tree_no":"409"},"geometry":{"type":"Point","coordinates":[77.0780749254,10.4790450034]}},{"type":"Feature","properties":{"crop":"Jackfruit","tree_no":"410"},"geometry":{"type":"Point","coordinates":[77.0781412638,10.479052126]}},{"type":"Feature","properties":{"crop":"Jackfruit","tree_no":"411"},"geometry":{"type":"Point","coordinates":[77.0781954738,10.4790611858]}},{"type":"Feature","properties":{"crop":"Jackfruit","tree_no":"412"},"geometry":{"type":"Point","coordinates":[77.078255576,10.4790694525]}},{"type":"Feature","properties":{"crop":"Jackfruit","tree_no":"413"},"geometry":{"type":"Point","coordinates":[77.078304217,10.4790765391]}},{"type":"Feature","properties":{"crop":"Jackfruit","tree_no":"443"},"geometry":{"type":"Point","coordinates":[77.0783618226,10.4790365417]}},{"type":"Feature","properties":{"crop":"Jackfruit","tree_no":"442"},"geometry":{"type":"Point","coordinates":[77.0784156885,10.4790459525]}},{"type":"Feature","properties":{"crop":"Jackfruit","tree_no":"441"},"geometry":{"type":"Point","coordinates":[77.078476799,10.4790504059]}},{"type":"Feature","properties":{"crop":"Jackfruit","tree_no":"440"},"geometry":{"type":"Point","coordinates":[77.0785317443,10.4790642835]}},{"type":"Feature","properties":{"crop":"Jackfruit","tree_no":"472"},"geometry":{"type":"Point","coordinates":[77.0785773386,10.4790196651]}},{"type":"Feature","properties":{"crop":"Jackfruit","tree_no":"473"},"geometry":{"type":"Point","coordinates":[77.0786370435,10.4790220728]}},{"type":"Feature","properties":{"crop":"Jackfruit","tree_no":"474"},"geometry":{"type":"Point","coordinates":[77.0786968016,10.4790306904]}},{"type":"Feature","properties":{"crop":"Jackfruit","tree_no":"475"},"geometry":{"type":"Point","coordinates":[77.0787558393,10.4790362152]}},{"type":"Feature","properties":{"crop":"Jackfruit","tree_no":"476"},"geometry":{"type":"Point","coordinates":[77.0788065946,10.4790470604]}},{"type":"Feature","properties":{"crop":"Jackfruit","tree_no":"488"},"geometry":{"type":"Point","coordinates":[77.0788551201,10.4790003205]}},{"type":"Feature","properties":{"crop":"Jackfruit","tree_no":"487"},"geometry":{"type":"Point","coordinates":[77.0789145402,10.4790099792]}},{"type":"Feature","properties":{"crop":"Jackfruit","tree_no":"486"},"geometry":{"type":"Point","coordinates":[77.0789677538,10.479024232]}},{"type":"Feature","properties":{"crop":"Jackfruit","tree_no":"485"},"geometry":{"type":"Point","coordinates":[77.0790226191,10.4790287944]}},{"type":"Feature","properties":{"crop":"Jackfruit","tree_no":"484"},"geometry":{"type":"Point","coordinates":[77.0790879463,10.4790393851]}},{"type":"Feature","properties":{"crop":"Jackfruit","tree_no":"483"},"geometry":{"type":"Point","coordinates":[77.0791470284,10.4790500848]}},{"type":"Feature","properties":{"crop":"Jackfruit","tree_no":"536"},"geometry":{"type":"Point","coordinates":[77.0791416226,10.4789863441]}},{"type":"Feature","properties":{"crop":"Jackfruit","tree_no":"535"},"geometry":{"type":"Point","coordinates":[77.0790846222,10.4789756081]}},{"type":"Feature","properties":{"crop":"Jackfruit","tree_no":"534"},"geometry":{"type":"Point","coordinates":[77.0790204071,10.4789732793]}},{"type":"Feature","properties":{"crop":"Jackfruit","tree_no":"533"},"geometry":{"type":"Point","coordinates":[77.078964065,10.478958391]}},{"type":"Feature","properties":{"crop":"Jackfruit","tree_no":"532"},"geometry":{"type":"Point","coordinates":[77.0789004578,10.4789460451]}},{"type":"Feature","properties":{"crop":"Jackfruit","tree_no":"531"},"geometry":{"type":"Point","coordinates":[77.0788511466,10.4789417306]}},{"type":"Feature","properties":{"crop":"Jackfruit","tree_no":"489"},"geometry":{"type":"Point","coordinates":[77.0787977668,10.4789889004]}},{"type":"Feature","properties":{"crop":"Jackfruit","tree_no":"490"},"geometry":{"type":"Point","coordinates":[77.0787449683,10.4789825766]}},{"type":"Feature","properties":{"crop":"Jackfruit","tree_no":"491"},"geometry":{"type":"Point","coordinates":[77.0786886974,10.4789759683]}},{"type":"Feature","properties":{"crop":"Jackfruit","tree_no":"492"},"geometry":{"type":"Point","coordinates":[77.0786296124,10.4789649235]}},{"type":"Feature","properties":{"crop":"Jackfruit","tree_no":"493"},"geometry":{"type":"Point","coordinates":[77.0785708773,10.4789542176]}},{"type":"Feature","properties":{"crop":"Jackfruit","tree_no":"471"},"geometry":{"type":"Point","coordinates":[77.0785193003,10.4790092921]}},{"type":"Feature","properties":{"crop":"Jackfruit","tree_no":"470"},"geometry":{"type":"Point","coordinates":[77.0784642809,10.4789867895]}},{"type":"Feature","properties":{"crop":"Jackfruit","tree_no":"469"},"geometry":{"type":"Point","coordinates":[77.0784111651,10.4789839217]}},{"type":"Feature","properties":{"crop":"Jackfruit","tree_no":"468"},"geometry":{"type":"Point","coordinates":[77.0783520949,10.4789746018]}},{"type":"Feature","properties":{"crop":"Jackfruit","tree_no":"444"},"geometry":{"type":"Point","coordinates":[77.078298242,10.4790273007]}},{"type":"Feature","properties":{"crop":"Jackfruit","tree_no":"445"},"geometry":{"type":"Point","coordinates":[77.0782388426,10.4790200569]}},{"type":"Feature","properties":{"crop":"Jackfruit","tree_no":"446"},"geometry":{"type":"Point","coordinates":[77.0781755556,10.4790045996]}},{"type":"Feature","properties":{"crop":"Jackfruit","tree_no":"447"},"geometry":{"type":"Point","coordinates":[77.0781164617,10.4789925197]}},{"type":"Feature","properties":{"crop":"Jackfruit","tree_no":"448"},"geometry":{"type":"Point","coordinates":[77.0780685176,10.4789857659]}},{"type":"Feature","properties":{"crop":"Jackfruit","tree_no":"407"},"geometry":{"type":"Point","coordinates":[77.0779682284,10.4790254736]}},{"type":"Feature","properties":{"crop":"Jackfruit","tree_no":"406"},"geometry":{"type":"Point","coordinates":[77.0779182262,10.4790215162]}},{"type":"Feature","properties":{"crop":"Jackfruit","tree_no":"398"},"geometry":{"type":"Point","coordinates":[77.0778516118,10.479063051]}},{"type":"Feature","properties":{"crop":"Jackfruit","tree_no":"399"},"geometry":{"type":"Point","coordinates":[77.077793959,10.4790571569]}},{"type":"Feature","properties":{"crop":"Jackfruit","tree_no":"349"},"geometry":{"type":"Point","coordinates":[77.0777477159,10.479112095]}},{"type":"Feature","properties":{"crop":"Jackfruit","tree_no":"348"},"geometry":{"type":"Point","coordinates":[77.0776881265,10.4791231423]}},{"type":"Feature","properties":{"crop":"Jackfruit","tree_no":"401"},"geometry":{"type":"Point","coordinates":[77.0776844061,10.4790636853]}},{"type":"Feature","properties":{"crop":"Jackfruit","tree_no":"400"},"geometry":{"type":"Point","coordinates":[77.0777370416,10.4790560806]}},{"type":"Feature","properties":{"crop":"Jackfruit","tree_no":"404"},"geometry":{"type":"Point","coordinates":[77.0777931172,10.4789995474]}},{"type":"Feature","properties":{"crop":"Jackfruit","tree_no":"405"},"geometry":{"type":"Point","coordinates":[77.0778438606,10.4790090128]}},{"type":"Feature","properties":{"crop":"Jackfruit","tree_no":"451"},"geometry":{"type":"Point","coordinates":[77.0778934301,10.4789625998]}},{"type":"Feature","properties":{"crop":"Jackfruit","tree_no":"450"},"geometry":{"type":"Point","coordinates":[77.0779553293,10.4789780813]}},{"type":"Feature","properties":{"crop":"Jackfruit","tree_no":"462"},"geometry":{"type":"Point","coordinates":[77.0780106471,10.4789343284]}},{"type":"Feature","properties":{"crop":"Jackfruit","tree_no":"449"},"geometry":{"type":"Point","coordinates":[77.0780129583,10.4789812155]}},{"type":"Feature","properties":{"crop":"Jackfruit","tree_no":"463"},"geometry":{"type":"Point","coordinates":[77.0780637273,10.4789330562]}},{"type":"Feature","properties":{"crop":"Jackfruit","tree_no":"464"},"geometry":{"type":"Point","coordinates":[77.0781172018,10.4789372981]}},{"type":"Feature","properties":{"crop":"Jackfruit","tree_no":"465"},"geometry":{"type":"Point","coordinates":[77.0781710945,10.4789498139]}},{"type":"Feature","properties":{"crop":"Jackfruit","tree_no":"466"},"geometry":{"type":"Point","coordinates":[77.078234334,10.478959751]}},{"type":"Feature","properties":{"crop":"Jackfruit","tree_no":"467"},"geometry":{"type":"Point","coordinates":[77.0782920194,10.4789694402]}},{"type":"Feature","properties":{"crop":"Jackfruit","tree_no":"497"},"geometry":{"type":"Point","coordinates":[77.0783408653,10.4789195892]}},{"type":"Feature","properties":{"crop":"Jackfruit","tree_no":"496"},"geometry":{"type":"Point","coordinates":[77.0783978271,10.4789258404]}},{"type":"Feature","properties":{"crop":"Jackfruit","tree_no":"495"},"geometry":{"type":"Point","coordinates":[77.0784541395,10.4789372788]}},{"type":"Feature","properties":{"crop":"Jackfruit","tree_no":"494"},"geometry":{"type":"Point","coordinates":[77.0785107722,10.478945606]}},{"type":"Feature","properties":{"crop":"Jackfruit","tree_no":"526"},"geometry":{"type":"Point","coordinates":[77.0785658719,10.4788966809]}},{"type":"Feature","properties":{"crop":"Jackfruit","tree_no":"527"},"geometry":{"type":"Point","coordinates":[77.0786208499,10.4789143536]}},{"type":"Feature","properties":{"crop":"Jackfruit","tree_no":"528"},"geometry":{"type":"Point","coordinates":[77.0786792114,10.4789219605]}},{"type":"Feature","properties":{"crop":"Jackfruit","tree_no":"529"},"geometry":{"type":"Point","coordinates":[77.0787330062,10.4789230911]}},{"type":"Feature","properties":{"crop":"Jackfruit","tree_no":"530"},"geometry":{"type":"Point","coordinates":[77.078794511,10.4789330585]}},{"type":"Feature","properties":{"crop":"Jackfruit","tree_no":"542"},"geometry":{"type":"Point","coordinates":[77.0788430587,10.4788889061]}},{"type":"Feature","properties":{"crop":"Jackfruit","tree_no":"541"},"geometry":{"type":"Point","coordinates":[77.0788972686,10.4788979657]}},{"type":"Feature","properties":{"crop":"Jackfruit","tree_no":"540"},"geometry":{"type":"Point","coordinates":[77.0789498269,10.4789167156]}},{"type":"Feature","properties":{"crop":"Jackfruit","tree_no":"539"},"geometry":{"type":"Point","coordinates":[77.0790105607,10.478917725]}},{"type":"Feature","properties":{"crop":"Jackfruit","tree_no":"538"},"geometry":{"type":"Point","coordinates":[77.0790716859,10.4789239033]}},{"type":"Feature","properties":{"crop":"Jackfruit","tree_no":"537"},"geometry":{"type":"Point","coordinates":[77.0791292526,10.4789197922]}},{"type":"Feature","properties":{"crop":"Jackfruit","tree_no":"590"},"geometry":{"type":"Point","coordinates":[77.0791205108,10.4788716373]}},{"type":"Feature","properties":{"crop":"Jackfruit","tree_no":"589"},"geometry":{"type":"Point","coordinates":[77.0790705354,10.4788707851]}},{"type":"Feature","properties":{"crop":"Jackfruit","tree_no":"588"},"geometry":{"type":"Point","coordinates":[77.0790023882,10.4788550679]}},{"type":"Feature","properties":{"crop":"Jackfruit","tree_no":"587"},"geometry":{"type":"Point","coordinates":[77.0789423217,10.4788509413]}},{"type":"Feature","properties":{"crop":"Jackfruit","tree_no":"586"},"geometry":{"type":"Point","coordinates":[77.0788922899,10.478843534]}},{"type":"Feature","properties":{"crop":"Jackfruit","tree_no":"585"},"geometry":{"type":"Point","coordinates":[77.0788346016,10.4788335]}},{"type":"Feature","properties":{"crop":"Jackfruit","tree_no":"543"},"geometry":{"type":"Point","coordinates":[77.0787833154,10.4788820134]}},{"type":"Feature","properties":{"crop":"Jackfruit","tree_no":"544"},"geometry":{"type":"Point","coordinates":[77.0787242437,10.4788725211]}},{"type":"Feature","properties":{"crop":"Jackfruit","tree_no":"545"},"geometry":{"type":"Point","coordinates":[77.0786749177,10.4788664817]}},{"type":"Feature","properties":{"crop":"Jackfruit","tree_no":"546"},"geometry":{"type":"Point","coordinates":[77.0786149386,10.478852347]}},{"type":"Feature","properties":{"crop":"Jackfruit","tree_no":"547"},"geometry":{"type":"Point","coordinates":[77.0785600718,10.478847612]}},{"type":"Feature","properties":{"crop":"Jackfruit","tree_no":"525"},"geometry":{"type":"Point","coordinates":[77.0785061523,10.4788925483]}},{"type":"Feature","properties":{"crop":"Jackfruit","tree_no":"524"},"geometry":{"type":"Point","coordinates":[77.0784453503,10.4788836038]}},{"type":"Feature","properties":{"crop":"Jackfruit","tree_no":"523"},"geometry":{"type":"Point","coordinates":[77.0783893997,10.4788738844]}},{"type":"Feature","properties":{"crop":"Jackfruit","tree_no":"522"},"geometry":{"type":"Point","coordinates":[77.078327889,10.4788632269]}},{"type":"Feature","properties":{"crop":"Jackfruit","tree_no":"498"},"geometry":{"type":"Point","coordinates":[77.0782839686,10.4789209281]}},{"type":"Feature","properties":{"crop":"Jackfruit","tree_no":"499"},"geometry":{"type":"Point","coordinates":[77.0782203673,10.478909272]}},{"type":"Feature","properties":{"crop":"Jackfruit","tree_no":"500"},"geometry":{"type":"Point","coordinates":[77.0781574155,10.4788924287]}},{"type":"Feature","properties":{"crop":"Jackfruit","tree_no":"501"},"geometry":{"type":"Point","coordinates":[77.0781046111,10.4788854147]}},{"type":"Feature","properties":{"crop":"Jackfruit","tree_no":"502"},"geometry":{"type":"Point","coordinates":[77.0780555847,10.478873849]}},{"type":"Feature","properties":{"crop":"Jackfruit","tree_no":"461"},"geometry":{"type":"Point","coordinates":[77.0779466425,10.4789161232]}},{"type":"Feature","properties":{"crop":"Jackfruit","tree_no":"460"},"geometry":{"type":"Point","coordinates":[77.0778892834,10.478904013]}},{"type":"Feature","properties":{"crop":"Jackfruit","tree_no":"452"},"geometry":{"type":"Point","coordinates":[77.0778432324,10.4789358722]}},{"type":"Feature","properties":{"crop":"Jackfruit","tree_no":"453"},"geometry":{"type":"Point","coordinates":[77.0777850102,10.4789444803]}},{"type":"Feature","properties":{"crop":"Jackfruit","tree_no":"403"},"geometry":{"type":"Point","coordinates":[77.0777320067,10.4789950939]}},{"type":"Feature","properties":{"crop":"Jackfruit","tree_no":"455"},"geometry":{"type":"Point","coordinates":[77.0776760149,10.4789401729]}},{"type":"Feature","properties":{"crop":"Jackfruit","tree_no":"454"},"geometry":{"type":"Point","coordinates":[77.0777301922,10.4789454377]}},{"type":"Feature","properties":{"crop":"Jackfruit","tree_no":"458"},"geometry":{"type":"Point","coordinates":[77.0777812252,10.4788876123]}},{"type":"Feature","properties":{"crop":"Jackfruit","tree_no":"459"},"geometry":{"type":"Point","coordinates":[77.0778277697,10.4788930104]}},{"type":"Feature","properties":{"crop":"Jackfruit","tree_no":"505"},"geometry":{"type":"Point","coordinates":[77.0778718265,10.4788511794]}},{"type":"Feature","properties":{"crop":"Jackfruit","tree_no":"504"},"geometry":{"type":"Point","coordinates":[77.0779305468,10.4788601604]}},{"type":"Feature","properties":{"crop":"Jackfruit","tree_no":"503"},"geometry":{"type":"Point","coordinates":[77.0779940858,10.4788645715]}},{"type":"Feature","properties":{"crop":"Jackfruit","tree_no":"517"},"geometry":{"type":"Point","coordinates":[77.0780438258,10.4788178105]}},{"type":"Feature","properties":{"crop":"Jackfruit","tree_no":"518"},"geometry":{"type":"Point","coordinates":[77.0780993049,10.4788332316]}},{"type":"Feature","properties":{"crop":"Jackfruit","tree_no":"519"},"geometry":{"type":"Point","coordinates":[77.078158341,10.478838584]}},{"type":"Feature","properties":{"crop":"Jackfruit","tree_no":"520"},"geometry":{"type":"Point","coordinates":[77.0782212483,10.4788502522]}},{"type":"Feature","properties":{"crop":"Jackfruit","tree_no":"521"},"geometry":{"type":"Point","coordinates":[77.0782747229,10.478854494]}},{"type":"Feature","properties":{"crop":"Jackfruit","tree_no":"551"},"geometry":{"type":"Point","coordinates":[77.0783213432,10.4788081325]}},{"type":"Feature","properties":{"crop":"Jackfruit","tree_no":"550"},"geometry":{"type":"Point","coordinates":[77.0783785363,10.4788211082]}},{"type":"Feature","properties":{"crop":"Jackfruit","tree_no":"549"},"geometry":{"type":"Point","coordinates":[77.0784398883,10.4788334937]}},{"type":"Feature","properties":{"crop":"Jackfruit","tree_no":"548"},"geometry":{"type":"Point","coordinates":[77.0784952518,10.4788354596]}},{"type":"Feature","properties":{"crop":"Jackfruit","tree_no":"581"},"geometry":{"type":"Point","coordinates":[77.0786000764,10.4787986056]}},{"type":"Feature","properties":{"crop":"Jackfruit","tree_no":"582"},"geometry":{"type":"Point","coordinates":[77.0786671145,10.478806406]}},{"type":"Feature","properties":{"crop":"Jackfruit","tree_no":"583"},"geometry":{"type":"Point","coordinates":[77.0787178727,10.4788175962]}},{"type":"Feature","properties":{"crop":"Jackfruit","tree_no":"584"},"geometry":{"type":"Point","coordinates":[77.0787793627,10.4788258386]}},{"type":"Feature","properties":{"crop":"Jackfruit","tree_no":"596"},"geometry":{"type":"Point","coordinates":[77.0788162431,10.4787767142]}},{"type":"Feature","properties":{"crop":"Jackfruit","tree_no":"595"},"geometry":{"type":"Point","coordinates":[77.0788746402,10.4787884611]}},{"type":"Feature","properties":{"crop":"Jackfruit","tree_no":"594"},"geometry":{"type":"Point","coordinates":[77.0789380264,10.4787952901]}},{"type":"Feature","properties":{"crop":"Jackfruit","tree_no":"593"},"geometry":{"type":"Point","coordinates":[77.0789934448,10.4788036384]}},{"type":"Feature","properties":{"crop":"Jackfruit","tree_no":"592"},"geometry":{"type":"Point","coordinates":[77.0790574226,10.4788187384]}},{"type":"Feature","properties":{"crop":"Jackfruit","tree_no":"597"},"geometry":{"type":"Point","coordinates":[77.0787661729,10.4787648218]}},{"type":"Feature","properties":{"crop":"Jackfruit","tree_no":"598"},"geometry":{"type":"Point","coordinates":[77.0787127458,10.4787661001]}},{"type":"Feature","properties":{"crop":"Jackfruit","tree_no":"599"},"geometry":{"type":"Point","coordinates":[77.0786500964,10.4787440758]}},{"type":"Feature","properties":{"crop":"Jackfruit","tree_no":"600"},"geometry":{"type":"Point","coordinates":[77.0785919678,10.4787433659]}},{"type":"Feature","properties":{"crop":"Jackfruit","tree_no":"580"},"geometry":{"type":"Point","coordinates":[77.0785413472,10.4787885897]}},{"type":"Feature","properties":{"crop":"Jackfruit","tree_no":"579"},"geometry":{"type":"Point","coordinates":[77.078485708,10.4787747242]}},{"type":"Feature","properties":{"crop":"Jackfruit","tree_no":"578"},"geometry":{"type":"Point","coordinates":[77.0784301132,10.4787660337]}},{"type":"Feature","properties":{"crop":"Jackfruit","tree_no":"577"},"geometry":{"type":"Point","coordinates":[77.0783713485,10.4787518778]}},{"type":"Feature","properties":{"crop":"Jackfruit","tree_no":"552"},"geometry":{"type":"Point","coordinates":[77.0782702795,10.4788017783]}},{"type":"Feature","properties":{"crop":"Jackfruit","tree_no":"553"},"geometry":{"type":"Point","coordinates":[77.0782136587,10.478794831]}},{"type":"Feature","properties":{"crop":"Jackfruit","tree_no":"554"},"geometry":{"type":"Point","coordinates":[77.0781556057,10.4787827329]}},{"type":"Feature","properties":{"crop":"Jackfruit","tree_no":"555"},"geometry":{"type":"Point","coordinates":[77.0780979648,10.4787782188]}},{"type":"Feature","properties":{"crop":"Jackfruit","tree_no":"556"},"geometry":{"type":"Point","coordinates":[77.0780357395,10.4787651584]}},{"type":"Feature","properties":{"crop":"Jackfruit","tree_no":"516"},"geometry":{"type":"Point","coordinates":[77.0779875697,10.4788129271]}},{"type":"Feature","properties":{"crop":"Jackfruit","tree_no":"515"},"geometry":{"type":"Point","coordinates":[77.0779295122,10.4788003115]}},{"type":"Feature","properties":{"crop":"Jackfruit","tree_no":"506"},"geometry":{"type":"Point","coordinates":[77.0778259552,10.4788433542]}},{"type":"Feature","properties":{"crop":"Jackfruit","tree_no":"457"},"geometry":{"type":"Point","coordinates":[77.077724293,10.4788848111]}},{"type":"Feature","properties":{"crop":"Jackfruit","tree_no":"456"},"geometry":{"type":"Point","coordinates":[77.0776618926,10.4788917668]}},{"type":"Feature","properties":{"crop":"Jackfruit","tree_no":"508"},"geometry":{"type":"Point","coordinates":[77.0777074382,10.4788212703]}},{"type":"Feature","properties":{"crop":"Jackfruit","tree_no":"507"},"geometry":{"type":"Point","coordinates":[77.0777668968,10.4788354143]}},{"type":"Feature","properties":{"crop":"Jackfruit","tree_no":"513"},"geometry":{"type":"Point","coordinates":[77.0778188135,10.4787794713]}},{"type":"Feature","properties":{"crop":"Jackfruit","tree_no":"514"},"geometry":{"type":"Point","coordinates":[77.077877034,10.4787908764]}},{"type":"Feature","properties":{"crop":"Jackfruit","tree_no":"558"},"geometry":{"type":"Point","coordinates":[77.0779235447,10.4787519355]}},{"type":"Feature","properties":{"crop":"Jackfruit","tree_no":"557"},"geometry":{"type":"Point","coordinates":[77.0779788162,10.4787633921]}},{"type":"Feature","properties":{"crop":"Jackfruit","tree_no":"571"},"geometry":{"type":"Point","coordinates":[77.0780315675,10.478703639]}},{"type":"Feature","properties":{"crop":"Jackfruit","tree_no":"572"},"geometry":{"type":"Point","coordinates":[77.0780922582,10.4787198317]}},{"type":"Feature","properties":{"crop":"Jackfruit","tree_no":"573"},"geometry":{"type":"Point","coordinates":[77.0781470139,10.4787116292]}},{"type":"Feature","properties":{"crop":"Jackfruit","tree_no":"574"},"geometry":{"type":"Point","coordinates":[77.0782089307,10.4787291807]}},{"type":"Feature","properties":{"crop":"Jackfruit","tree_no":"575"},"geometry":{"type":"Point","coordinates":[77.0782626232,10.4787385945]}},{"type":"Feature","properties":{"crop":"Jackfruit","tree_no":"576"},"geometry":{"type":"Point","coordinates":[77.0783175241,10.4787472971]}},{"type":"Feature","properties":{"crop":"Jackfruit","tree_no":"604"},"geometry":{"type":"Point","coordinates":[77.0783656908,10.4786991833]}},{"type":"Feature","properties":{"crop":"Jackfruit","tree_no":"603"},"geometry":{"type":"Point","coordinates":[77.0784162919,10.4787122741]}},{"type":"Feature","properties":{"crop":"Jackfruit","tree_no":"602"},"geometry":{"type":"Point","coordinates":[77.0784816115,10.4787220024]}},{"type":"Feature","properties":{"crop":"Jackfruit","tree_no":"601"},"geometry":{"type":"Point","coordinates":[77.0785344396,10.4787317763]}},{"type":"Feature","properties":{"crop":"Jackfruit","tree_no":"605"},"geometry":{"type":"Point","coordinates":[77.0783102577,10.4786891097]}},{"type":"Feature","properties":{"crop":"Jackfruit","tree_no":"606"},"geometry":{"type":"Point","coordinates":[77.0782487752,10.4786817298]}},{"type":"Feature","properties":{"crop":"Jackfruit","tree_no":"607"},"geometry":{"type":"Point","coordinates":[77.0781976834,10.478672098]}},{"type":"Feature","properties":{"crop":"Jackfruit","tree_no":"608"},"geometry":{"type":"Point","coordinates":[77.078133999,10.4786709675]}},{"type":"Feature","properties":{"crop":"Jackfruit","tree_no":"609"},"geometry":{"type":"Point","coordinates":[77.0780732921,10.4786528773]}},{"type":"Feature","properties":{"crop":"Jackfruit","tree_no":"570"},"geometry":{"type":"Point","coordinates":[77.0779695898,10.4786992006]}},{"type":"Feature","properties":{"crop":"Jackfruit","tree_no":"569"},"geometry":{"type":"Point","coordinates":[77.0779103432,10.4786895387]}},{"type":"Feature","properties":{"crop":"Jackfruit","tree_no":"559"},"geometry":{"type":"Point","coordinates":[77.0778630808,10.4787419498]}},{"type":"Feature","properties":{"crop":"Jackfruit","tree_no":"560"},"geometry":{"type":"Point","coordinates":[77.0778088471,10.47873013]}},{"type":"Feature","properties":{"crop":"Jackfruit","tree_no":"512"},"geometry":{"type":"Point","coordinates":[77.077760108,10.4787722153]}},{"type":"Feature","properties":{"crop":"Jackfruit","tree_no":"511"},"geometry":{"type":"Point","coordinates":[77.0777048602,10.4787635186]}},{"type":"Feature","properties":{"crop":"Jackfruit","tree_no":"510"},"geometry":{"type":"Point","coordinates":[77.0776390096,10.4787727775]}},{"type":"Feature","properties":{"crop":"Jackfruit","tree_no":"562"},"geometry":{"type":"Point","coordinates":[77.0776990751,10.4787161746]}},{"type":"Feature","properties":{"crop":"Jackfruit","tree_no":"561"},"geometry":{"type":"Point","coordinates":[77.0777508297,10.4787221718]}},{"type":"Feature","properties":{"crop":"Jackfruit","tree_no":"567"},"geometry":{"type":"Point","coordinates":[77.0777981128,10.4786721757]}},{"type":"Feature","properties":{"crop":"Jackfruit","tree_no":"568"},"geometry":{"type":"Point","coordinates":[77.07785581,10.478683245]}},{"type":"Feature","properties":{"crop":"Jackfruit","tree_no":"612"},"geometry":{"type":"Point","coordinates":[77.0778960772,10.4786244]}},{"type":"Feature","properties":{"crop":"Jackfruit","tree_no":"611"},"geometry":{"type":"Point","coordinates":[77.077957997,10.4786422965]}},{"type":"Feature","properties":{"crop":"Jackfruit","tree_no":"610"},"geometry":{"type":"Point","coordinates":[77.078026927,10.4786481662]}},{"type":"Feature","properties":{"crop":"Jackfruit","tree_no":"613"},"geometry":{"type":"Point","coordinates":[77.0778416448,10.4786298364]}},{"type":"Feature","properties":{"crop":"Jackfruit","tree_no":"614"},"geometry":{"type":"Point","coordinates":[77.0777850745,10.4786085683]}},{"type":"Feature","properties":{"crop":"Jackfruit","tree_no":"566"},"geometry":{"type":"Point","coordinates":[77.0777439266,10.478665876]}},{"type":"Feature","properties":{"crop":"Jackfruit","tree_no":"565"},"geometry":{"type":"Point","coordinates":[77.0776867662,10.4786566951]}},{"type":"Feature","properties":{"crop":"Jackfruit","tree_no":"564"},"geometry":{"type":"Point","coordinates":[77.0776290392,10.4786623616]}},{"type":"Feature","properties":{"crop":"Jackfruit","tree_no":"617"},"geometry":{"type":"Point","coordinates":[77.0776284481,10.4785935335]}},{"type":"Feature","properties":{"crop":"Jackfruit","tree_no":"616"},"geometry":{"type":"Point","coordinates":[77.0776789602,10.4785962744]}},{"type":"Feature","properties":{"crop":"Jackfruit","tree_no":"615"},"geometry":{"type":"Point","coordinates":[77.0777342436,10.478609111]}},{"type":"Feature","properties":{"crop":"Jackfruit","tree_no":"3"},"geometry":{"type":"Point","coordinates":[77.0791451766,10.4798791288]}},{"type":"Feature","properties":{"crop":"Jackfruit","tree_no":"14"},"geometry":{"type":"Point","coordinates":[77.0783711849,10.4798914083]}},{"type":"Feature","properties":{"crop":"Jackfruit","tree_no":"23"},"geometry":{"type":"Point","coordinates":[77.0781779468,10.4798951021]}},{"type":"Feature","properties":{"crop":"Jackfruit","tree_no":"95"},"geometry":{"type":"Point","coordinates":[77.0780721449,10.4798209346]}},{"type":"Feature","properties":{"crop":"Jackfruit","tree_no":"25"},"geometry":{"type":"Point","coordinates":[77.0780098085,10.4799061972]}},{"type":"Feature","properties":{"crop":"Jackfruit","tree_no":"24"},"geometry":{"type":"Point","coordinates":[77.0779614364,10.4799148469]}},{"type":"Feature","properties":{"crop":"Jackfruit","tree_no":"29"},"geometry":{"type":"Point","coordinates":[77.0778605978,10.4798947436]}},{"type":"Feature","properties":{"crop":"Jackfruit","tree_no":"72"},"geometry":{"type":"Point","coordinates":[77.0776651608,10.4798193084]}},{"type":"Feature","properties":{"crop":"Jackfruit","tree_no":"101"},"geometry":{"type":"Point","coordinates":[77.0781742508,10.4797174793]}},{"type":"Feature","properties":{"crop":"Jackfruit","tree_no":"130"},"geometry":{"type":"Point","coordinates":[77.0784034825,10.4797086604]}},{"type":"Feature","properties":{"crop":"Jackfruit","tree_no":"145"},"geometry":{"type":"Point","coordinates":[77.0777187189,10.4795863603]}},{"type":"Feature","properties":{"crop":"Jackfruit","tree_no":"198"},"geometry":{"type":"Point","coordinates":[77.0780234345,10.4794872811]}},{"type":"Feature","properties":{"crop":"Jackfruit","tree_no":"219"},"geometry":{"type":"Point","coordinates":[77.0789918204,10.4795661625]}},{"type":"Feature","properties":{"crop":"Jackfruit","tree_no":"215"},"geometry":{"type":"Point","coordinates":[77.0791810802,10.4796618593]}},{"type":"Feature","properties":{"crop":"Jackfruit","tree_no":"591"},"geometry":{"type":"Point","coordinates":[77.0791251823,10.4788213286]}},{"type":"Feature","properties":{"crop":"Jackfruit","tree_no":"402"},"geometry":{"type":"Point","coordinates":[77.0776850496,10.4790002876]}},{"type":"Feature","properties":{"crop":"Jackfruit","tree_no":"509"},"geometry":{"type":"Point","coordinates":[77.0776504307,10.4788350682]}},{"type":"Feature","properties":{"crop":"Jackfruit","tree_no":"563"},"geometry":{"type":"Point","coordinates":[77.0776453118,10.4787158859]}},{"type":"Feature","properties":{"crop":"Jackfruit","tree_no":"39"},"geometry":{"type":"Point","coordinates":[77.0774524068,10.4799955009]}},{"type":"Feature","properties":{"crop":"Jackfruit","tree_no":"41"},"geometry":{"type":"Point","coordinates":[77.0774526873,10.4799410296]}},{"type":"Feature","properties":{"crop":"Jackfruit","tree_no":"50"},"geometry":{"type":"Point","coordinates":[77.0774484517,10.4798849951]}},{"type":"Feature","properties":{"crop":"Jackfruit","tree_no":"52"},"geometry":{"type":"Point","coordinates":[77.0774345591,10.4798287051]}},{"type":"Feature","properties":{"crop":"Jackfruit","tree_no":"53"},"geometry":{"type":"Point","coordinates":[77.077424519,10.4797226986]}},{"type":"Feature","properties":{"crop":"Jackfruit","tree_no":"54"},"geometry":{"type":"Point","coordinates":[77.0774224916,10.4796599604]}},{"type":"Feature","properties":{"crop":"Jackfruit","tree_no":"37"},"geometry":{"type":"Point","coordinates":[77.0775500753,10.4801146323]}},{"type":"Feature","properties":{"crop":"Jackfruit","tree_no":"38"},"geometry":{"type":"Point","coordinates":[77.0774758117,10.480126903]}},{"type":"Feature","properties":{"crop":"Jackfruit","tree_no":"320"},"geometry":{"type":"Point","coordinates":[77.0791946326,10.4794327528]}},{"type":"Feature","properties":{"crop":"Jackfruit","tree_no":"357"},"geometry":{"type":"Point","coordinates":[77.0782134948,10.4791738325]}},{"type":"Feature","properties":{"crop":"Jackfruit","tree_no":"266"},"geometry":{"type":"Point","coordinates":[77.0791228709,10.47953636]}},{"type":"Feature","properties":{"crop":"Jackfruit","tree_no":"92"},"geometry":{"type":"Point","coordinates":[77.0780048308,10.4797008121]}},{"type":"Feature","properties":{"crop":"Jackfruit","tree_no":"169"},"geometry":{"type":"Point","coordinates":[77.0789653912,10.479756072]}},{"type":"Feature","properties":{"crop":"Jackfruit","tree_no":"148"},"geometry":{"type":"Point","coordinates":[77.0779001201,10.4795628755]}},{"type":"Feature","properties":{"crop":"Jackfruit","tree_no":"146"},"geometry":{"type":"Point","coordinates":[77.0777558758,10.4795744044]}},{"type":"Feature","properties":{"crop":"Jackfruit","tree_no":"69"},"geometry":{"type":"Point","coordinates":[77.0776692678,10.4797701636]}},{"type":"Feature","properties":{"crop":"Jackfruit","tree_no":"280"},"geometry":{"type":"Point","coordinates":[77.0784565221,10.4793762883]}},{"type":"Feature","properties":{"crop":"Jackfruit","tree_no":"191.1"},"geometry":{"type":"Point","coordinates":[77.0778072903,10.4795008136]}},{"type":"Feature","properties":{"crop":"Jackfruit","tree_no":"169.1"},"geometry":{"type":"Point","coordinates":[77.0790834002,10.4797782668]}},{"type":"Feature","properties":{"crop":"Jackfruit","tree_no":"118.1"},"geometry":{"type":"Point","coordinates":[77.0791982384,10.4798321766]}},{"type":"Feature","properties":{"crop":"Jackfruit","tree_no":"6.1"},"geometry":{"type":"Point","coordinates":[77.078801007,10.4798275327]}},{"type":"Feature","properties":{"crop":"Jackfruit","tree_no":"53.1"},"geometry":{"type":"Point","coordinates":[77.0774261817,10.4797749753]}},{"type":"Feature","properties":{"crop":"Jackfruit","tree_no":"54.1"},"geometry":{"type":"Point","coordinates":[77.077417459,10.4796186529]}}]}
