{"type":"FeatureCollection","features":[{"type":"Feature","properties":{"crop":"Nutmeg","tree_no":"1"},"geometry":{"type":"Point","coordinates":[77.0768857411,10.4821660875]}},{"type":"Feature","properties":{"crop":"Nutmeg","tree_no":"2"},"geometry":{"type":"Point","coordinates":[77.0768209092,10.4821773624]}},{"type":"Feature","properties":{"crop":"Nutmeg","tree_no":"3"},"geometry":{"type":"Point","coordinates":[77.0767444845,10.4821865437]}},{"type":"Feature","properties":{"crop":"Nutmeg","tree_no":"4"},"geometry":{"type":"Point","coordinates":[77.0766749349,10.4822008601]}},{"type":"Feature","properties":{"crop":"Nutmeg","tree_no":"5"},"geometry":{"type":"Point","coordinates":[77.0766031605,10.4822137353]}},{"type":"Feature","properties":{"crop":"Nutmeg","tree_no":"6"},"geometry":{"type":"Point","coordinates":[77.0765348877,10.482221061]}},{"type":"Feature","properties":{"crop":"Nutmeg","tree_no":"7"},"geometry":{"type":"Point","coordinates":[77.0764579963,10.4822290364]}},{"type":"Feature","properties":{"crop":"Nutmeg","tree_no":"8"},"geometry":{"type":"Point","coordinates":[77.0763913564,10.4822377127]}},{"type":"Feature","properties":{"crop":"Nutmeg","tree_no":"9"},"geometry":{"type":"Point","coordinates":[77.0763261145,10.4822442114]}},{"type":"Feature","properties":{"crop":"Nutmeg","tree_no":"10"},"geometry":{"type":"Point","coordinates":[77.0762425359,10.4822586361]}},{"type":"Feature","properties":{"crop":"Nutmeg","tree_no":"11"},"geometry":{"type":"Point","coordinates":[77.0761624841,10.4822394107]}},{"type":"Feature","properties":{"crop":"Nutmeg","tree_no":"12"},"geometry":{"type":"Point","coordinates":[77.076125922,10.482286912]}},{"type":"Feature","properties":{"crop":"Nutmeg","tree_no":"13"},"geometry":{"type":"Point","coordinates":[77.0760532679,10.4822936518]}},{"type":"Feature","properties":{"crop":"Nutmeg","tree_no":"15"},"geometry":{"type":"Point","coordinates":[77.0752873181,10.4824632418]}},{"type":"Feature","properties":{"crop":"Nutmeg","tree_no":"16"},"geometry":{"type":"Point","coordinates":[77.0752743605,10.4824063991]}},{"type":"Feature","properties":{"crop":"Nutmeg","tree_no":"17"},"geometry":{"type":"Point","coordinates":[77.0752106095,10.4824781433]}},{"type":"Feature","properties":{"crop":"Nutmeg","tree_no":"18"},"geometry":{"type":"Point","coordinates":[77.0752000257,10.4824110186]}},{"type":"Feature","properties":{"crop":"Nutmeg","tree_no":"19"},"geometry":{"type":"Point","coordinates":[77.0751371542,10.4824852736]}},{"type":"Feature","properties":{"crop":"Nutmeg","tree_no":"20"},"geometry":{"type":"Point","coordinates":[77.0751252,10.4824228452]}},{"type":"Feature","properties":{"crop":"Nutmeg","tree_no":"21"},"geometry":{"type":"Point","coordinates":[77.0750645792,10.4824950576]}},{"type":"Feature","properties":{"crop":"Nutmeg","tree_no":"22"},"geometry":{"type":"Point","coordinates":[77.0750518484,10.4824297457]}},{"type":"Feature","properties":{"crop":"Nutmeg","tree_no":"23"},"geometry":{"type":"Point","coordinates":[77.0749886945,10.4825041841]}},{"type":"Feature","properties":{"crop":"Nutmeg","tree_no":"24"},"geometry":{"type":"Point","coordinates":[77.0749775499,10.4824434368]}},{"type":"Feature","properties":{"crop":"Nutmeg","tree_no":"25"},"geometry":{"type":"Point","coordinates":[77.0749163319,10.4825046708]}},{"type":"Feature","properties":{"crop":"Nutmeg","tree_no":"26"},"geometry":{"type":"Point","coordinates":[77.0748332753,10.4824618194]}},{"type":"Feature","properties":{"crop":"Nutmeg","tree_no":"27"},"geometry":{"type":"Point","coordinates":[77.0747588835,10.4824883372]}},{"type":"Feature","properties":{"crop":"Nutmeg","tree_no":"28"},"geometry":{"type":"Point","coordinates":[77.0746906042,10.4824881185]}},{"type":"Feature","properties":{"crop":"Nutmeg","tree_no":"29"},"geometry":{"type":"Point","coordinates":[77.0746309146,10.4824911826]}},{"type":"Feature","properties":{"crop":"Nutmeg","tree_no":"30"},"geometry":{"type":"Point","coordinates":[77.0745663514,10.4824903468]}},{"type":"Feature","properties":{"crop":"Nutmeg","tree_no":"31"},"geometry":{"type":"Point","coordinates":[77.0745005942,10.482494153]}},{"type":"Feature","properties":{"crop":"Nutmeg","tree_no":"32"},"geometry":{"type":"Point","coordinates":[77.0743082255,10.4824393356]}},{"type":"Feature","properties":{"crop":"Nutmeg","tree_no":"33"},"geometry":{"type":"Point","coordinates":[77.074376558,10.4824331854]}},{"type":"Feature","properties":{"crop":"Nutmeg","tree_no":"34"},"geometry":{"type":"Point","coordinates":[77.0744473911,10.4824221347]}},{"type":"Feature","properties":{"crop":"Nutmeg","tree_no":"35"},"geometry":{"type":"Point","coordinates":[77.0745241911,10.4824152351]}},{"type":"Feature","properties":{"crop":"Nutmeg","tree_no":"36"},"geometry":{"type":"Point","coordinates":[77.0746045712,10.4824056789]}},{"type":"Feature","properties":{"crop":"Nutmeg","tree_no":"37"},"geometry":{"type":"Point","coordinates":[77.0746779485,10.4824036762]}},{"type":"Feature","properties":{"crop":"Nutmeg","tree_no":"38"},"geometry":{"type":"Point","coordinates":[77.0747503649,10.4823916863]}},{"type":"Feature","properties":{"crop":"Nutmeg","tree_no":"39"},"geometry":{"type":"Point","coordinates":[77.0749664585,10.4823677773]}},{"type":"Feature","properties":{"crop":"Nutmeg","tree_no":"40"},"geometry":{"type":"Point","coordinates":[77.075037504,10.4823607743]}},{"type":"Feature","properties":{"crop":"Nutmeg","tree_no":"41"},"geometry":{"type":"Point","coordinates":[77.0751197716,10.4823434573]}},{"type":"Feature","properties":{"crop":"Nutmeg","tree_no":"42"},"geometry":{"type":"Point","coordinates":[77.0751897799,10.4823384111]}},{"type":"Feature","properties":{"crop":"Nutmeg","tree_no":"43"},"geometry":{"type":"Point","coordinates":[77.0752649861,10.4823299057]}},{"type":"Feature","properties":{"crop":"Nutmeg","tree_no":"44"},"geometry":{"type":"Point","coordinates":[77.075334751,10.4823253375]}},{"type":"Feature","properties":{"crop":"Nutmeg","tree_no":"45"},"geometry":{"type":"Point","coordinates":[77.0754975487,10.4823000754]}},{"type":"Feature","properties":{"crop":"Nutmeg","tree_no":"46"},"geometry":{"type":"Point","coordinates":[77.0755596485,10.4823013258]}},{"type":"Feature","properties":{"crop":"Nutmeg","tree_no":"47"},"geometry":{"type":"Point","coordinates":[77.0757918594,10.4822574459]}},{"type":"Feature","properties":{"crop":"Nutmeg","tree_no":"48"},"geometry":{"type":"Point","coordinates":[77.0758597273,10.4822527839]}},{"type":"Feature","properties":{"crop":"Nutmeg","tree_no":"50"},"geometry":{"type":"Point","coordinates":[77.0759383526,10.4822324049]}},{"type":"Feature","properties":{"crop":"Nutmeg","tree_no":"51"},"geometry":{"type":"Point","coordinates":[77.0760099626,10.4822185249]}},{"type":"Feature","properties":{"crop":"Nutmeg","tree_no":"52"},"geometry":{"type":"Point","coordinates":[77.0760798894,10.4822072979]}},{"type":"Feature","properties":{"crop":"Nutmeg","tree_no":"53"},"geometry":{"type":"Point","coordinates":[77.0761558066,10.4822008884]}},{"type":"Feature","properties":{"crop":"Nutmeg","tree_no":"54"},"geometry":{"type":"Point","coordinates":[77.0762306489,10.4821936828]}},{"type":"Feature","properties":{"crop":"Nutmeg","tree_no":"55"},"geometry":{"type":"Point","coordinates":[77.0763055962,10.4821837971]}},{"type":"Feature","properties":{"crop":"Nutmeg","tree_no":"56"},"geometry":{"type":"Point","coordinates":[77.0763750698,10.4821740659]}},{"type":"Feature","properties":{"crop":"Nutmeg","tree_no":"57"},"geometry":{"type":"Point","coordinates":[77.0764470802,10.4821635085]}},{"type":"Feature","properties":{"crop":"Nutmeg","tree_no":"58"},"geometry":{"type":"Point","coordinates":[77.076522209,10.4821518185]}},{"type":"Feature","properties":{"crop":"Nutmeg","tree_no":"59"},"geometry":{"type":"Point","coordinates":[77.0765917967,10.4821410628]}},{"type":"Feature","properties":{"crop":"Nutmeg","tree_no":"60"},"geometry":{"type":"Point","coordinates":[77.0766655447,10.4821300328]}},{"type":"Feature","properties":{"crop":"Nutmeg","tree_no":"61"},"geometry":{"type":"Point","coordinates":[77.0767353597,10.4821165223]}},{"type":"Feature","properties":{"crop":"Nutmeg","tree_no":"62"},"geometry":{"type":"Point","coordinates":[77.0768047763,10.4821054933]}},{"type":"Feature","properties":{"crop":"Nutmeg","tree_no":"63"},"geometry":{"type":"Point","coordinates":[77.0768728073,10.4820959854]}},{"type":"Feature","properties":{"crop":"Nutmeg","tree_no":"64"},"geometry":{"type":"Point","coordinates":[77.0768614762,10.4820254246]}},{"type":"Feature","properties":{"crop":"Nutmeg","tree_no":"65"},"geometry":{"type":"Point","coordinates":[77.0767958641,10.4820341768]}},{"type":"Feature","properties":{"crop":"Nutmeg","tree_no":"66"},"geometry":{"type":"Point","coordinates":[77.0767241013,10.4820454734]}},{"type":"Feature","properties":{"crop":"Nutmeg","tree_no":"67"},"geometry":{"type":"Point","coordinates":[77.0766512482,10.482054027]}},{"type":"Feature","properties":{"crop":"Nutmeg","tree_no":"68"},"geometry":{"type":"Point","coordinates":[77.0765818658,10.4820691288]}},{"type":"Feature","properties":{"crop":"Nutmeg","tree_no":"69"},"geometry":{"type":"Point","coordinates":[77.0765080208,10.4820779479]}},{"type":"Feature","properties":{"crop":"Nutmeg","tree_no":"70"},"geometry":{"type":"Point","coordinates":[77.076436385,10.48208791]}},{"type":"Feature","properties":{"crop":"Nutmeg","tree_no":"71"},"geometry":{"type":"Point","coordinates":[77.0763642833,10.4821013731]}},{"type":"Feature","properties":{"crop":"Nutmeg","tree_no":"72"},"geometry":{"type":"Point","coordinates":[77.0762925793,10.4821088014]}},{"type":"Feature","properties":{"crop":"Nutmeg","tree_no":"73"},"geometry":{"type":"Point","coordinates":[77.0762189034,10.4821173828]}},{"type":"Feature","properties":{"crop":"Nutmeg","tree_no":"74"},"geometry":{"type":"Point","coordinates":[77.0761419371,10.4821272029]}},{"type":"Feature","properties":{"crop":"Nutmeg","tree_no":"75"},"geometry":{"type":"Point","coordinates":[77.076069342,10.4821399949]}},{"type":"Feature","properties":{"crop":"Nutmeg","tree_no":"76"},"geometry":{"type":"Point","coordinates":[77.0759960918,10.4821503005]}},{"type":"Feature","properties":{"crop":"Nutmeg","tree_no":"77"},"geometry":{"type":"Point","coordinates":[77.0759249814,10.4821615483]}},{"type":"Feature","properties":{"crop":"Nutmeg","tree_no":"78"},"geometry":{"type":"Point","coordinates":[77.0758526979,10.4821773685]}},{"type":"Feature","properties":{"crop":"Nutmeg","tree_no":"79"},"geometry":{"type":"Point","coordinates":[77.0757789396,10.4821964578]}},{"type":"Feature","properties":{"crop":"Nutmeg","tree_no":"80"},"geometry":{"type":"Point","coordinates":[77.0756681107,10.4821684902]}},{"type":"Feature","properties":{"crop":"Nutmeg","tree_no":"81"},"geometry":{"type":"Point","coordinates":[77.0755520313,10.4822186594]}},{"type":"Feature","properties":{"crop":"Nutmeg","tree_no":"82"},"geometry":{"type":"Point","coordinates":[77.0754825637,10.4822330036]}},{"type":"Feature","properties":{"crop":"Nutmeg","tree_no":"83"},"geometry":{"type":"Point","coordinates":[77.0753282165,10.4822495262]}},{"type":"Feature","properties":{"crop":"Nutmeg","tree_no":"84"},"geometry":{"type":"Point","coordinates":[77.0752507957,10.482256905]}},{"type":"Feature","properties":{"crop":"Nutmeg","tree_no":"85"},"geometry":{"type":"Point","coordinates":[77.0751839539,10.4822677073]}},{"type":"Feature","properties":{"crop":"Nutmeg","tree_no":"86"},"geometry":{"type":"Point","coordinates":[77.0751097929,10.4822738562]}},{"type":"Feature","properties":{"crop":"Nutmeg","tree_no":"87"},"geometry":{"type":"Point","coordinates":[77.0750331115,10.4822803855]}},{"type":"Feature","properties":{"crop":"Nutmeg","tree_no":"88"},"geometry":{"type":"Point","coordinates":[77.07495737,10.4822957697]}},{"type":"Feature","properties":{"crop":"Nutmeg","tree_no":"89"},"geometry":{"type":"Point","coordinates":[77.0747378824,10.4823197946]}},{"type":"Feature","properties":{"crop":"Nutmeg","tree_no":"90"},"geometry":{"type":"Point","coordinates":[77.0746627241,10.4823262513]}},{"type":"Feature","properties":{"crop":"Nutmeg","tree_no":"91"},"geometry":{"type":"Point","coordinates":[77.0745888644,10.4823373704]}},{"type":"Feature","properties":{"crop":"Nutmeg","tree_no":"92"},"geometry":{"type":"Point","coordinates":[77.0745121841,10.4823413465]}},{"type":"Feature","properties":{"crop":"Nutmeg","tree_no":"93"},"geometry":{"type":"Point","coordinates":[77.074440642,10.4823530809]}},{"type":"Feature","properties":{"crop":"Nutmeg","tree_no":"94"},"geometry":{"type":"Point","coordinates":[77.0743673415,10.4823604964]}},{"type":"Feature","properties":{"crop":"Nutmeg","tree_no":"95"},"geometry":{"type":"Point","coordinates":[77.0742936321,10.4823707553]}},{"type":"Feature","properties":{"crop":"Nutmeg","tree_no":"96"},"geometry":{"type":"Point","coordinates":[77.0742188071,10.4823792245]}},{"type":"Feature","properties":{"crop":"Nutmeg","tree_no":"97"},"geometry":{"type":"Point","coordinates":[77.0741502794,10.4823838193]}},{"type":"Feature","properties":{"crop":"Nutmeg","tree_no":"98"},"geometry":{"type":"Point","coordinates":[77.0741441037,10.4823131489]}},{"type":"Feature","properties":{"crop":"Nutmeg","tree_no":"99"},"geometry":{"type":"Point","coordinates":[77.074210797,10.482304111]}},{"type":"Feature","properties":{"crop":"Nutmeg","tree_no":"100"},"geometry":{"type":"Point","coordinates":[77.0742827025,10.4822963229]}},{"type":"Feature","properties":{"crop":"Nutmeg","tree_no":"101"},"geometry":{"type":"Point","coordinates":[77.0743548303,10.4822858241]}},{"type":"Feature","properties":{"crop":"Nutmeg","tree_no":"102"},"geometry":{"type":"Point","coordinates":[77.0744273659,10.4822775194]}},{"type":"Feature","properties":{"crop":"Nutmeg","tree_no":"103"},"geometry":{"type":"Point","coordinates":[77.0745011081,10.482273467]}},{"type":"Feature","properties":{"crop":"Nutmeg","tree_no":"104"},"geometry":{"type":"Point","coordinates":[77.0745742609,10.4822625878]}},{"type":"Feature","properties":{"crop":"Nutmeg","tree_no":"105"},"geometry":{"type":"Point","coordinates":[77.0746536584,10.4822559797]}},{"type":"Feature","properties":{"crop":"Nutmeg","tree_no":"106"},"geometry":{"type":"Point","coordinates":[77.0747256481,10.4822440448]}},{"type":"Feature","properties":{"crop":"Nutmeg","tree_no":"107"},"geometry":{"type":"Point","coordinates":[77.0749475789,10.4822225893]}},{"type":"Feature","properties":{"crop":"Nutmeg","tree_no":"108"},"geometry":{"type":"Point","coordinates":[77.0750225478,10.4822117101]}},{"type":"Feature","properties":{"crop":"Nutmeg","tree_no":"109"},"geometry":{"type":"Point","coordinates":[77.0750944225,10.4822042357]}},{"type":"Feature","properties":{"crop":"Nutmeg","tree_no":"110"},"geometry":{"type":"Point","coordinates":[77.0751705529,10.4821933041]}},{"type":"Feature","properties":{"crop":"Nutmeg","tree_no":"111"},"geometry":{"type":"Point","coordinates":[77.0752433813,10.482188352]}},{"type":"Feature","properties":{"crop":"Nutmeg","tree_no":"112"},"geometry":{"type":"Point","coordinates":[77.0753133635,10.4821731324]}},{"type":"Feature","properties":{"crop":"Nutmeg","tree_no":"113"},"geometry":{"type":"Point","coordinates":[77.0754714963,10.4821569116]}},{"type":"Feature","properties":{"crop":"Nutmeg","tree_no":"114"},"geometry":{"type":"Point","coordinates":[77.0755445441,10.482150329]}},{"type":"Feature","properties":{"crop":"Nutmeg","tree_no":"115"},"geometry":{"type":"Point","coordinates":[77.0757708249,10.482115107]}},{"type":"Feature","properties":{"crop":"Nutmeg","tree_no":"116"},"geometry":{"type":"Point","coordinates":[77.0758446437,10.4821035057]}},{"type":"Feature","properties":{"crop":"Nutmeg","tree_no":"117"},"geometry":{"type":"Point","coordinates":[77.0759139582,10.4820932533]}},{"type":"Feature","properties":{"crop":"Nutmeg","tree_no":"118"},"geometry":{"type":"Point","coordinates":[77.0759834705,10.4820767646]}},{"type":"Feature","properties":{"crop":"Nutmeg","tree_no":"119"},"geometry":{"type":"Point","coordinates":[77.076056527,10.4820662875]}},{"type":"Feature","properties":{"crop":"Nutmeg","tree_no":"120"},"geometry":{"type":"Point","coordinates":[77.0761315353,10.4820554198]}},{"type":"Feature","properties":{"crop":"Nutmeg","tree_no":"121"},"geometry":{"type":"Point","coordinates":[77.0762108287,10.4820430843]}},{"type":"Feature","properties":{"crop":"Nutmeg","tree_no":"122"},"geometry":{"type":"Point","coordinates":[77.0762825875,10.4820349434]}},{"type":"Feature","properties":{"crop":"Nutmeg","tree_no":"123"},"geometry":{"type":"Point","coordinates":[77.0763546402,10.4820243195]}},{"type":"Feature","properties":{"crop":"Nutmeg","tree_no":"124"},"geometry":{"type":"Point","coordinates":[77.0764229499,10.4820166155]}},{"type":"Feature","properties":{"crop":"Nutmeg","tree_no":"125"},"geometry":{"type":"Point","coordinates":[77.0764979343,10.4820018286]}},{"type":"Feature","properties":{"crop":"Nutmeg","tree_no":"126"},"geometry":{"type":"Point","coordinates":[77.0765716884,10.481992924]}},{"type":"Feature","properties":{"crop":"Nutmeg","tree_no":"127"},"geometry":{"type":"Point","coordinates":[77.0766436017,10.4819829989]}},{"type":"Feature","properties":{"crop":"Nutmeg","tree_no":"128"},"geometry":{"type":"Point","coordinates":[77.0767149274,10.4819726125]}},{"type":"Feature","properties":{"crop":"Nutmeg","tree_no":"129"},"geometry":{"type":"Point","coordinates":[77.076783545,10.4819616208]}},{"type":"Feature","properties":{"crop":"Nutmeg","tree_no":"130"},"geometry":{"type":"Point","coordinates":[77.0768513949,10.4819527229]}},{"type":"Feature","properties":{"crop":"Nutmeg","tree_no":"131"},"geometry":{"type":"Point","coordinates":[77.0768393259,10.4818802687]}},{"type":"Feature","properties":{"crop":"Nutmeg","tree_no":"132"},"geometry":{"type":"Point","coordinates":[77.0767759842,10.481888936]}},{"type":"Feature","properties":{"crop":"Nutmeg","tree_no":"133"},"geometry":{"type":"Point","coordinates":[77.0767043921,10.4819005688]}},{"type":"Feature","properties":{"crop":"Nutmeg","tree_no":"134"},"geometry":{"type":"Point","coordinates":[77.0766325526,10.4819113679]}},{"type":"Feature","properties":{"crop":"Nutmeg","tree_no":"135"},"geometry":{"type":"Point","coordinates":[77.0765557067,10.4819179154]}},{"type":"Feature","properties":{"crop":"Nutmeg","tree_no":"136"},"geometry":{"type":"Point","coordinates":[77.076485068,10.4819326806]}},{"type":"Feature","properties":{"crop":"Nutmeg","tree_no":"137"},"geometry":{"type":"Point","coordinates":[77.0764135425,10.4819419503]}},{"type":"Feature","properties":{"crop":"Nutmeg","tree_no":"138"},"geometry":{"type":"Point","coordinates":[77.0763433398,10.4819570401]}},{"type":"Feature","properties":{"crop":"Nutmeg","tree_no":"139"},"geometry":{"type":"Point","coordinates":[77.076268889,10.4819635067]}},{"type":"Feature","properties":{"crop":"Nutmeg","tree_no":"140"},"geometry":{"type":"Point","coordinates":[77.0761956889,10.4819766242]}},{"type":"Feature","properties":{"crop":"Nutmeg","tree_no":"141"},"geometry":{"type":"Point","coordinates":[77.0761169725,10.4819836085]}},{"type":"Feature","properties":{"crop":"Nutmeg","tree_no":"142"},"geometry":{"type":"Point","coordinates":[77.0760439299,10.4819890999]}},{"type":"Feature","properties":{"crop":"Nutmeg","tree_no":"143"},"geometry":{"type":"Point","coordinates":[77.0759723098,10.4820076527]}},{"type":"Feature","properties":{"crop":"Nutmeg","tree_no":"144"},"geometry":{"type":"Point","coordinates":[77.0759032141,10.4820144591]}},{"type":"Feature","properties":{"crop":"Nutmeg","tree_no":"145"},"geometry":{"type":"Point","coordinates":[77.0758285088,10.4820306185]}},{"type":"Feature","properties":{"crop":"Nutmeg","tree_no":"146"},"geometry":{"type":"Point","coordinates":[77.0757576251,10.4820371328]}},{"type":"Feature","properties":{"crop":"Nutmeg","tree_no":"147"},"geometry":{"type":"Point","coordinates":[77.0753036311,10.4821047983]}},{"type":"Feature","properties":{"crop":"Nutmeg","tree_no":"148"},"geometry":{"type":"Point","coordinates":[77.0752307441,10.4821071648]}},{"type":"Feature","properties":{"crop":"Nutmeg","tree_no":"149"},"geometry":{"type":"Point","coordinates":[77.0751585193,10.4821250394]}},{"type":"Feature","properties":{"crop":"Nutmeg","tree_no":"150"},"geometry":{"type":"Point","coordinates":[77.0750851013,10.4821283615]}},{"type":"Feature","properties":{"crop":"Nutmeg","tree_no":"151"},"geometry":{"type":"Point","coordinates":[77.0750101515,10.4821425847]}},{"type":"Feature","properties":{"crop":"Nutmeg","tree_no":"152"},"geometry":{"type":"Point","coordinates":[77.0749348158,10.4821436378]}},{"type":"Feature","properties":{"crop":"Nutmeg","tree_no":"153"},"geometry":{"type":"Point","coordinates":[77.0747164912,10.4821708997]}},{"type":"Feature","properties":{"crop":"Nutmeg","tree_no":"154"},"geometry":{"type":"Point","coordinates":[77.0746404838,10.4821782872]}},{"type":"Feature","properties":{"crop":"Nutmeg","tree_no":"155"},"geometry":{"type":"Point","coordinates":[77.0745689876,10.4821883661]}},{"type":"Feature","properties":{"crop":"Nutmeg","tree_no":"156"},"geometry":{"type":"Point","coordinates":[77.0744900585,10.4821977689]}},{"type":"Feature","properties":{"crop":"Nutmeg","tree_no":"157"},"geometry":{"type":"Point","coordinates":[77.0744169543,10.4822048629]}},{"type":"Feature","properties":{"crop":"Nutmeg","tree_no":"158"},"geometry":{"type":"Point","coordinates":[77.0743486671,10.4822110185]}},{"type":"Feature","properties":{"crop":"Nutmeg","tree_no":"159"},"geometry":{"type":"Point","coordinates":[77.0742718491,10.482221696]}},{"type":"Feature","properties":{"crop":"Nutmeg","tree_no":"160"},"geometry":{"type":"Point","coordinates":[77.0742007229,10.48223267]}},{"type":"Feature","properties":{"crop":"Nutmeg","tree_no":"161"},"geometry":{"type":"Point","coordinates":[77.074146495,10.4822390088]}},{"type":"Feature","properties":{"crop":"Nutmeg","tree_no":"162"},"geometry":{"type":"Point","coordinates":[77.0741248275,10.4821561992]}},{"type":"Feature","properties":{"crop":"Nutmeg","tree_no":"163"},"geometry":{"type":"Point","coordinates":[77.0741877348,10.4821551792]}},{"type":"Feature","properties":{"crop":"Nutmeg","tree_no":"165"},"geometry":{"type":"Point","coordinates":[77.0742640208,10.4821470156]}},{"type":"Feature","properties":{"crop":"Nutmeg","tree_no":"167"},"geometry":{"type":"Point","coordinates":[77.074337904,10.4821326196]}},{"type":"Feature","properties":{"crop":"Nutmeg","tree_no":"168"},"geometry":{"type":"Point","coordinates":[77.07545038,10.4820024202]}},{"type":"Feature","properties":{"crop":"Nutmeg","tree_no":"169"},"geometry":{"type":"Point","coordinates":[77.0755208926,10.4819986862]}},{"type":"Feature","properties":{"crop":"Nutmeg","tree_no":"170"},"geometry":{"type":"Point","coordinates":[77.0757417634,10.4819707355]}},{"type":"Feature","properties":{"crop":"Nutmeg","tree_no":"171"},"geometry":{"type":"Point","coordinates":[77.0758183085,10.4819559258]}},{"type":"Feature","properties":{"crop":"Nutmeg","tree_no":"172"},"geometry":{"type":"Point","coordinates":[77.0758872313,10.4819454661]}},{"type":"Feature","properties":{"crop":"Nutmeg","tree_no":"173"},"geometry":{"type":"Point","coordinates":[77.0759595983,10.4819269744]}},{"type":"Feature","properties":{"crop":"Nutmeg","tree_no":"174"},"geometry":{"type":"Point","coordinates":[77.0760312002,10.4819228967]}},{"type":"Feature","properties":{"crop":"Nutmeg","tree_no":"175"},"geometry":{"type":"Point","coordinates":[77.0761037987,10.4819119431]}},{"type":"Feature","properties":{"crop":"Nutmeg","tree_no":"176"},"geometry":{"type":"Point","coordinates":[77.0761807147,10.4819000064]}},{"type":"Feature","properties":{"crop":"Nutmeg","tree_no":"177"},"geometry":{"type":"Point","coordinates":[77.0762584135,10.4818930203]}},{"type":"Feature","properties":{"crop":"Nutmeg","tree_no":"178"},"geometry":{"type":"Point","coordinates":[77.0763291338,10.4818824941]}},{"type":"Feature","properties":{"crop":"Nutmeg","tree_no":"179"},"geometry":{"type":"Point","coordinates":[77.076401696,10.4818742722]}},{"type":"Feature","properties":{"crop":"Nutmeg","tree_no":"180"},"geometry":{"type":"Point","coordinates":[77.0764716343,10.481859591]}},{"type":"Feature","properties":{"crop":"Nutmeg","tree_no":"181"},"geometry":{"type":"Point","coordinates":[77.0765486055,10.4818498395]}},{"type":"Feature","properties":{"crop":"Nutmeg","tree_no":"182"},"geometry":{"type":"Point","coordinates":[77.0766168202,10.4818349463]}},{"type":"Feature","properties":{"crop":"Nutmeg","tree_no":"183"},"geometry":{"type":"Point","coordinates":[77.0766950587,10.4818257875]}},{"type":"Feature","properties":{"crop":"Nutmeg","tree_no":"184"},"geometry":{"type":"Point","coordinates":[77.0767635884,10.4818137441]}},{"type":"Feature","properties":{"crop":"Nutmeg","tree_no":"185"},"geometry":{"type":"Point","coordinates":[77.0768398327,10.4817831155]}},{"type":"Feature","properties":{"crop":"Nutmeg","tree_no":"186"},"geometry":{"type":"Point","coordinates":[77.0763182054,10.4818073369]}},{"type":"Feature","properties":{"crop":"Nutmeg","tree_no":"187"},"geometry":{"type":"Point","coordinates":[77.0762467853,10.481817098]}},{"type":"Feature","properties":{"crop":"Nutmeg","tree_no":"188"},"geometry":{"type":"Point","coordinates":[77.0761723436,10.481826358]}},{"type":"Feature","properties":{"crop":"Nutmeg","tree_no":"189"},"geometry":{"type":"Point","coordinates":[77.0760951515,10.4818390399]}},{"type":"Feature","properties":{"crop":"Nutmeg","tree_no":"190"},"geometry":{"type":"Point","coordinates":[77.0760189486,10.4818439269]}},{"type":"Feature","properties":{"crop":"Nutmeg","tree_no":"191"},"geometry":{"type":"Point","coordinates":[77.075947859,10.4818591968]}},{"type":"Feature","properties":{"crop":"Nutmeg","tree_no":"192"},"geometry":{"type":"Point","coordinates":[77.0758746349,10.4818727227]}},{"type":"Feature","properties":{"crop":"Nutmeg","tree_no":"193"},"geometry":{"type":"Point","coordinates":[77.0758051731,10.4818842658]}},{"type":"Feature","properties":{"crop":"Nutmeg","tree_no":"194"},"geometry":{"type":"Point","coordinates":[77.0757324058,10.4818963313]}},{"type":"Feature","properties":{"crop":"Nutmeg","tree_no":"195"},"geometry":{"type":"Point","coordinates":[77.0755040946,10.4819295246]}},{"type":"Feature","properties":{"crop":"Nutmeg","tree_no":"196"},"geometry":{"type":"Point","coordinates":[77.0754395615,10.4819351061]}},{"type":"Feature","properties":{"crop":"Nutmeg","tree_no":"197"},"geometry":{"type":"Point","coordinates":[77.0752809147,10.481955674]}},{"type":"Feature","properties":{"crop":"Nutmeg","tree_no":"198"},"geometry":{"type":"Point","coordinates":[77.0752096158,10.4819652105]}},{"type":"Feature","properties":{"crop":"Nutmeg","tree_no":"199"},"geometry":{"type":"Point","coordinates":[77.0751332052,10.4819760408]}},{"type":"Feature","properties":{"crop":"Nutmeg","tree_no":"200"},"geometry":{"type":"Point","coordinates":[77.0750658643,10.481984552]}},{"type":"Feature","properties":{"crop":"Nutmeg","tree_no":"201"},"geometry":{"type":"Point","coordinates":[77.0749864875,10.4819936955]}},{"type":"Feature","properties":{"crop":"Nutmeg","tree_no":"202"},"geometry":{"type":"Point","coordinates":[77.0749125234,10.4819985805]}},{"type":"Feature","properties":{"crop":"Nutmeg","tree_no":"203"},"geometry":{"type":"Point","coordinates":[77.0748404957,10.482011491]}},{"type":"Feature","properties":{"crop":"Nutmeg","tree_no":"204"},"geometry":{"type":"Point","coordinates":[77.0747723856,10.4820204427]}},{"type":"Feature","properties":{"crop":"Nutmeg","tree_no":"205"},"geometry":{"type":"Point","coordinates":[77.0746966006,10.4820301807]}},{"type":"Feature","properties":{"crop":"Nutmeg","tree_no":"206"},"geometry":{"type":"Point","coordinates":[77.0746198918,10.4820371863]}},{"type":"Feature","properties":{"crop":"Nutmeg","tree_no":"207"},"geometry":{"type":"Point","coordinates":[77.0745429288,10.4820453719]}},{"type":"Feature","properties":{"crop":"Nutmeg","tree_no":"208"},"geometry":{"type":"Point","coordinates":[77.0744708405,10.4820501388]}},{"type":"Feature","properties":{"crop":"Nutmeg","tree_no":"209"},"geometry":{"type":"Point","coordinates":[77.0743997416,10.4820626148]}},{"type":"Feature","properties":{"crop":"Nutmeg","tree_no":"210"},"geometry":{"type":"Point","coordinates":[77.074325503,10.4820685599]}},{"type":"Feature","properties":{"crop":"Nutmeg","tree_no":"211"},"geometry":{"type":"Point","coordinates":[77.0742497418,10.4820779978]}},{"type":"Feature","properties":{"crop":"Nutmeg","tree_no":"212"},"geometry":{"type":"Point","coordinates":[77.0741764577,10.482087149]}},{"type":"Feature","properties":{"crop":"Nutmeg","tree_no":"213"},"geometry":{"type":"Point","coordinates":[77.074120518,10.4820821032]}},{"type":"Feature","properties":{"crop":"Nutmeg","tree_no":"214"},"geometry":{"type":"Point","coordinates":[77.0741680013,10.4820086973]}},{"type":"Feature","properties":{"crop":"Nutmeg","tree_no":"215"},"geometry":{"type":"Point","coordinates":[77.0742413514,10.4820042699]}},{"type":"Feature","properties":{"crop":"Nutmeg","tree_no":"216"},"geometry":{"type":"Point","coordinates":[77.0743182461,10.4819986599]}},{"type":"Feature","properties":{"crop":"Nutmeg","tree_no":"217"},"geometry":{"type":"Point","coordinates":[77.0743875518,10.4819840884]}},{"type":"Feature","properties":{"crop":"Nutmeg","tree_no":"218"},"geometry":{"type":"Point","coordinates":[77.0744589411,10.4819862325]}},{"type":"Feature","properties":{"crop":"Nutmeg","tree_no":"219"},"geometry":{"type":"Point","coordinates":[77.0745312668,10.4819668354]}},{"type":"Feature","properties":{"crop":"Nutmeg","tree_no":"220"},"geometry":{"type":"Point","coordinates":[77.0746046075,10.4819607945]}},{"type":"Feature","properties":{"crop":"Nutmeg","tree_no":"221"},"geometry":{"type":"Point","coordinates":[77.0746762317,10.4819545213]}},{"type":"Feature","properties":{"crop":"Nutmeg","tree_no":"222"},"geometry":{"type":"Point","coordinates":[77.0747587939,10.4819506245]}},{"type":"Feature","properties":{"crop":"Nutmeg","tree_no":"223"},"geometry":{"type":"Point","coordinates":[77.0748351095,10.4819349095]}},{"type":"Feature","properties":{"crop":"Nutmeg","tree_no":"224"},"geometry":{"type":"Point","coordinates":[77.0749011459,10.4819304574]}},{"type":"Feature","properties":{"crop":"Nutmeg","tree_no":"225"},"geometry":{"type":"Point","coordinates":[77.0749761241,10.4819208518]}},{"type":"Feature","properties":{"crop":"Nutmeg","tree_no":"226"},"geometry":{"type":"Point","coordinates":[77.0750551428,10.4819060931]}},{"type":"Feature","properties":{"crop":"Nutmeg","tree_no":"227"},"geometry":{"type":"Point","coordinates":[77.0751214891,10.4819044164]}},{"type":"Feature","properties":{"crop":"Nutmeg","tree_no":"228"},"geometry":{"type":"Point","coordinates":[77.075195911,10.4818908195]}},{"type":"Feature","properties":{"crop":"Nutmeg","tree_no":"229"},"geometry":{"type":"Point","coordinates":[77.075271394,10.4818907147]}},{"type":"Feature","properties":{"crop":"Nutmeg","tree_no":"230"},"geometry":{"type":"Point","coordinates":[77.0754249946,10.4818634027]}},{"type":"Feature","properties":{"crop":"Nutmeg","tree_no":"231"},"geometry":{"type":"Point","coordinates":[77.0754926692,10.4818534948]}},{"type":"Feature","properties":{"crop":"Nutmeg","tree_no":"232"},"geometry":{"type":"Point","coordinates":[77.0757196115,10.4818221357]}},{"type":"Feature","properties":{"crop":"Nutmeg","tree_no":"233"},"geometry":{"type":"Point","coordinates":[77.0757922849,10.4818168492]}},{"type":"Feature","properties":{"crop":"Nutmeg","tree_no":"234"},"geometry":{"type":"Point","coordinates":[77.0758616566,10.4817990019]}},{"type":"Feature","properties":{"crop":"Nutmeg","tree_no":"235"},"geometry":{"type":"Point","coordinates":[77.0764531486,10.481717124]}},{"type":"Feature","properties":{"crop":"Nutmeg","tree_no":"236"},"geometry":{"type":"Point","coordinates":[77.0765236831,10.4817044689]}},{"type":"Feature","properties":{"crop":"Nutmeg","tree_no":"237"},"geometry":{"type":"Point","coordinates":[77.0765990127,10.4816909438]}},{"type":"Feature","properties":{"crop":"Nutmeg","tree_no":"238"},"geometry":{"type":"Point","coordinates":[77.0766667163,10.4816796454]}},{"type":"Feature","properties":{"crop":"Nutmeg","tree_no":"239"},"geometry":{"type":"Point","coordinates":[77.0767400596,10.4816672197]}},{"type":"Feature","properties":{"crop":"Nutmeg","tree_no":"240"},"geometry":{"type":"Point","coordinates":[77.0768099436,10.4816561659]}},{"type":"Feature","properties":{"crop":"Nutmeg","tree_no":"241"},"geometry":{"type":"Point","coordinates":[77.076793216,10.4815845307]}},{"type":"Feature","properties":{"crop":"Nutmeg","tree_no":"242"},"geometry":{"type":"Point","coordinates":[77.0767316975,10.4815918086]}},{"type":"Feature","properties":{"crop":"Nutmeg","tree_no":"243"},"geometry":{"type":"Point","coordinates":[77.0766579773,10.4816052454]}},{"type":"Feature","properties":{"crop":"Nutmeg","tree_no":"244"},"geometry":{"type":"Point","coordinates":[77.0765880657,10.4816197277]}},{"type":"Feature","properties":{"crop":"Nutmeg","tree_no":"245"},"geometry":{"type":"Point","coordinates":[77.0765179465,10.4816291361]}},{"type":"Feature","properties":{"crop":"Nutmeg","tree_no":"246"},"geometry":{"type":"Point","coordinates":[77.076437897,10.481643169]}},{"type":"Feature","properties":{"crop":"Nutmeg","tree_no":"247"},"geometry":{"type":"Point","coordinates":[77.0763627844,10.4816537778]}},{"type":"Feature","properties":{"crop":"Nutmeg","tree_no":"248"},"geometry":{"type":"Point","coordinates":[77.0762909988,10.4816641291]}},{"type":"Feature","properties":{"crop":"Nutmeg","tree_no":"249"},"geometry":{"type":"Point","coordinates":[77.0762190284,10.4816718603]}},{"type":"Feature","properties":{"crop":"Nutmeg","tree_no":"250"},"geometry":{"type":"Point","coordinates":[77.0761476024,10.4816836193]}},{"type":"Feature","properties":{"crop":"Nutmeg","tree_no":"251"},"geometry":{"type":"Point","coordinates":[77.0760733777,10.4816922939]}},{"type":"Feature","properties":{"crop":"Nutmeg","tree_no":"252"},"geometry":{"type":"Point","coordinates":[77.0759987516,10.4817028925]}},{"type":"Feature","properties":{"crop":"Nutmeg","tree_no":"253"},"geometry":{"type":"Point","coordinates":[77.0759247642,10.481712206]}},{"type":"Feature","properties":{"crop":"Nutmeg","tree_no":"254"},"geometry":{"type":"Point","coordinates":[77.0758529593,10.4817233441]}},{"type":"Feature","properties":{"crop":"Nutmeg","tree_no":"255"},"geometry":{"type":"Point","coordinates":[77.0757800088,10.4817418581]}},{"type":"Feature","properties":{"crop":"Nutmeg","tree_no":"256"},"geometry":{"type":"Point","coordinates":[77.0757066638,10.4817532414]}},{"type":"Feature","properties":{"crop":"Nutmeg","tree_no":"257"},"geometry":{"type":"Point","coordinates":[77.0755638459,10.4817441508]}},{"type":"Feature","properties":{"crop":"Nutmeg","tree_no":"258"},"geometry":{"type":"Point","coordinates":[77.0754841127,10.4817816971]}},{"type":"Feature","properties":{"crop":"Nutmeg","tree_no":"259"},"geometry":{"type":"Point","coordinates":[77.0754126304,10.4817911934]}},{"type":"Feature","properties":{"crop":"Nutmeg","tree_no":"260"},"geometry":{"type":"Point","coordinates":[77.0752571644,10.4818073747]}},{"type":"Feature","properties":{"crop":"Nutmeg","tree_no":"261"},"geometry":{"type":"Point","coordinates":[77.0751866715,10.4818226211]}},{"type":"Feature","properties":{"crop":"Nutmeg","tree_no":"262"},"geometry":{"type":"Point","coordinates":[77.075114191,10.4818280681]}},{"type":"Feature","properties":{"crop":"Nutmeg","tree_no":"263"},"geometry":{"type":"Point","coordinates":[77.0750448251,10.4818386063]}},{"type":"Feature","properties":{"crop":"Nutmeg","tree_no":"264"},"geometry":{"type":"Point","coordinates":[77.0749677536,10.4818416354]}},{"type":"Feature","properties":{"crop":"Nutmeg","tree_no":"265"},"geometry":{"type":"Point","coordinates":[77.0748944827,10.4818552244]}},{"type":"Feature","properties":{"crop":"Nutmeg","tree_no":"266"},"geometry":{"type":"Point","coordinates":[77.0748219941,10.4818621271]}},{"type":"Feature","properties":{"crop":"Nutmeg","tree_no":"267"},"geometry":{"type":"Point","coordinates":[77.0747470169,10.4818651703]}},{"type":"Feature","properties":{"crop":"Nutmeg","tree_no":"268"},"geometry":{"type":"Point","coordinates":[77.0746698506,10.481877941]}},{"type":"Feature","properties":{"crop":"Nutmeg","tree_no":"269"},"geometry":{"type":"Point","coordinates":[77.0745943188,10.4818900617]}},{"type":"Feature","properties":{"crop":"Nutmeg","tree_no":"270"},"geometry":{"type":"Point","coordinates":[77.0745226841,10.4818996805]}},{"type":"Feature","properties":{"crop":"Nutmeg","tree_no":"271"},"geometry":{"type":"Point","coordinates":[77.0744501264,10.4819031332]}},{"type":"Feature","properties":{"crop":"Nutmeg","tree_no":"272"},"geometry":{"type":"Point","coordinates":[77.0743759343,10.4819210065]}},{"type":"Feature","properties":{"crop":"Nutmeg","tree_no":"273"},"geometry":{"type":"Point","coordinates":[77.0743057003,10.4819171991]}},{"type":"Feature","properties":{"crop":"Nutmeg","tree_no":"274"},"geometry":{"type":"Point","coordinates":[77.0742321873,10.4819289406]}},{"type":"Feature","properties":{"crop":"Nutmeg","tree_no":"275"},"geometry":{"type":"Point","coordinates":[77.0741610557,10.4819365397]}},{"type":"Feature","properties":{"crop":"Nutmeg","tree_no":"276"},"geometry":{"type":"Point","coordinates":[77.074157208,10.481863437]}},{"type":"Feature","properties":{"crop":"Nutmeg","tree_no":"277"},"geometry":{"type":"Point","coordinates":[77.0742256274,10.4818547179]}},{"type":"Feature","properties":{"crop":"Nutmeg","tree_no":"278"},"geometry":{"type":"Point","coordinates":[77.0742943404,10.4818476608]}},{"type":"Feature","properties":{"crop":"Nutmeg","tree_no":"279"},"geometry":{"type":"Point","coordinates":[77.0743622242,10.481842571]}},{"type":"Feature","properties":{"crop":"Nutmeg","tree_no":"280"},"geometry":{"type":"Point","coordinates":[77.0744329077,10.4818369927]}},{"type":"Feature","properties":{"crop":"Nutmeg","tree_no":"281"},"geometry":{"type":"Point","coordinates":[77.0745127575,10.4818259652]}},{"type":"Feature","properties":{"crop":"Nutmeg","tree_no":"282"},"geometry":{"type":"Point","coordinates":[77.0745882549,10.481814827]}},{"type":"Feature","properties":{"crop":"Nutmeg","tree_no":"283"},"geometry":{"type":"Point","coordinates":[77.0746656654,10.4818037685]}},{"type":"Feature","properties":{"crop":"Nutmeg","tree_no":"284"},"geometry":{"type":"Point","coordinates":[77.0747413889,10.4817959496]}},{"type":"Feature","properties":{"crop":"Nutmeg","tree_no":"285"},"geometry":{"type":"Point","coordinates":[77.0748105116,10.4817875105]}},{"type":"Feature","properties":{"crop":"Nutmeg","tree_no":"286"},"geometry":{"type":"Point","coordinates":[77.0748860763,10.4817803861]}},{"type":"Feature","properties":{"crop":"Nutmeg","tree_no":"287"},"geometry":{"type":"Point","coordinates":[77.074961019,10.4817675051]}},{"type":"Feature","properties":{"crop":"Nutmeg","tree_no":"288"},"geometry":{"type":"Point","coordinates":[77.0750310768,10.4817640495]}},{"type":"Feature","properties":{"crop":"Nutmeg","tree_no":"289"},"geometry":{"type":"Point","coordinates":[77.0751056624,10.4817567717]}},{"type":"Feature","properties":{"crop":"Nutmeg","tree_no":"290"},"geometry":{"type":"Point","coordinates":[77.0751789339,10.4817424768]}},{"type":"Feature","properties":{"crop":"Nutmeg","tree_no":"291"},"geometry":{"type":"Point","coordinates":[77.0752488883,10.4817378528]}},{"type":"Feature","properties":{"crop":"Nutmeg","tree_no":"292"},"geometry":{"type":"Point","coordinates":[77.0753977165,10.4817191497]}},{"type":"Feature","properties":{"crop":"Nutmeg","tree_no":"293"},"geometry":{"type":"Point","coordinates":[77.0754717242,10.481702748]}},{"type":"Feature","properties":{"crop":"Nutmeg","tree_no":"294"},"geometry":{"type":"Point","coordinates":[77.0756950096,10.4816805186]}},{"type":"Feature","properties":{"crop":"Nutmeg","tree_no":"295"},"geometry":{"type":"Point","coordinates":[77.0757699398,10.4816681299]}},{"type":"Feature","properties":{"crop":"Nutmeg","tree_no":"296"},"geometry":{"type":"Point","coordinates":[77.0758441997,10.4816570488]}},{"type":"Feature","properties":{"crop":"Nutmeg","tree_no":"297"},"geometry":{"type":"Point","coordinates":[77.0759117542,10.4816402475]}},{"type":"Feature","properties":{"crop":"Nutmeg","tree_no":"298"},"geometry":{"type":"Point","coordinates":[77.075986722,10.4816300888]}},{"type":"Feature","properties":{"crop":"Nutmeg","tree_no":"299"},"geometry":{"type":"Point","coordinates":[77.0760629942,10.4816194312]}},{"type":"Feature","properties":{"crop":"Nutmeg","tree_no":"300"},"geometry":{"type":"Point","coordinates":[77.0761384222,10.4816110399]}},{"type":"Feature","properties":{"crop":"Nutmeg","tree_no":"301"},"geometry":{"type":"Point","coordinates":[77.0762091391,10.4815994697]}},{"type":"Feature","properties":{"crop":"Nutmeg","tree_no":"302"},"geometry":{"type":"Point","coordinates":[77.0762788357,10.4815931812]}},{"type":"Feature","properties":{"crop":"Nutmeg","tree_no":"303"},"geometry":{"type":"Point","coordinates":[77.0763501142,10.4815837182]}},{"type":"Feature","properties":{"crop":"Nutmeg","tree_no":"304"},"geometry":{"type":"Point","coordinates":[77.0764277603,10.4815725495]}},{"type":"Feature","properties":{"crop":"Nutmeg","tree_no":"305"},"geometry":{"type":"Point","coordinates":[77.0765013514,10.481552504]}},{"type":"Feature","properties":{"crop":"Nutmeg","tree_no":"306"},"geometry":{"type":"Point","coordinates":[77.0765742145,10.4815441017]}},{"type":"Feature","properties":{"crop":"Nutmeg","tree_no":"307"},"geometry":{"type":"Point","coordinates":[77.0766506038,10.4815355534]}},{"type":"Feature","properties":{"crop":"Nutmeg","tree_no":"308"},"geometry":{"type":"Point","coordinates":[77.0767217951,10.4815278198]}},{"type":"Feature","properties":{"crop":"Nutmeg","tree_no":"309"},"geometry":{"type":"Point","coordinates":[77.0767846849,10.4815139628]}},{"type":"Feature","properties":{"crop":"Nutmeg","tree_no":"310"},"geometry":{"type":"Point","coordinates":[77.0767757606,10.4814437966]}},{"type":"Feature","properties":{"crop":"Nutmeg","tree_no":"311"},"geometry":{"type":"Point","coordinates":[77.0767099814,10.4814478896]}},{"type":"Feature","properties":{"crop":"Nutmeg","tree_no":"312"},"geometry":{"type":"Point","coordinates":[77.0766325822,10.4814588488]}},{"type":"Feature","properties":{"crop":"Nutmeg","tree_no":"313"},"geometry":{"type":"Point","coordinates":[77.0765596266,10.4814701245]}},{"type":"Feature","properties":{"crop":"Nutmeg","tree_no":"314"},"geometry":{"type":"Point","coordinates":[77.0764904539,10.4814816188]}},{"type":"Feature","properties":{"crop":"Nutmeg","tree_no":"315"},"geometry":{"type":"Point","coordinates":[77.0764169889,10.4814961552]}},{"type":"Feature","properties":{"crop":"Nutmeg","tree_no":"316"},"geometry":{"type":"Point","coordinates":[77.0763361807,10.4815143666]}},{"type":"Feature","properties":{"crop":"Nutmeg","tree_no":"317"},"geometry":{"type":"Point","coordinates":[77.0762656659,10.4815172901]}},{"type":"Feature","properties":{"crop":"Nutmeg","tree_no":"318"},"geometry":{"type":"Point","coordinates":[77.076198083,10.4815308212]}},{"type":"Feature","properties":{"crop":"Nutmeg","tree_no":"319"},"geometry":{"type":"Point","coordinates":[77.0761262981,10.4815429049]}},{"type":"Feature","properties":{"crop":"Nutmeg","tree_no":"320"},"geometry":{"type":"Point","coordinates":[77.0760527527,10.4815462647]}},{"type":"Feature","properties":{"crop":"Nutmeg","tree_no":"321"},"geometry":{"type":"Point","coordinates":[77.0759747513,10.4815598296]}},{"type":"Feature","properties":{"crop":"Nutmeg","tree_no":"322"},"geometry":{"type":"Point","coordinates":[77.075906332,10.4815680382]}},{"type":"Feature","properties":{"crop":"Nutmeg","tree_no":"323"},"geometry":{"type":"Point","coordinates":[77.0758328587,10.4815813868]}},{"type":"Feature","properties":{"crop":"Nutmeg","tree_no":"324"},"geometry":{"type":"Point","coordinates":[77.0757598381,10.4815914979]}},{"type":"Feature","properties":{"crop":"Nutmeg","tree_no":"325"},"geometry":{"type":"Point","coordinates":[77.0756846349,10.4816067072]}},{"type":"Feature","properties":{"crop":"Nutmeg","tree_no":"326"},"geometry":{"type":"Point","coordinates":[77.0755635521,10.4816371199]}},{"type":"Feature","properties":{"crop":"Nutmeg","tree_no":"327"},"geometry":{"type":"Point","coordinates":[77.075460637,10.4816349876]}},{"type":"Feature","properties":{"crop":"Nutmeg","tree_no":"328"},"geometry":{"type":"Point","coordinates":[77.0753893305,10.4816421309]}},{"type":"Feature","properties":{"crop":"Nutmeg","tree_no":"329"},"geometry":{"type":"Point","coordinates":[77.0752400973,10.4816655854]}},{"type":"Feature","properties":{"crop":"Nutmeg","tree_no":"330"},"geometry":{"type":"Point","coordinates":[77.0751695132,10.4816717986]}},{"type":"Feature","properties":{"crop":"Nutmeg","tree_no":"331"},"geometry":{"type":"Point","coordinates":[77.0750968627,10.4816758221]}},{"type":"Feature","properties":{"crop":"Nutmeg","tree_no":"332"},"geometry":{"type":"Point","coordinates":[77.0750232467,10.4816889122]}},{"type":"Feature","properties":{"crop":"Nutmeg","tree_no":"333"},"geometry":{"type":"Point","coordinates":[77.0749491404,10.4817022817]}},{"type":"Feature","properties":{"crop":"Nutmeg","tree_no":"334"},"geometry":{"type":"Point","coordinates":[77.0748763766,10.4817017718]}},{"type":"Feature","properties":{"crop":"Nutmeg","tree_no":"335"},"geometry":{"type":"Point","coordinates":[77.07480278,10.4817147885]}},{"type":"Feature","properties":{"crop":"Nutmeg","tree_no":"337"},"geometry":{"type":"Point","coordinates":[77.0746483889,10.4817322409]}},{"type":"Feature","properties":{"crop":"Nutmeg","tree_no":"338"},"geometry":{"type":"Point","coordinates":[77.0745778381,10.4817372915]}},{"type":"Feature","properties":{"crop":"Nutmeg","tree_no":"339"},"geometry":{"type":"Point","coordinates":[77.0745003993,10.4817546359]}},{"type":"Feature","properties":{"crop":"Nutmeg","tree_no":"340"},"geometry":{"type":"Point","coordinates":[77.0744257955,10.4817571032]}},{"type":"Feature","properties":{"crop":"Nutmeg","tree_no":"341"},"geometry":{"type":"Point","coordinates":[77.0743546656,10.4817738663]}},{"type":"Feature","properties":{"crop":"Nutmeg","tree_no":"342"},"geometry":{"type":"Point","coordinates":[77.0742839186,10.4817825539]}},{"type":"Feature","properties":{"crop":"Nutmeg","tree_no":"343"},"geometry":{"type":"Point","coordinates":[77.0742169489,10.4817810229]}},{"type":"Feature","properties":{"crop":"Nutmeg","tree_no":"344"},"geometry":{"type":"Point","coordinates":[77.0741502559,10.4817864515]}},{"type":"Feature","properties":{"crop":"Nutmeg","tree_no":"345"},"geometry":{"type":"Point","coordinates":[77.0741631108,10.481711988]}},{"type":"Feature","properties":{"crop":"Nutmeg","tree_no":"346"},"geometry":{"type":"Point","coordinates":[77.0742006069,10.4817140885]}},{"type":"Feature","properties":{"crop":"Nutmeg","tree_no":"347"},"geometry":{"type":"Point","coordinates":[77.074276194,10.4817062852]}},{"type":"Feature","properties":{"crop":"Nutmeg","tree_no":"348"},"geometry":{"type":"Point","coordinates":[77.0743511197,10.4816953152]}},{"type":"Feature","properties":{"crop":"Nutmeg","tree_no":"349"},"geometry":{"type":"Point","coordinates":[77.0744213251,10.4816894622]}},{"type":"Feature","properties":{"crop":"Nutmeg","tree_no":"350"},"geometry":{"type":"Point","coordinates":[77.0744895068,10.4816743623]}},{"type":"Feature","properties":{"crop":"Nutmeg","tree_no":"351"},"geometry":{"type":"Point","coordinates":[77.074563254,10.4816714898]}},{"type":"Feature","properties":{"crop":"Nutmeg","tree_no":"352"},"geometry":{"type":"Point","coordinates":[77.0746370432,10.4816648853]}},{"type":"Feature","properties":{"crop":"Nutmeg","tree_no":"353"},"geometry":{"type":"Point","coordinates":[77.0747098501,10.4816476684]}},{"type":"Feature","properties":{"crop":"Nutmeg","tree_no":"354"},"geometry":{"type":"Point","coordinates":[77.0747860671,10.4816386477]}},{"type":"Feature","properties":{"crop":"Nutmeg","tree_no":"355"},"geometry":{"type":"Point","coordinates":[77.0748627272,10.4816316507]}},{"type":"Feature","properties":{"crop":"Nutmeg","tree_no":"356"},"geometry":{"type":"Point","coordinates":[77.0749419638,10.4816259491]}},{"type":"Feature","properties":{"crop":"Nutmeg","tree_no":"357"},"geometry":{"type":"Point","coordinates":[77.0750181434,10.4816125994]}},{"type":"Feature","properties":{"crop":"Nutmeg","tree_no":"358"},"geometry":{"type":"Point","coordinates":[77.0750875204,10.4816037593]}},{"type":"Feature","properties":{"crop":"Nutmeg","tree_no":"359"},"geometry":{"type":"Point","coordinates":[77.075158891,10.4815919193]}},{"type":"Feature","properties":{"crop":"Nutmeg","tree_no":"360"},"geometry":{"type":"Point","coordinates":[77.0752266749,10.4815830931]}},{"type":"Feature","properties":{"crop":"Nutmeg","tree_no":"361"},"geometry":{"type":"Point","coordinates":[77.0753788173,10.4815635164]}},{"type":"Feature","properties":{"crop":"Nutmeg","tree_no":"362"},"geometry":{"type":"Point","coordinates":[77.0754453361,10.4815546727]}},{"type":"Feature","properties":{"crop":"Nutmeg","tree_no":"363"},"geometry":{"type":"Point","coordinates":[77.0755227503,10.4815527555]}},{"type":"Feature","properties":{"crop":"Nutmeg","tree_no":"364"},"geometry":{"type":"Point","coordinates":[77.0755709987,10.481554717]}},{"type":"Feature","properties":{"crop":"Nutmeg","tree_no":"365"},"geometry":{"type":"Point","coordinates":[77.0756726429,10.4815204439]}},{"type":"Feature","properties":{"crop":"Nutmeg","tree_no":"366"},"geometry":{"type":"Point","coordinates":[77.0757450952,10.4815146914]}},{"type":"Feature","properties":{"crop":"Nutmeg","tree_no":"367"},"geometry":{"type":"Point","coordinates":[77.0758201626,10.4815045542]}},{"type":"Feature","properties":{"crop":"Nutmeg","tree_no":"368"},"geometry":{"type":"Point","coordinates":[77.0758917325,10.4814971823]}},{"type":"Feature","properties":{"crop":"Nutmeg","tree_no":"369"},"geometry":{"type":"Point","coordinates":[77.0759653273,10.481480407]}},{"type":"Feature","properties":{"crop":"Nutmeg","tree_no":"370"},"geometry":{"type":"Point","coordinates":[77.0760409236,10.4814771011]}},{"type":"Feature","properties":{"crop":"Nutmeg","tree_no":"371"},"geometry":{"type":"Point","coordinates":[77.0761151296,10.4814627229]}},{"type":"Feature","properties":{"crop":"Nutmeg","tree_no":"372"},"geometry":{"type":"Point","coordinates":[77.0761913334,10.4814567337]}},{"type":"Feature","properties":{"crop":"Nutmeg","tree_no":"373"},"geometry":{"type":"Point","coordinates":[77.0762552393,10.4814509443]}},{"type":"Feature","properties":{"crop":"Nutmeg","tree_no":"374"},"geometry":{"type":"Point","coordinates":[77.0763269227,10.4814346383]}},{"type":"Feature","properties":{"crop":"Nutmeg","tree_no":"375"},"geometry":{"type":"Point","coordinates":[77.0764045718,10.4814213408]}},{"type":"Feature","properties":{"crop":"Nutmeg","tree_no":"376"},"geometry":{"type":"Point","coordinates":[77.0764791557,10.4814133608]}},{"type":"Feature","properties":{"crop":"Nutmeg","tree_no":"377"},"geometry":{"type":"Point","coordinates":[77.0765505943,10.4813977709]}},{"type":"Feature","properties":{"crop":"Nutmeg","tree_no":"378"},"geometry":{"type":"Point","coordinates":[77.0766228601,10.4813857939]}},{"type":"Feature","properties":{"crop":"Nutmeg","tree_no":"380"},"geometry":{"type":"Point","coordinates":[77.0767042659,10.4813718331]}},{"type":"Feature","properties":{"crop":"Nutmeg","tree_no":"381"},"geometry":{"type":"Point","coordinates":[77.0767556177,10.4813775953]}},{"type":"Feature","properties":{"crop":"Nutmeg","tree_no":"382"},"geometry":{"type":"Point","coordinates":[77.0767399049,10.4812258995]}},{"type":"Feature","properties":{"crop":"Nutmeg","tree_no":"383"},"geometry":{"type":"Point","coordinates":[77.0766766418,10.4812377665]}},{"type":"Feature","properties":{"crop":"Nutmeg","tree_no":"384"},"geometry":{"type":"Point","coordinates":[77.076607538,10.4812422231]}},{"type":"Feature","properties":{"crop":"Nutmeg","tree_no":"385"},"geometry":{"type":"Point","coordinates":[77.0765341586,10.4812563898]}},{"type":"Feature","properties":{"crop":"Nutmeg","tree_no":"386"},"geometry":{"type":"Point","coordinates":[77.0764537257,10.4812702477]}},{"type":"Feature","properties":{"crop":"Nutmeg","tree_no":"387"},"geometry":{"type":"Point","coordinates":[77.0763812656,10.4812802901]}},{"type":"Feature","properties":{"crop":"Nutmeg","tree_no":"388"},"geometry":{"type":"Point","coordinates":[77.0763096941,10.4812924259]}},{"type":"Feature","properties":{"crop":"Nutmeg","tree_no":"389"},"geometry":{"type":"Point","coordinates":[77.0762381414,10.4813027293]}},{"type":"Feature","properties":{"crop":"Nutmeg","tree_no":"390"},"geometry":{"type":"Point","coordinates":[77.0761618533,10.4813162975]}},{"type":"Feature","properties":{"crop":"Nutmeg","tree_no":"391"},"geometry":{"type":"Point","coordinates":[77.076085768,10.4813249346]}},{"type":"Feature","properties":{"crop":"Nutmeg","tree_no":"392"},"geometry":{"type":"Point","coordinates":[77.0760110633,10.4813366767]}},{"type":"Feature","properties":{"crop":"Nutmeg","tree_no":"393"},"geometry":{"type":"Point","coordinates":[77.0759365476,10.4813447323]}},{"type":"Feature","properties":{"crop":"Nutmeg","tree_no":"394"},"geometry":{"type":"Point","coordinates":[77.0758632799,10.4813550708]}},{"type":"Feature","properties":{"crop":"Nutmeg","tree_no":"395"},"geometry":{"type":"Point","coordinates":[77.0757880067,10.4813671185]}},{"type":"Feature","properties":{"crop":"Nutmeg","tree_no":"396"},"geometry":{"type":"Point","coordinates":[77.0757100812,10.4813771717]}},{"type":"Feature","properties":{"crop":"Nutmeg","tree_no":"397"},"geometry":{"type":"Point","coordinates":[77.0754979266,10.4814033647]}},{"type":"Feature","properties":{"crop":"Nutmeg","tree_no":"398"},"geometry":{"type":"Point","coordinates":[77.0754168161,10.4814121847]}},{"type":"Feature","properties":{"crop":"Nutmeg","tree_no":"399"},"geometry":{"type":"Point","coordinates":[77.0753414507,10.481426841]}},{"type":"Feature","properties":{"crop":"Nutmeg","tree_no":"400"},"geometry":{"type":"Point","coordinates":[77.0752138247,10.4814405102]}},{"type":"Feature","properties":{"crop":"Nutmeg","tree_no":"401"},"geometry":{"type":"Point","coordinates":[77.0751497098,10.4814479917]}},{"type":"Feature","properties":{"crop":"Nutmeg","tree_no":"402"},"geometry":{"type":"Point","coordinates":[77.0750686446,10.4814561749]}},{"type":"Feature","properties":{"crop":"Nutmeg","tree_no":"403"},"geometry":{"type":"Point","coordinates":[77.0749908373,10.4814736826]}},{"type":"Feature","properties":{"crop":"Nutmeg","tree_no":"404"},"geometry":{"type":"Point","coordinates":[77.0749175119,10.481477056]}},{"type":"Feature","properties":{"crop":"Nutmeg","tree_no":"405"},"geometry":{"type":"Point","coordinates":[77.0748472217,10.4814850183]}},{"type":"Feature","properties":{"crop":"Nutmeg","tree_no":"406"},"geometry":{"type":"Point","coordinates":[77.0747749538,10.4814942433]}},{"type":"Feature","properties":{"crop":"Nutmeg","tree_no":"407"},"geometry":{"type":"Point","coordinates":[77.0746980158,10.4815058734]}},{"type":"Feature","properties":{"crop":"Nutmeg","tree_no":"408"},"geometry":{"type":"Point","coordinates":[77.0746245083,10.4815114604]}},{"type":"Feature","properties":{"crop":"Nutmeg","tree_no":"409"},"geometry":{"type":"Point","coordinates":[77.07454755,10.4815225488]}},{"type":"Feature","properties":{"crop":"Nutmeg","tree_no":"410"},"geometry":{"type":"Point","coordinates":[77.0744773159,10.4815317079]}},{"type":"Feature","properties":{"crop":"Nutmeg","tree_no":"411"},"geometry":{"type":"Point","coordinates":[77.07440488,10.4815406001]}},{"type":"Feature","properties":{"crop":"Nutmeg","tree_no":"412"},"geometry":{"type":"Point","coordinates":[77.0743291933,10.481547985]}},{"type":"Feature","properties":{"crop":"Nutmeg","tree_no":"413"},"geometry":{"type":"Point","coordinates":[77.0742563706,10.481556019]}},{"type":"Feature","properties":{"crop":"Nutmeg","tree_no":"414"},"geometry":{"type":"Point","coordinates":[77.0741856739,10.4815665128]}},{"type":"Feature","properties":{"crop":"Nutmeg","tree_no":"415"},"geometry":{"type":"Point","coordinates":[77.0741888441,10.4814869578]}},{"type":"Feature","properties":{"crop":"Nutmeg","tree_no":"416"},"geometry":{"type":"Point","coordinates":[77.0742460864,10.481477805]}},{"type":"Feature","properties":{"crop":"Nutmeg","tree_no":"417"},"geometry":{"type":"Point","coordinates":[77.0743158512,10.4814716663]}},{"type":"Feature","properties":{"crop":"Nutmeg","tree_no":"418"},"geometry":{"type":"Point","coordinates":[77.0743889292,10.4814628533]}},{"type":"Feature","properties":{"crop":"Nutmeg","tree_no":"419"},"geometry":{"type":"Point","coordinates":[77.074467852,10.4814584476]}},{"type":"Feature","properties":{"crop":"Nutmeg","tree_no":"420"},"geometry":{"type":"Point","coordinates":[77.074539298,10.4814498997]}},{"type":"Feature","properties":{"crop":"Nutmeg","tree_no":"421"},"geometry":{"type":"Point","coordinates":[77.074611116,10.4814386354]}},{"type":"Feature","properties":{"crop":"Nutmeg","tree_no":"422"},"geometry":{"type":"Point","coordinates":[77.0746933957,10.4814306541]}},{"type":"Feature","properties":{"crop":"Nutmeg","tree_no":"423"},"geometry":{"type":"Point","coordinates":[77.0747643211,10.4814211963]}},{"type":"Feature","properties":{"crop":"Nutmeg","tree_no":"424"},"geometry":{"type":"Point","coordinates":[77.0748390734,10.4814171617]}},{"type":"Feature","properties":{"crop":"Nutmeg","tree_no":"425"},"geometry":{"type":"Point","coordinates":[77.0749082163,10.4814089216]}},{"type":"Feature","properties":{"crop":"Nutmeg","tree_no":"426"},"geometry":{"type":"Point","coordinates":[77.0749827411,10.4813914179]}},{"type":"Feature","properties":{"crop":"Nutmeg","tree_no":"427"},"geometry":{"type":"Point","coordinates":[77.0750606991,10.4813854281]}},{"type":"Feature","properties":{"crop":"Nutmeg","tree_no":"428"},"geometry":{"type":"Point","coordinates":[77.0751306998,10.481376319]}},{"type":"Feature","properties":{"crop":"Nutmeg","tree_no":"429"},"geometry":{"type":"Point","coordinates":[77.0752031669,10.4813761843]}},{"type":"Feature","properties":{"crop":"Nutmeg","tree_no":"430"},"geometry":{"type":"Point","coordinates":[77.0753344842,10.4813518671]}},{"type":"Feature","properties":{"crop":"Nutmeg","tree_no":"431"},"geometry":{"type":"Point","coordinates":[77.0754075457,10.4813385967]}},{"type":"Feature","properties":{"crop":"Nutmeg","tree_no":"432"},"geometry":{"type":"Point","coordinates":[77.0754852992,10.4813280272]}},{"type":"Feature","properties":{"crop":"Nutmeg","tree_no":"433"},"geometry":{"type":"Point","coordinates":[77.0757029753,10.4813086086]}},{"type":"Feature","properties":{"crop":"Nutmeg","tree_no":"434"},"geometry":{"type":"Point","coordinates":[77.0757777945,10.4812902479]}},{"type":"Feature","properties":{"crop":"Nutmeg","tree_no":"435"},"geometry":{"type":"Point","coordinates":[77.075856444,10.4812812008]}},{"type":"Feature","properties":{"crop":"Nutmeg","tree_no":"436"},"geometry":{"type":"Point","coordinates":[77.0759265374,10.481270211]}},{"type":"Feature","properties":{"crop":"Nutmeg","tree_no":"437"},"geometry":{"type":"Point","coordinates":[77.0759984763,10.4812598826]}},{"type":"Feature","properties":{"crop":"Nutmeg","tree_no":"438"},"geometry":{"type":"Point","coordinates":[77.0760698271,10.4812484174]}},{"type":"Feature","properties":{"crop":"Nutmeg","tree_no":"439"},"geometry":{"type":"Point","coordinates":[77.0761476839,10.48123828]}},{"type":"Feature","properties":{"crop":"Nutmeg","tree_no":"440"},"geometry":{"type":"Point","coordinates":[77.0762296648,10.4812311304]}},{"type":"Feature","properties":{"crop":"Nutmeg","tree_no":"441"},"geometry":{"type":"Point","coordinates":[77.0762958859,10.4812147498]}},{"type":"Feature","properties":{"crop":"Nutmeg","tree_no":"442"},"geometry":{"type":"Point","coordinates":[77.0763668586,10.4812069308]}},{"type":"Feature","properties":{"crop":"Nutmeg","tree_no":"443"},"geometry":{"type":"Point","coordinates":[77.0764405395,10.4811926098]}},{"type":"Feature","properties":{"crop":"Nutmeg","tree_no":"444"},"geometry":{"type":"Point","coordinates":[77.0765161948,10.4811814289]}},{"type":"Feature","properties":{"crop":"Nutmeg","tree_no":"445"},"geometry":{"type":"Point","coordinates":[77.0765915841,10.4811726225]}},{"type":"Feature","properties":{"crop":"Nutmeg","tree_no":"446"},"geometry":{"type":"Point","coordinates":[77.0766620205,10.4811586018]}},{"type":"Feature","properties":{"crop":"Nutmeg","tree_no":"447"},"geometry":{"type":"Point","coordinates":[77.0767271689,10.4811510349]}},{"type":"Feature","properties":{"crop":"Nutmeg","tree_no":"448"},"geometry":{"type":"Point","coordinates":[77.0767134314,10.4810745746]}},{"type":"Feature","properties":{"crop":"Nutmeg","tree_no":"449"},"geometry":{"type":"Point","coordinates":[77.0766493308,10.4810877861]}},{"type":"Feature","properties":{"crop":"Nutmeg","tree_no":"450"},"geometry":{"type":"Point","coordinates":[77.0765814166,10.4810925891]}},{"type":"Feature","properties":{"crop":"Nutmeg","tree_no":"451"},"geometry":{"type":"Point","coordinates":[77.0765028814,10.4811063809]}},{"type":"Feature","properties":{"crop":"Nutmeg","tree_no":"452"},"geometry":{"type":"Point","coordinates":[77.0764314573,10.4811212173]}},{"type":"Feature","properties":{"crop":"Nutmeg","tree_no":"453"},"geometry":{"type":"Point","coordinates":[77.0763561333,10.4811332451]}},{"type":"Feature","properties":{"crop":"Nutmeg","tree_no":"454"},"geometry":{"type":"Point","coordinates":[77.076285518,10.4811435307]}},{"type":"Feature","properties":{"crop":"Nutmeg","tree_no":"455"},"geometry":{"type":"Point","coordinates":[77.0762077448,10.4811513079]}},{"type":"Feature","properties":{"crop":"Nutmeg","tree_no":"456"},"geometry":{"type":"Point","coordinates":[77.0761331397,10.4811623458]}},{"type":"Feature","properties":{"crop":"Nutmeg","tree_no":"457"},"geometry":{"type":"Point","coordinates":[77.0760618883,10.4811744518]}},{"type":"Feature","properties":{"crop":"Nutmeg","tree_no":"458"},"geometry":{"type":"Point","coordinates":[77.0759909547,10.4811829435]}},{"type":"Feature","properties":{"crop":"Nutmeg","tree_no":"459"},"geometry":{"type":"Point","coordinates":[77.0759180918,10.4811984599]}},{"type":"Feature","properties":{"crop":"Nutmeg","tree_no":"460"},"geometry":{"type":"Point","coordinates":[77.0758422087,10.481207183]}},{"type":"Feature","properties":{"crop":"Nutmeg","tree_no":"461"},"geometry":{"type":"Point","coordinates":[77.0757701369,10.4812166754]}},{"type":"Feature","properties":{"crop":"Nutmeg","tree_no":"462"},"geometry":{"type":"Point","coordinates":[77.075691157,10.4812307855]}},{"type":"Feature","properties":{"crop":"Nutmeg","tree_no":"463"},"geometry":{"type":"Point","coordinates":[77.0754756111,10.4812570264]}},{"type":"Feature","properties":{"crop":"Nutmeg","tree_no":"464"},"geometry":{"type":"Point","coordinates":[77.0754021962,10.4812650162]}},{"type":"Feature","properties":{"crop":"Nutmeg","tree_no":"465"},"geometry":{"type":"Point","coordinates":[77.0753243693,10.4812770886]}},{"type":"Feature","properties":{"crop":"Nutmeg","tree_no":"466"},"geometry":{"type":"Point","coordinates":[77.0751850009,10.4812968319]}},{"type":"Feature","properties":{"crop":"Nutmeg","tree_no":"467"},"geometry":{"type":"Point","coordinates":[77.0751176342,10.4813056302]}},{"type":"Feature","properties":{"crop":"Nutmeg","tree_no":"468"},"geometry":{"type":"Point","coordinates":[77.0750420759,10.4813131326]}},{"type":"Feature","properties":{"crop":"Nutmeg","tree_no":"469"},"geometry":{"type":"Point","coordinates":[77.0749748129,10.4813222442]}},{"type":"Feature","properties":{"crop":"Nutmeg","tree_no":"470"},"geometry":{"type":"Point","coordinates":[77.0749044301,10.481333068]}},{"type":"Feature","properties":{"crop":"Nutmeg","tree_no":"471"},"geometry":{"type":"Point","coordinates":[77.0748248311,10.4813386381]}},{"type":"Feature","properties":{"crop":"Nutmeg","tree_no":"472"},"geometry":{"type":"Point","coordinates":[77.0747546759,10.4813506239]}},{"type":"Feature","properties":{"crop":"Nutmeg","tree_no":"473"},"geometry":{"type":"Point","coordinates":[77.0746834655,10.4813547514]}},{"type":"Feature","properties":{"crop":"Nutmeg","tree_no":"474"},"geometry":{"type":"Point","coordinates":[77.0746055429,10.4813644689]}},{"type":"Feature","properties":{"crop":"Nutmeg","tree_no":"475"},"geometry":{"type":"Point","coordinates":[77.0745325742,10.4813748984]}},{"type":"Feature","properties":{"crop":"Nutmeg","tree_no":"476"},"geometry":{"type":"Point","coordinates":[77.0744523138,10.4813865956]}},{"type":"Feature","properties":{"crop":"Nutmeg","tree_no":"477"},"geometry":{"type":"Point","coordinates":[77.0743796851,10.4813921564]}},{"type":"Feature","properties":{"crop":"Nutmeg","tree_no":"478"},"geometry":{"type":"Point","coordinates":[77.0743048581,10.4813971816]}},{"type":"Feature","properties":{"crop":"Nutmeg","tree_no":"479"},"geometry":{"type":"Point","coordinates":[77.0742377783,10.4814119022]}},{"type":"Feature","properties":{"crop":"Nutmeg","tree_no":"480"},"geometry":{"type":"Point","coordinates":[77.0742255381,10.4813367863]}},{"type":"Feature","properties":{"crop":"Nutmeg","tree_no":"481"},"geometry":{"type":"Point","coordinates":[77.074297523,10.4813306059]}},{"type":"Feature","properties":{"crop":"Nutmeg","tree_no":"482"},"geometry":{"type":"Point","coordinates":[77.0743708079,10.4813221915]}},{"type":"Feature","properties":{"crop":"Nutmeg","tree_no":"483"},"geometry":{"type":"Point","coordinates":[77.0744486704,10.4813115282]}},{"type":"Feature","properties":{"crop":"Nutmeg","tree_no":"484"},"geometry":{"type":"Point","coordinates":[77.0745221023,10.4813052429]}},{"type":"Feature","properties":{"crop":"Nutmeg","tree_no":"485"},"geometry":{"type":"Point","coordinates":[77.0745949503,10.4812907673]}},{"type":"Feature","properties":{"crop":"Nutmeg","tree_no":"486"},"geometry":{"type":"Point","coordinates":[77.0746682058,10.4812856539]}},{"type":"Feature","properties":{"crop":"Nutmeg","tree_no":"487"},"geometry":{"type":"Point","coordinates":[77.0747453662,10.4812783163]}},{"type":"Feature","properties":{"crop":"Nutmeg","tree_no":"488"},"geometry":{"type":"Point","coordinates":[77.074816394,10.481265619]}},{"type":"Feature","properties":{"crop":"Nutmeg","tree_no":"489"},"geometry":{"type":"Point","coordinates":[77.0748871898,10.4812568084]}},{"type":"Feature","properties":{"crop":"Nutmeg","tree_no":"490"},"geometry":{"type":"Point","coordinates":[77.0749662272,10.4812522414]}},{"type":"Feature","properties":{"crop":"Nutmeg","tree_no":"491"},"geometry":{"type":"Point","coordinates":[77.0750355394,10.4812417875]}},{"type":"Feature","properties":{"crop":"Nutmeg","tree_no":"492"},"geometry":{"type":"Point","coordinates":[77.0751067165,10.4812312171]}},{"type":"Feature","properties":{"crop":"Nutmeg","tree_no":"493"},"geometry":{"type":"Point","coordinates":[77.0751784948,10.4812233042]}},{"type":"Feature","properties":{"crop":"Nutmeg","tree_no":"495"},"geometry":{"type":"Point","coordinates":[77.0753916472,10.4811936984]}},{"type":"Feature","properties":{"crop":"Nutmeg","tree_no":"496"},"geometry":{"type":"Point","coordinates":[77.0754642912,10.4811822595]}},{"type":"Feature","properties":{"crop":"Nutmeg","tree_no":"497"},"geometry":{"type":"Point","coordinates":[77.075683885,10.4811595107]}},{"type":"Feature","properties":{"crop":"Nutmeg","tree_no":"498"},"geometry":{"type":"Point","coordinates":[77.0757591282,10.4811431671]}},{"type":"Feature","properties":{"crop":"Nutmeg","tree_no":"499"},"geometry":{"type":"Point","coordinates":[77.0758317376,10.4811305936]}},{"type":"Feature","properties":{"crop":"Nutmeg","tree_no":"500"},"geometry":{"type":"Point","coordinates":[77.0759056567,10.4811202157]}},{"type":"Feature","properties":{"crop":"Nutmeg","tree_no":"501"},"geometry":{"type":"Point","coordinates":[77.0759835399,10.4811070077]}},{"type":"Feature","properties":{"crop":"Nutmeg","tree_no":"502"},"geometry":{"type":"Point","coordinates":[77.0760517483,10.4811010837]}},{"type":"Feature","properties":{"crop":"Nutmeg","tree_no":"503"},"geometry":{"type":"Point","coordinates":[77.0761255264,10.4810897999]}},{"type":"Feature","properties":{"crop":"Nutmeg","tree_no":"504"},"geometry":{"type":"Point","coordinates":[77.0762024212,10.4810794699]}},{"type":"Feature","properties":{"crop":"Nutmeg","tree_no":"505"},"geometry":{"type":"Point","coordinates":[77.0762725619,10.4810702636]}},{"type":"Feature","properties":{"crop":"Nutmeg","tree_no":"506"},"geometry":{"type":"Point","coordinates":[77.0763463869,10.4810574538]}},{"type":"Feature","properties":{"crop":"Nutmeg","tree_no":"507"},"geometry":{"type":"Point","coordinates":[77.0764232132,10.4810448606]}},{"type":"Feature","properties":{"crop":"Nutmeg","tree_no":"508"},"geometry":{"type":"Point","coordinates":[77.0764981999,10.4810324717]}},{"type":"Feature","properties":{"crop":"Nutmeg","tree_no":"509"},"geometry":{"type":"Point","coordinates":[77.0765674395,10.4810197464]}},{"type":"Feature","properties":{"crop":"Nutmeg","tree_no":"510"},"geometry":{"type":"Point","coordinates":[77.0766375188,10.4810107995]}},{"type":"Feature","properties":{"crop":"Nutmeg","tree_no":"511"},"geometry":{"type":"Point","coordinates":[77.0767030837,10.4810038143]}},{"type":"Feature","properties":{"crop":"Nutmeg","tree_no":"512"},"geometry":{"type":"Point","coordinates":[77.0766897291,10.4809264379]}},{"type":"Feature","properties":{"crop":"Nutmeg","tree_no":"513"},"geometry":{"type":"Point","coordinates":[77.0766261035,10.4809372282]}},{"type":"Feature","properties":{"crop":"Nutmeg","tree_no":"514"},"geometry":{"type":"Point","coordinates":[77.0765569667,10.4809513399]}},{"type":"Feature","properties":{"crop":"Nutmeg","tree_no":"515"},"geometry":{"type":"Point","coordinates":[77.0764862777,10.4809587481]}},{"type":"Feature","properties":{"crop":"Nutmeg","tree_no":"516"},"geometry":{"type":"Point","coordinates":[77.076409364,10.4809755386]}},{"type":"Feature","properties":{"crop":"Nutmeg","tree_no":"517"},"geometry":{"type":"Point","coordinates":[77.0763361393,10.4809815658]}},{"type":"Feature","properties":{"crop":"Nutmeg","tree_no":"518"},"geometry":{"type":"Point","coordinates":[77.0762660134,10.4809978267]}},{"type":"Feature","properties":{"crop":"Nutmeg","tree_no":"519"},"geometry":{"type":"Point","coordinates":[77.0761891501,10.4810071894]}},{"type":"Feature","properties":{"crop":"Nutmeg","tree_no":"520"},"geometry":{"type":"Point","coordinates":[77.0761149448,10.4810153552]}},{"type":"Feature","properties":{"crop":"Nutmeg","tree_no":"521"},"geometry":{"type":"Point","coordinates":[77.0760449973,10.4810243731]}},{"type":"Feature","properties":{"crop":"Nutmeg","tree_no":"522"},"geometry":{"type":"Point","coordinates":[77.0759700463,10.4810358684]}},{"type":"Feature","properties":{"crop":"Nutmeg","tree_no":"523"},"geometry":{"type":"Point","coordinates":[77.0758948674,10.4810456862]}},{"type":"Feature","properties":{"crop":"Nutmeg","tree_no":"524"},"geometry":{"type":"Point","coordinates":[77.075817239,10.4810568767]}},{"type":"Feature","properties":{"crop":"Nutmeg","tree_no":"525"},"geometry":{"type":"Point","coordinates":[77.0757501834,10.4810748188]}},{"type":"Feature","properties":{"crop":"Nutmeg","tree_no":"526"},"geometry":{"type":"Point","coordinates":[77.0756772196,10.4810880706]}},{"type":"Feature","properties":{"crop":"Nutmeg","tree_no":"529"},"geometry":{"type":"Point","coordinates":[77.0751664837,10.4811475931]}},{"type":"Feature","properties":{"crop":"Nutmeg","tree_no":"530"},"geometry":{"type":"Point","coordinates":[77.0751012374,10.481159025]}},{"type":"Feature","properties":{"crop":"Nutmeg","tree_no":"531"},"geometry":{"type":"Point","coordinates":[77.0750289653,10.4811682726]}},{"type":"Feature","properties":{"crop":"Nutmeg","tree_no":"532"},"geometry":{"type":"Point","coordinates":[77.0749527203,10.481175645]}},{"type":"Feature","properties":{"crop":"Nutmeg","tree_no":"533"},"geometry":{"type":"Point","coordinates":[77.0748817714,10.4811827628]}},{"type":"Feature","properties":{"crop":"Nutmeg","tree_no":"534"},"geometry":{"type":"Point","coordinates":[77.0748059323,10.4811984091]}},{"type":"Feature","properties":{"crop":"Nutmeg","tree_no":"535"},"geometry":{"type":"Point","coordinates":[77.0747324933,10.4811983802]}},{"type":"Feature","properties":{"crop":"Nutmeg","tree_no":"536"},"geometry":{"type":"Point","coordinates":[77.0746540347,10.4812106962]}},{"type":"Feature","properties":{"crop":"Nutmeg","tree_no":"537"},"geometry":{"type":"Point","coordinates":[77.0745846108,10.4812202711]}},{"type":"Feature","properties":{"crop":"Nutmeg","tree_no":"538"},"geometry":{"type":"Point","coordinates":[77.0745102082,10.4812322635]}},{"type":"Feature","properties":{"crop":"Nutmeg","tree_no":"539"},"geometry":{"type":"Point","coordinates":[77.0744357698,10.4812374125]}},{"type":"Feature","properties":{"crop":"Nutmeg","tree_no":"540"},"geometry":{"type":"Point","coordinates":[77.0743634209,10.4812514227]}},{"type":"Feature","properties":{"crop":"Nutmeg","tree_no":"541"},"geometry":{"type":"Point","coordinates":[77.07428469,10.48125458]}},{"type":"Feature","properties":{"crop":"Nutmeg","tree_no":"542"},"geometry":{"type":"Point","coordinates":[77.0742087034,10.4812663962]}},{"type":"Feature","properties":{"crop":"Nutmeg","tree_no":"543"},"geometry":{"type":"Point","coordinates":[77.0741987135,10.4811192277]}},{"type":"Feature","properties":{"crop":"Nutmeg","tree_no":"544"},"geometry":{"type":"Point","coordinates":[77.0742701384,10.4811105039]}},{"type":"Feature","properties":{"crop":"Nutmeg","tree_no":"545"},"geometry":{"type":"Point","coordinates":[77.074341073,10.4811034007]}},{"type":"Feature","properties":{"crop":"Nutmeg","tree_no":"546"},"geometry":{"type":"Point","coordinates":[77.0744162336,10.4810868569]}},{"type":"Feature","properties":{"crop":"Nutmeg","tree_no":"547"},"geometry":{"type":"Point","coordinates":[77.0744893555,10.481079842]}},{"type":"Feature","properties":{"crop":"Nutmeg","tree_no":"548"},"geometry":{"type":"Point","coordinates":[77.0745605333,10.4810744394]}},{"type":"Feature","properties":{"crop":"Nutmeg","tree_no":"549"},"geometry":{"type":"Point","coordinates":[77.0746354843,10.4810641864]}},{"type":"Feature","properties":{"crop":"Nutmeg","tree_no":"550"},"geometry":{"type":"Point","coordinates":[77.0747041809,10.4810579867]}},{"type":"Feature","properties":{"crop":"Nutmeg","tree_no":"551"},"geometry":{"type":"Point","coordinates":[77.0754330059,10.4809621526]}},{"type":"Feature","properties":{"crop":"Nutmeg","tree_no":"552"},"geometry":{"type":"Point","coordinates":[77.0757221613,10.4809223665]}},{"type":"Feature","properties":{"crop":"Nutmeg","tree_no":"553"},"geometry":{"type":"Point","coordinates":[77.0758007939,10.4809134722]}},{"type":"Feature","properties":{"crop":"Nutmeg","tree_no":"554"},"geometry":{"type":"Point","coordinates":[77.075876277,10.4809000141]}},{"type":"Feature","properties":{"crop":"Nutmeg","tree_no":"555"},"geometry":{"type":"Point","coordinates":[77.0759486451,10.4808860138]}},{"type":"Feature","properties":{"crop":"Nutmeg","tree_no":"556"},"geometry":{"type":"Point","coordinates":[77.0760234006,10.4808751078]}},{"type":"Feature","properties":{"crop":"Nutmeg","tree_no":"557"},"geometry":{"type":"Point","coordinates":[77.0760969317,10.4808719411]}},{"type":"Feature","properties":{"crop":"Nutmeg","tree_no":"558"},"geometry":{"type":"Point","coordinates":[77.0761643465,10.4808551739]}},{"type":"Feature","properties":{"crop":"Nutmeg","tree_no":"559"},"geometry":{"type":"Point","coordinates":[77.0762420592,10.4808506483]}},{"type":"Feature","properties":{"crop":"Nutmeg","tree_no":"560"},"geometry":{"type":"Point","coordinates":[77.0763158562,10.4808424351]}},{"type":"Feature","properties":{"crop":"Nutmeg","tree_no":"561"},"geometry":{"type":"Point","coordinates":[77.0763914848,10.480830182]}},{"type":"Feature","properties":{"crop":"Nutmeg","tree_no":"562"},"geometry":{"type":"Point","coordinates":[77.0764625726,10.4808158322]}},{"type":"Feature","properties":{"crop":"Nutmeg","tree_no":"563"},"geometry":{"type":"Point","coordinates":[77.0765332108,10.4808065141]}},{"type":"Feature","properties":{"crop":"Nutmeg","tree_no":"564"},"geometry":{"type":"Point","coordinates":[77.0766079803,10.4807899706]}},{"type":"Feature","properties":{"crop":"Nutmeg","tree_no":"565"},"geometry":{"type":"Point","coordinates":[77.076669469,10.4807799331]}},{"type":"Feature","properties":{"crop":"Nutmeg","tree_no":"566"},"geometry":{"type":"Point","coordinates":[77.0766585127,10.4807082786]}},{"type":"Feature","properties":{"crop":"Nutmeg","tree_no":"567"},"geometry":{"type":"Point","coordinates":[77.0765989405,10.4807169963]}},{"type":"Feature","properties":{"crop":"Nutmeg","tree_no":"568"},"geometry":{"type":"Point","coordinates":[77.076522648,10.4807327954]}},{"type":"Feature","properties":{"crop":"Nutmeg","tree_no":"569"},"geometry":{"type":"Point","coordinates":[77.0764505939,10.480748499]}},{"type":"Feature","properties":{"crop":"Nutmeg","tree_no":"570"},"geometry":{"type":"Point","coordinates":[77.0763805685,10.4807569635]}},{"type":"Feature","properties":{"crop":"Nutmeg","tree_no":"571"},"geometry":{"type":"Point","coordinates":[77.0763045601,10.4807703366]}},{"type":"Feature","properties":{"crop":"Nutmeg","tree_no":"572"},"geometry":{"type":"Point","coordinates":[77.0762288191,10.4807765174]}},{"type":"Feature","properties":{"crop":"Nutmeg","tree_no":"573"},"geometry":{"type":"Point","coordinates":[77.0761557023,10.4807899098]}},{"type":"Feature","properties":{"crop":"Nutmeg","tree_no":"574"},"geometry":{"type":"Point","coordinates":[77.0760794752,10.4807954365]}},{"type":"Feature","properties":{"crop":"Nutmeg","tree_no":"575"},"geometry":{"type":"Point","coordinates":[77.0760092788,10.4808034183]}},{"type":"Feature","properties":{"crop":"Nutmeg","tree_no":"576"},"geometry":{"type":"Point","coordinates":[77.0759401958,10.4808133897]}},{"type":"Feature","properties":{"crop":"Nutmeg","tree_no":"577"},"geometry":{"type":"Point","coordinates":[77.0758647628,10.4808252531]}},{"type":"Feature","properties":{"crop":"Nutmeg","tree_no":"578"},"geometry":{"type":"Point","coordinates":[77.0757887059,10.480836626]}},{"type":"Feature","properties":{"crop":"Nutmeg","tree_no":"579"},"geometry":{"type":"Point","coordinates":[77.0757163617,10.4808511509]}},{"type":"Feature","properties":{"crop":"Nutmeg","tree_no":"580"},"geometry":{"type":"Point","coordinates":[77.0756400073,10.480862551]}},{"type":"Feature","properties":{"crop":"Nutmeg","tree_no":"581"},"geometry":{"type":"Point","coordinates":[77.0754759264,10.4808886928]}},{"type":"Feature","properties":{"crop":"Nutmeg","tree_no":"582"},"geometry":{"type":"Point","coordinates":[77.0754151486,10.480892467]}},{"type":"Feature","properties":{"crop":"Nutmeg","tree_no":"583"},"geometry":{"type":"Point","coordinates":[77.0753391219,10.4808980497]}},{"type":"Feature","properties":{"crop":"Nutmeg","tree_no":"584"},"geometry":{"type":"Point","coordinates":[77.0749197584,10.4809512071]}},{"type":"Feature","properties":{"crop":"Nutmeg","tree_no":"585"},"geometry":{"type":"Point","coordinates":[77.0748480861,10.4809686947]}},{"type":"Feature","properties":{"crop":"Nutmeg","tree_no":"586"},"geometry":{"type":"Point","coordinates":[77.0747763939,10.4809756514]}},{"type":"Feature","properties":{"crop":"Nutmeg","tree_no":"587"},"geometry":{"type":"Point","coordinates":[77.0746989473,10.4809870003]}},{"type":"Feature","properties":{"crop":"Nutmeg","tree_no":"588"},"geometry":{"type":"Point","coordinates":[77.074624712,10.4809926958]}},{"type":"Feature","properties":{"crop":"Nutmeg","tree_no":"589"},"geometry":{"type":"Point","coordinates":[77.0745509373,10.4809992821]}},{"type":"Feature","properties":{"crop":"Nutmeg","tree_no":"590"},"geometry":{"type":"Point","coordinates":[77.0744774717,10.4810100743]}},{"type":"Feature","properties":{"crop":"Nutmeg","tree_no":"591"},"geometry":{"type":"Point","coordinates":[77.0744054174,10.4810186728]}},{"type":"Feature","properties":{"crop":"Nutmeg","tree_no":"592"},"geometry":{"type":"Point","coordinates":[77.0743320773,10.4810276653]}},{"type":"Feature","properties":{"crop":"Nutmeg","tree_no":"593"},"geometry":{"type":"Point","coordinates":[77.0742566081,10.4810388542]}},{"type":"Feature","properties":{"crop":"Nutmeg","tree_no":"594"},"geometry":{"type":"Point","coordinates":[77.0742486317,10.4809674725]}},{"type":"Feature","properties":{"crop":"Nutmeg","tree_no":"595"},"geometry":{"type":"Point","coordinates":[77.0743213922,10.4809549698]}},{"type":"Feature","properties":{"crop":"Nutmeg","tree_no":"596"},"geometry":{"type":"Point","coordinates":[77.0743943994,10.4809475481]}},{"type":"Feature","properties":{"crop":"Nutmeg","tree_no":"597"},"geometry":{"type":"Point","coordinates":[77.0744705533,10.480936046]}},{"type":"Feature","properties":{"crop":"Nutmeg","tree_no":"598"},"geometry":{"type":"Point","coordinates":[77.0745434296,10.4809287018]}},{"type":"Feature","properties":{"crop":"Nutmeg","tree_no":"599"},"geometry":{"type":"Point","coordinates":[77.0746123327,10.4809149116]}},{"type":"Feature","properties":{"crop":"Nutmeg","tree_no":"600"},"geometry":{"type":"Point","coordinates":[77.0746852222,10.4809094308]}},{"type":"Feature","properties":{"crop":"Nutmeg","tree_no":"601"},"geometry":{"type":"Point","coordinates":[77.0747633354,10.4809025932]}},{"type":"Feature","properties":{"crop":"Nutmeg","tree_no":"602"},"geometry":{"type":"Point","coordinates":[77.0748395369,10.480895441]}},{"type":"Feature","properties":{"crop":"Nutmeg","tree_no":"603"},"geometry":{"type":"Point","coordinates":[77.074917776,10.480880286]}},{"type":"Feature","properties":{"crop":"Nutmeg","tree_no":"604"},"geometry":{"type":"Point","coordinates":[77.0749863981,10.4808730433]}},{"type":"Feature","properties":{"crop":"Nutmeg","tree_no":"605"},"geometry":{"type":"Point","coordinates":[77.0752647329,10.4808367202]}},{"type":"Feature","properties":{"crop":"Nutmeg","tree_no":"606"},"geometry":{"type":"Point","coordinates":[77.075332033,10.4808324955]}},{"type":"Feature","properties":{"crop":"Nutmeg","tree_no":"607"},"geometry":{"type":"Point","coordinates":[77.0754036976,10.4808195799]}},{"type":"Feature","properties":{"crop":"Nutmeg","tree_no":"608"},"geometry":{"type":"Point","coordinates":[77.0756316017,10.4807878677]}},{"type":"Feature","properties":{"crop":"Nutmeg","tree_no":"609"},"geometry":{"type":"Point","coordinates":[77.0757051401,10.480773546]}},{"type":"Feature","properties":{"crop":"Nutmeg","tree_no":"610"},"geometry":{"type":"Point","coordinates":[77.0757773652,10.4807646386]}},{"type":"Feature","properties":{"crop":"Nutmeg","tree_no":"611"},"geometry":{"type":"Point","coordinates":[77.0758524891,10.4807507443]}},{"type":"Feature","properties":{"crop":"Nutmeg","tree_no":"612"},"geometry":{"type":"Point","coordinates":[77.0759261269,10.4807421939]}},{"type":"Feature","properties":{"crop":"Nutmeg","tree_no":"613"},"geometry":{"type":"Point","coordinates":[77.0759968109,10.4807363211]}},{"type":"Feature","properties":{"crop":"Nutmeg","tree_no":"614"},"geometry":{"type":"Point","coordinates":[77.0760713011,10.4807265775]}},{"type":"Feature","properties":{"crop":"Nutmeg","tree_no":"615"},"geometry":{"type":"Point","coordinates":[77.0761434812,10.4807143864]}},{"type":"Feature","properties":{"crop":"Nutmeg","tree_no":"616"},"geometry":{"type":"Point","coordinates":[77.0762188108,10.4806994382]}},{"type":"Feature","properties":{"crop":"Nutmeg","tree_no":"617"},"geometry":{"type":"Point","coordinates":[77.0762933442,10.4806928537]}},{"type":"Feature","properties":{"crop":"Nutmeg","tree_no":"618"},"geometry":{"type":"Point","coordinates":[77.0763686925,10.4806818966]}},{"type":"Feature","properties":{"crop":"Nutmeg","tree_no":"619"},"geometry":{"type":"Point","coordinates":[77.076440175,10.4806711609]}},{"type":"Feature","properties":{"crop":"Nutmeg","tree_no":"620"},"geometry":{"type":"Point","coordinates":[77.0765122645,10.4806564564]}},{"type":"Feature","properties":{"crop":"Nutmeg","tree_no":"621"},"geometry":{"type":"Point","coordinates":[77.0765853458,10.4806472309]}},{"type":"Feature","properties":{"crop":"Nutmeg","tree_no":"622"},"geometry":{"type":"Point","coordinates":[77.076649581,10.4806360097]}},{"type":"Feature","properties":{"crop":"Nutmeg","tree_no":"623"},"geometry":{"type":"Point","coordinates":[77.0766329751,10.4805639086]}},{"type":"Feature","properties":{"crop":"Nutmeg","tree_no":"624"},"geometry":{"type":"Point","coordinates":[77.0765695612,10.4805743124]}},{"type":"Feature","properties":{"crop":"Nutmeg","tree_no":"625"},"geometry":{"type":"Point","coordinates":[77.0764976046,10.48058775]}},{"type":"Feature","properties":{"crop":"Nutmeg","tree_no":"626"},"geometry":{"type":"Point","coordinates":[77.0764230897,10.4805935223]}},{"type":"Feature","properties":{"crop":"Nutmeg","tree_no":"627"},"geometry":{"type":"Point","coordinates":[77.0763537354,10.4806073137]}},{"type":"Feature","properties":{"crop":"Nutmeg","tree_no":"628"},"geometry":{"type":"Point","coordinates":[77.0762778375,10.4806162359]}},{"type":"Feature","properties":{"crop":"Nutmeg","tree_no":"629"},"geometry":{"type":"Point","coordinates":[77.0762081824,10.4806318179]}},{"type":"Feature","properties":{"crop":"Nutmeg","tree_no":"630"},"geometry":{"type":"Point","coordinates":[77.0761388803,10.4806407464]}},{"type":"Feature","properties":{"crop":"Nutmeg","tree_no":"631"},"geometry":{"type":"Point","coordinates":[77.0760596377,10.4806541135]}},{"type":"Feature","properties":{"crop":"Nutmeg","tree_no":"632"},"geometry":{"type":"Point","coordinates":[77.0759857673,10.480659456]}},{"type":"Feature","properties":{"crop":"Nutmeg","tree_no":"633"},"geometry":{"type":"Point","coordinates":[77.0759143417,10.4806739492]}},{"type":"Feature","properties":{"crop":"Nutmeg","tree_no":"634"},"geometry":{"type":"Point","coordinates":[77.0758373753,10.4806791699]}},{"type":"Feature","properties":{"crop":"Nutmeg","tree_no":"635"},"geometry":{"type":"Point","coordinates":[77.0757670764,10.4806920026]}},{"type":"Feature","properties":{"crop":"Nutmeg","tree_no":"636"},"geometry":{"type":"Point","coordinates":[77.0756970615,10.4807059817]}},{"type":"Feature","properties":{"crop":"Nutmeg","tree_no":"637"},"geometry":{"type":"Point","coordinates":[77.0756201055,10.4807181427]}},{"type":"Feature","properties":{"crop":"Nutmeg","tree_no":"638"},"geometry":{"type":"Point","coordinates":[77.0753950483,10.4807482482]}},{"type":"Feature","properties":{"crop":"Nutmeg","tree_no":"639"},"geometry":{"type":"Point","coordinates":[77.07531613,10.4807565854]}},{"type":"Feature","properties":{"crop":"Nutmeg","tree_no":"640"},"geometry":{"type":"Point","coordinates":[77.0752459449,10.480771268]}},{"type":"Feature","properties":{"crop":"Nutmeg","tree_no":"641"},"geometry":{"type":"Point","coordinates":[77.0751093094,10.480777162]}},{"type":"Feature","properties":{"crop":"Nutmeg","tree_no":"642"},"geometry":{"type":"Point","coordinates":[77.0750450663,10.4807864283]}},{"type":"Feature","properties":{"crop":"Nutmeg","tree_no":"643"},"geometry":{"type":"Point","coordinates":[77.0749788004,10.480800663]}},{"type":"Feature","properties":{"crop":"Nutmeg","tree_no":"644"},"geometry":{"type":"Point","coordinates":[77.0749086267,10.4808117218]}},{"type":"Feature","properties":{"crop":"Nutmeg","tree_no":"645"},"geometry":{"type":"Point","coordinates":[77.0748320792,10.4808138305]}},{"type":"Feature","properties":{"crop":"Nutmeg","tree_no":"646"},"geometry":{"type":"Point","coordinates":[77.0747497391,10.4808264915]}},{"type":"Feature","properties":{"crop":"Nutmeg","tree_no":"647"},"geometry":{"type":"Point","coordinates":[77.0746783953,10.4808341003]}},{"type":"Feature","properties":{"crop":"Nutmeg","tree_no":"648"},"geometry":{"type":"Point","coordinates":[77.0746059571,10.4808481557]}},{"type":"Feature","properties":{"crop":"Nutmeg","tree_no":"649"},"geometry":{"type":"Point","coordinates":[77.0745348063,10.4808521138]}},{"type":"Feature","properties":{"crop":"Nutmeg","tree_no":"650"},"geometry":{"type":"Point","coordinates":[77.0744627133,10.4808636361]}},{"type":"Feature","properties":{"crop":"Nutmeg","tree_no":"651"},"geometry":{"type":"Point","coordinates":[77.0743858779,10.4808694964]}},{"type":"Feature","properties":{"crop":"Nutmeg","tree_no":"652"},"geometry":{"type":"Point","coordinates":[77.074310395,10.4808816083]}},{"type":"Feature","properties":{"crop":"Nutmeg","tree_no":"653"},"geometry":{"type":"Point","coordinates":[77.0742372916,10.4808918573]}},{"type":"Feature","properties":{"crop":"Nutmeg","tree_no":"654"},"geometry":{"type":"Point","coordinates":[77.0742267521,10.4808150816]}},{"type":"Feature","properties":{"crop":"Nutmeg","tree_no":"655"},"geometry":{"type":"Point","coordinates":[77.0742972494,10.4808027136]}},{"type":"Feature","properties":{"crop":"Nutmeg","tree_no":"656"},"geometry":{"type":"Point","coordinates":[77.0743721743,10.4807980302]}},{"type":"Feature","properties":{"crop":"Nutmeg","tree_no":"657"},"geometry":{"type":"Point","coordinates":[77.074448719,10.4807880935]}},{"type":"Feature","properties":{"crop":"Nutmeg","tree_no":"658"},"geometry":{"type":"Point","coordinates":[77.0745220109,10.480782594]}},{"type":"Feature","properties":{"crop":"Nutmeg","tree_no":"659"},"geometry":{"type":"Point","coordinates":[77.0746000125,10.4807717061]}},{"type":"Feature","properties":{"crop":"Nutmeg","tree_no":"660"},"geometry":{"type":"Point","coordinates":[77.0746709767,10.4807656618]}},{"type":"Feature","properties":{"crop":"Nutmeg","tree_no":"661"},"geometry":{"type":"Point","coordinates":[77.0747431453,10.4807516417]}},{"type":"Feature","properties":{"crop":"Nutmeg","tree_no":"662"},"geometry":{"type":"Point","coordinates":[77.0748172891,10.4807484794]}},{"type":"Feature","properties":{"crop":"Nutmeg","tree_no":"663"},"geometry":{"type":"Point","coordinates":[77.0748914709,10.4807349027]}},{"type":"Feature","properties":{"crop":"Nutmeg","tree_no":"664"},"geometry":{"type":"Point","coordinates":[77.0749657178,10.4807268767]}},{"type":"Feature","properties":{"crop":"Nutmeg","tree_no":"665"},"geometry":{"type":"Point","coordinates":[77.0750308338,10.4807191161]}},{"type":"Feature","properties":{"crop":"Nutmeg","tree_no":"666"},"geometry":{"type":"Point","coordinates":[77.075093668,10.4807158308]}},{"type":"Feature","properties":{"crop":"Nutmeg","tree_no":"667"},"geometry":{"type":"Point","coordinates":[77.0752400197,10.4806954506]}},{"type":"Feature","properties":{"crop":"Nutmeg","tree_no":"668"},"geometry":{"type":"Point","coordinates":[77.075309984,10.4806871001]}},{"type":"Feature","properties":{"crop":"Nutmeg","tree_no":"669"},"geometry":{"type":"Point","coordinates":[77.0753824298,10.4806748515]}},{"type":"Feature","properties":{"crop":"Nutmeg","tree_no":"671"},"geometry":{"type":"Point","coordinates":[77.0756116618,10.4806401311]}},{"type":"Feature","properties":{"crop":"Nutmeg","tree_no":"672"},"geometry":{"type":"Point","coordinates":[77.0756076489,10.4806061898]}},{"type":"Feature","properties":{"crop":"Nutmeg","tree_no":"673"},"geometry":{"type":"Point","coordinates":[77.0756845172,10.4806320863]}},{"type":"Feature","properties":{"crop":"Nutmeg","tree_no":"674"},"geometry":{"type":"Point","coordinates":[77.075754244,10.4806204482]}},{"type":"Feature","properties":{"crop":"Nutmeg","tree_no":"675"},"geometry":{"type":"Point","coordinates":[77.0758275211,10.4806120378]}},{"type":"Feature","properties":{"crop":"Nutmeg","tree_no":"676"},"geometry":{"type":"Point","coordinates":[77.0759008965,10.4805975048]}},{"type":"Feature","properties":{"crop":"Nutmeg","tree_no":"677"},"geometry":{"type":"Point","coordinates":[77.0759762688,10.4805893705]}},{"type":"Feature","properties":{"crop":"Nutmeg","tree_no":"678"},"geometry":{"type":"Point","coordinates":[77.0760469554,10.4805795796]}},{"type":"Feature","properties":{"crop":"Nutmeg","tree_no":"679"},"geometry":{"type":"Point","coordinates":[77.0761239905,10.4805708761]}},{"type":"Feature","properties":{"crop":"Nutmeg","tree_no":"680"},"geometry":{"type":"Point","coordinates":[77.0761986881,10.4805573035]}},{"type":"Feature","properties":{"crop":"Nutmeg","tree_no":"681"},"geometry":{"type":"Point","coordinates":[77.0762682121,10.4805450775]}},{"type":"Feature","properties":{"crop":"Nutmeg","tree_no":"682"},"geometry":{"type":"Point","coordinates":[77.0763432855,10.4805311082]}},{"type":"Feature","properties":{"crop":"Nutmeg","tree_no":"683"},"geometry":{"type":"Point","coordinates":[77.076408922,10.4805221501]}},{"type":"Feature","properties":{"crop":"Nutmeg","tree_no":"684"},"geometry":{"type":"Point","coordinates":[77.076482874,10.4805134334]}},{"type":"Feature","properties":{"crop":"Nutmeg","tree_no":"685"},"geometry":{"type":"Point","coordinates":[77.0765606701,10.4805004984]}},{"type":"Feature","properties":{"crop":"Nutmeg","tree_no":"686"},"geometry":{"type":"Point","coordinates":[77.0766209832,10.4804889257]}},{"type":"Feature","properties":{"crop":"Nutmeg","tree_no":"688"},"geometry":{"type":"Point","coordinates":[77.0766101601,10.4804187728]}},{"type":"Feature","properties":{"crop":"Nutmeg","tree_no":"689"},"geometry":{"type":"Point","coordinates":[77.0765505478,10.4804249826]}},{"type":"Feature","properties":{"crop":"Nutmeg","tree_no":"690"},"geometry":{"type":"Point","coordinates":[77.0764711728,10.4804366916]}},{"type":"Feature","properties":{"crop":"Nutmeg","tree_no":"691"},"geometry":{"type":"Point","coordinates":[77.0764017226,10.4804473002]}},{"type":"Feature","properties":{"crop":"Nutmeg","tree_no":"692"},"geometry":{"type":"Point","coordinates":[77.0763341994,10.480456837]}},{"type":"Feature","properties":{"crop":"Nutmeg","tree_no":"693"},"geometry":{"type":"Point","coordinates":[77.0762588667,10.4804711433]}},{"type":"Feature","properties":{"crop":"Nutmeg","tree_no":"694"},"geometry":{"type":"Point","coordinates":[77.0761185642,10.4805092893]}},{"type":"Feature","properties":{"crop":"Nutmeg","tree_no":"695"},"geometry":{"type":"Point","coordinates":[77.076040261,10.480517785]}},{"type":"Feature","properties":{"crop":"Nutmeg","tree_no":"696"},"geometry":{"type":"Point","coordinates":[77.0759644638,10.4805345366]}},{"type":"Feature","properties":{"crop":"Nutmeg","tree_no":"697"},"geometry":{"type":"Point","coordinates":[77.0758913653,10.4805462485]}},{"type":"Feature","properties":{"crop":"Nutmeg","tree_no":"698"},"geometry":{"type":"Point","coordinates":[77.0758148546,10.4805578461]}},{"type":"Feature","properties":{"crop":"Nutmeg","tree_no":"699"},"geometry":{"type":"Point","coordinates":[77.0757479842,10.4805693303]}},{"type":"Feature","properties":{"crop":"Nutmeg","tree_no":"700"},"geometry":{"type":"Point","coordinates":[77.0753077144,10.4806291756]}},{"type":"Feature","properties":{"crop":"Nutmeg","tree_no":"701"},"geometry":{"type":"Point","coordinates":[77.0752328743,10.4806372179]}},{"type":"Feature","properties":{"crop":"Nutmeg","tree_no":"14"},"geometry":{"type":"Point","coordinates":[77.0759539746,10.4822940405]}},{"type":"Feature","properties":{"crop":"Nutmeg","tree_no":"551.1"},"geometry":{"type":"Point","coordinates":[77.0753491956,10.4809759227]}},{"type":"Feature","properties":{"crop":"Nutmeg","tree_no":"693.1"},"geometry":{"type":"Point","coordinates":[77.0761929554,10.4804946705]}}]}
